{"type": "FeatureCollection", "features": [{"type": "Feature", "properties": {"dissolve": "1049River", "scalerank": 9.0, "featurecla": "River", "name": "Moulouya", "name_alt": null, "rivernum": 1049, "note": null, "min_zoom": 7.1, "name_en": "Moulouya", "min_label": 8.1}, "bbox": [-5.411204, 32.58629, -2.340566, 35.123114], "geometry": {"type": "LineString", "coordinates": [[-5.411204, 32.58629], [-5.288889, 32.626532], [-5.250803, 32.64704], [-5.226755, 32.669379], [-5.218577, 32.675116], [-5.2058, 32.67947], [-5.17927, 32.684678], [-5.13679, 32.706407], [-5.065175, 32.717393], [-5.032053, 32.727851], [-4.995351, 32.76081], [-4.970448, 32.802069], [-4.94286, 32.838446], [-4.897939, 32.856716], [-4.855214, 32.848985], [-4.787343, 32.805691], [-4.746409, 32.798163], [-4.638905, 32.820258], [-4.592275, 32.824897], [-4.537424, 32.838324], [-4.401438, 32.833441], [-4.335398, 32.843451], [-4.166005, 32.907782], [-4.115224, 32.935411], [-4.023915, 33.017686], [-3.948476, 33.066759], [-3.927195, 33.085313], [-3.816233, 33.207384], [-3.705556, 33.287543], [-3.679026, 33.318305], [-3.665924, 33.351345], [-3.629954, 33.529405], [-3.613596, 33.581244], [-3.612131, 33.598253], [-3.601877, 33.634792], [-3.546864, 33.690009], [-3.533681, 33.723009], [-3.54011, 33.763129], [-3.541086, 33.785712], [-3.524892, 33.82628], [-3.52831, 33.86872], [-3.519928, 33.889187], [-3.444569, 33.966824], [-3.423818, 33.997423], [-3.417714, 34.012641], [-3.384348, 34.132392], [-3.370269, 34.153266], [-3.314931, 34.205919], [-3.276194, 34.27501], [-3.241282, 34.314561], [-3.235829, 34.325141], [-3.229563, 34.346055], [-3.225901, 34.354682], [-3.18578, 34.413682], [-3.170969, 34.426215], [-3.09789, 34.467353], [-3.091135, 34.475857], [-3.088694, 34.48371], [-3.08495, 34.49018], [-3.07429, 34.494656], [-3.059397, 34.505642], [-3.033193, 34.547146], [-3.010732, 34.560981], [-2.983957, 34.56863], [-2.972483, 34.574286], [-2.9322, 34.606391], [-2.925364, 34.614854], [-2.92398, 34.622382], [-2.927724, 34.628526], [-2.93281, 34.634101], [-2.93871, 34.647081], [-2.943186, 34.65412], [-2.942942, 34.661973], [-2.931467, 34.671739], [-2.841624, 34.709499], [-2.819407, 34.725653], [-2.684316, 34.877468], [-2.614329, 34.929796], [-2.539133, 34.95893], [-2.525543, 34.95893], [-2.512522, 34.956732], [-2.498606, 34.956366], [-2.482167, 34.962022], [-2.468251, 34.971055], [-2.460846, 34.979112], [-2.413401, 35.064276], [-2.397532, 35.084174], [-2.381663, 35.097927], [-2.340566, 35.123114]]}}, {"type": "Feature", "properties": {"dissolve": "1056River", "scalerank": 9.0, "featurecla": "River", "name": "Ceyhan", "name_alt": null, "rivernum": 1056, "note": null, "min_zoom": 7.1, "name_en": "Ceyhan", "min_label": 8.1}, "bbox": [35.4699, 36.587022, 37.11378, 38.652655], "geometry": {"type": "LineString", "coordinates": [[36.0, 37.21920278162489], [35.990733, 37.220649], [35.969737, 37.219672], [35.956716, 37.206488], [35.941661, 37.21251], [35.932384, 37.206895], [35.924083, 37.197699], [35.911876, 37.192816], [35.904552, 37.190863], [35.893565, 37.181586], [35.887787, 37.178534], [35.878347, 37.179145], [35.872081, 37.182929], [35.867117, 37.184516], [35.860606, 37.178534], [35.853119, 37.178534], [35.853119, 37.18537], [35.846934, 37.18537], [35.820323, 37.154608], [35.812511, 37.136786], [35.81894, 37.117743], [35.798595, 37.117743], [35.805186, 37.107733], [35.816335, 37.098578], [35.840017, 37.082953], [35.82724, 37.076687], [35.803315, 37.058783], [35.795177, 37.054999], [35.785411, 37.052029], [35.79005, 37.044135], [35.799815, 37.033311], [35.805431, 37.021511], [35.792247, 37.030056], [35.783702, 37.033718], [35.774506, 37.035183], [35.764252, 37.03266], [35.761729, 37.026679], [35.761485, 37.019721], [35.757498, 37.014106], [35.743582, 37.008368], [35.710948, 36.999579], [35.695567, 36.993598], [35.661225, 36.973009], [35.608897, 36.952216], [35.594656, 36.939805], [35.585704, 36.918484], [35.619721, 36.911648], [35.619721, 36.904161], [35.614675, 36.902452], [35.61142, 36.900946], [35.606619, 36.898017], [35.583588, 36.910183], [35.573009, 36.911241], [35.565196, 36.904161], [35.562511, 36.88821], [35.570242, 36.87991], [35.580496, 36.873481], [35.585704, 36.863227], [35.574799, 36.848497], [35.550548, 36.843451], [35.525157, 36.844916], [35.510509, 36.849555], [35.503673, 36.849555], [35.500662, 36.840277], [35.49586, 36.83157], [35.487885, 36.824978], [35.475841, 36.822292], [35.485281, 36.814154], [35.488536, 36.806586], [35.485444, 36.799994], [35.475841, 36.794989], [35.475841, 36.788764], [35.481863, 36.783637], [35.483653, 36.776923], [35.481537, 36.769232], [35.475841, 36.76081], [35.489513, 36.740505], [35.4699, 36.682156], [35.483328, 36.671454], [35.481456, 36.667996], [35.480398, 36.664822], [35.478608, 36.661566], [35.475841, 36.657782], [35.493337, 36.65412], [35.516368, 36.657823], [35.536225, 36.664252], [35.544688, 36.668321], [35.548106, 36.661485], [35.556163, 36.657538], [35.565196, 36.654649], [35.572032, 36.650946], [35.578705, 36.641954], [35.586355, 36.6258], [35.593191, 36.616807], [35.585378, 36.606513], [35.569265, 36.594102], [35.567475, 36.587022]]}}, {"type": "Feature", "properties": {"dissolve": "19River", "scalerank": 1.0, "featurecla": "River", "name": "Rosetta Branch", "name_alt": null, "rivernum": 19, "note": null, "min_zoom": 2.0, "name_en": "Rosetta Branch", "min_label": 3.0}, "bbox": [30.398529, 30.123847, 31.236908, 31.443386], "geometry": {"type": "LineString", "coordinates": [[31.236908, 30.123847], [31.23406, 30.133368], [31.228445, 30.141059], [31.218516, 30.146104], [31.179454, 30.150092], [31.16627, 30.15587], [31.145274, 30.17532], [31.117931, 30.188992], [31.093272, 30.206651], [31.081147, 30.211697], [31.067556, 30.221503], [31.059581, 30.223741], [31.050792, 30.221747], [31.036876, 30.212266], [31.029226, 30.209418], [31.008718, 30.209662], [30.990977, 30.215196], [30.978608, 30.225653], [30.973888, 30.240505], [30.972748, 30.262885], [30.969737, 30.273301], [30.96339, 30.277696], [30.962169, 30.280219], [30.95045, 30.28498], [30.939138, 30.28795], [30.929698, 30.291042], [30.926768, 30.291693], [30.919932, 30.305691], [30.917979, 30.315782], [30.918224, 30.326972], [30.916759, 30.336046], [30.909272, 30.339789], [30.882416, 30.34573], [30.851085, 30.326117], [30.832937, 30.333686], [30.826427, 30.347846], [30.833018, 30.361599], [30.879324, 30.372748], [30.872813, 30.383897], [30.844249, 30.401231], [30.841401, 30.415554], [30.844249, 30.429958], [30.848643, 30.442939], [30.851085, 30.45307], [30.849132, 30.46365], [30.844168, 30.474962], [30.830496, 30.497423], [30.837983, 30.506781], [30.845225, 30.518256], [30.850108, 30.531358], [30.851085, 30.545844], [30.843028, 30.548367], [30.83546, 30.547146], [30.829031, 30.54682], [30.823741, 30.552069], [30.820893, 30.56037], [30.821056, 30.568468], [30.826101, 30.575263], [30.837413, 30.579372], [30.837413, 30.586859], [30.816905, 30.595526], [30.804454, 30.613349], [30.798106, 30.637519], [30.795909, 30.680121], [30.793468, 30.694444], [30.788178, 30.70539], [30.779063, 30.709744], [30.774099, 30.716335], [30.781179, 30.730496], [30.791108, 30.743598], [30.796397, 30.74726], [30.792247, 30.763495], [30.78183, 30.763739], [30.768321, 30.759955], [30.754893, 30.76435], [30.753022, 30.775417], [30.760265, 30.788886], [30.770112, 30.800482], [30.77589, 30.805976], [30.802257, 30.81212], [30.814871, 30.817572], [30.816173, 30.827012], [30.806651, 30.833279], [30.792491, 30.832546], [30.761729, 30.827012], [30.784923, 30.84101], [30.789561, 30.846869], [30.792898, 30.856716], [30.793549, 30.868191], [30.789806, 30.877712], [30.779063, 30.881659], [30.756847, 30.88581], [30.759858, 30.896267], [30.773367, 30.909613], [30.782156, 30.922634], [30.777273, 30.939073], [30.75351, 30.970893], [30.751475, 30.97663], [30.763438, 30.983466], [30.753184, 30.998399], [30.736095, 31.013007], [30.72755, 31.018826], [30.724701, 31.027371], [30.727957, 31.042182], [30.72755, 31.052314], [30.723074, 31.06212], [30.709239, 31.078477], [30.706309, 31.083075], [30.699148, 31.091986], [30.651866, 31.114366], [30.605886, 31.172797], [30.597911, 31.179999], [30.586925, 31.183295], [30.581065, 31.186225], [30.569916, 31.19949], [30.562429, 31.203192], [30.554698, 31.202663], [30.550792, 31.199897], [30.547537, 31.197048], [30.542572, 31.196357], [30.54241, 31.195868], [30.525157, 31.196357], [30.52532, 31.202094], [30.519216, 31.229315], [30.514659, 31.237901], [30.507823, 31.237901], [30.507823, 31.230496], [30.501557, 31.230496], [30.499278, 31.233507], [30.498953, 31.234727], [30.498057, 31.235663], [30.494151, 31.237901], [30.494151, 31.244167], [30.505626, 31.254421], [30.514252, 31.270209], [30.52003, 31.289333], [30.522065, 31.309638], [30.521007, 31.320095], [30.518077, 31.327989], [30.513601, 31.334296], [30.507823, 31.339708], [30.503835, 31.342353], [30.495372, 31.346788], [30.490977, 31.350613], [30.483165, 31.354438], [30.477468, 31.350124], [30.474213, 31.343329], [30.473643, 31.339708], [30.46461, 31.342841], [30.458018, 31.347927], [30.454031, 31.355007], [30.452566, 31.364569], [30.448334, 31.374945], [30.439138, 31.379421], [30.429861, 31.381456], [30.425873, 31.384711], [30.426524, 31.409491], [30.424571, 31.428982], [30.41505, 31.440945], [30.398529, 31.443386]]}}, {"type": "Feature", "properties": {"dissolve": "209Lake Centerline", "scalerank": 6.0, "featurecla": "Lake Centerline", "name": "Suez Canal", "name_alt": null, "rivernum": 209, "note": null, "min_zoom": 5.0, "name_en": "Suez Canal", "min_label": 6.0}, "bbox": [32.359467, 30.180691, 32.560964, 30.424262], "geometry": {"type": "LineString", "coordinates": [[32.560964, 30.180691], [32.560802, 30.181098], [32.560802, 30.181505], [32.554698, 30.209296], [32.538015, 30.242621], [32.506928, 30.266425], [32.459402, 30.273546], [32.430675, 30.29031], [32.397472, 30.337917], [32.35963, 30.423936], [32.359467, 30.424262]]}}, {"type": "Feature", "properties": {"dissolve": "209River", "scalerank": 6.0, "featurecla": "River", "name": "Suez Canal", "name_alt": null, "rivernum": 209, "note": null, "min_zoom": 5.0, "name_en": "Suez Canal", "min_label": 6.0}, "bbox": [32.296641, 30.01142, 32.577729, 31.272732], "geometry": {"type": "MultiLineString", "coordinates": [[[32.359874, 30.423611], [32.336355, 30.505154], [32.322765, 30.540635], [32.296641, 30.566352], [32.303477, 30.593044], [32.334076, 30.644965], [32.34433, 30.720567], [32.341563, 30.744696], [32.3178, 30.812771], [32.303477, 31.244167], [32.302664, 31.256537], [32.308849, 31.267686], [32.313894, 31.272732]], [[32.560802, 30.181505], [32.577729, 30.01142]]]}}, {"type": "Feature", "properties": {"dissolve": "20River", "scalerank": 1.0, "featurecla": "River", "name": "Damietta Branch", "name_alt": null, "rivernum": 20, "note": null, "min_zoom": 2.0, "name_en": "Damietta Branch", "min_label": 3.0}, "bbox": [31.055756, 30.17532, 31.844737, 31.525336], "geometry": {"type": "LineString", "coordinates": [[31.145274, 30.17532], [31.134207, 30.19241], [31.115245, 30.215359], [31.111095, 30.226833], [31.11085, 30.254991], [31.107921, 30.270819], [31.100597, 30.277696], [31.104015, 30.322292], [31.103608, 30.332343], [31.092784, 30.34394], [31.066824, 30.360541], [31.055756, 30.374579], [31.077729, 30.369981], [31.086925, 30.370144], [31.097341, 30.374579], [31.106537, 30.382392], [31.107432, 30.388536], [31.104747, 30.394355], [31.103608, 30.401231], [31.103445, 30.412706], [31.101085, 30.416205], [31.10198, 30.415717], [31.111095, 30.414903], [31.11907, 30.410956], [31.122325, 30.40412], [31.125011, 30.402655], [31.131602, 30.414903], [31.134939, 30.428412], [31.134369, 30.437852], [31.135753, 30.446234], [31.145274, 30.456488], [31.154552, 30.461249], [31.171316, 30.463935], [31.179454, 30.46955], [31.180593, 30.474962], [31.17921, 30.482001], [31.178966, 30.488064], [31.183116, 30.490587], [31.184174, 30.491726], [31.199799, 30.497423], [31.227794, 30.51793], [31.227794, 30.524115], [31.222097, 30.531562], [31.220144, 30.541856], [31.221934, 30.55211], [31.227794, 30.559516], [31.233409, 30.558376], [31.240001, 30.552191], [31.248953, 30.547797], [31.261811, 30.552069], [31.250987, 30.564968], [31.25351, 30.588243], [31.268647, 30.633979], [31.270274, 30.660915], [31.258393, 30.706855], [31.255056, 30.733954], [31.25294, 30.7414], [31.24822, 30.743476], [31.243663, 30.744086], [31.241466, 30.74726], [31.23463, 30.771796], [31.230724, 30.81391], [31.221202, 30.822781], [31.216319, 30.829861], [31.213634, 30.836941], [31.218761, 30.841173], [31.241466, 30.846869], [31.248139, 30.850409], [31.252452, 30.850775], [31.254487, 30.853583], [31.255056, 30.864325], [31.252859, 30.868191], [31.247325, 30.873318], [31.240733, 30.878241], [31.23463, 30.881659], [31.242198, 30.882839], [31.246349, 30.884467], [31.249766, 30.886542], [31.255056, 30.888495], [31.241628, 30.899115], [31.245046, 30.90705], [31.2553, 30.914171], [31.261811, 30.922634], [31.260997, 30.935248], [31.256358, 30.943142], [31.252859, 30.950995], [31.255056, 30.963568], [31.263276, 30.973741], [31.274018, 30.976589], [31.285737, 30.977973], [31.296804, 30.984076], [31.299083, 30.988471], [31.305593, 31.016913], [31.310639, 31.019477], [31.317149, 31.020535], [31.323334, 31.02501], [31.330496, 31.034369], [31.337332, 31.041205], [31.345876, 31.046739], [31.358165, 31.052314], [31.365001, 31.053656], [31.389171, 31.052314], [31.394542, 31.054796], [31.396251, 31.060736], [31.396658, 31.067694], [31.399099, 31.073432], [31.437022, 31.128933], [31.453705, 31.14171], [31.453705, 31.147976], [31.45045, 31.156562], [31.457612, 31.163845], [31.468028, 31.171983], [31.474864, 31.183295], [31.488536, 31.176825], [31.504893, 31.172675], [31.514659, 31.173896], [31.508311, 31.183295], [31.508311, 31.189521], [31.512299, 31.191352], [31.513113, 31.192084], [31.513113, 31.193183], [31.515147, 31.196357], [31.545665, 31.187608], [31.581554, 31.186469], [31.613373, 31.195421], [31.631847, 31.216824], [31.630951, 31.230658], [31.625092, 31.238959], [31.625418, 31.243028], [31.642507, 31.244167], [31.661713, 31.248603], [31.676036, 31.258857], [31.677745, 31.27029], [31.65919, 31.278266], [31.661876, 31.285997], [31.663585, 31.289578], [31.666026, 31.292548], [31.672862, 31.292548], [31.681163, 31.286485], [31.689545, 31.286444], [31.692882, 31.290961], [31.686534, 31.298774], [31.686534, 31.30622], [31.708018, 31.331244], [31.716889, 31.346259], [31.720632, 31.364569], [31.719656, 31.367214], [31.717459, 31.36933], [31.715343, 31.372504], [31.714366, 31.378241], [31.716889, 31.381781], [31.723074, 31.381415], [31.72991, 31.380235], [31.734874, 31.381293], [31.747813, 31.391628], [31.752045, 31.397488], [31.755382, 31.408637], [31.768565, 31.403754], [31.783132, 31.408271], [31.810557, 31.422227], [31.810557, 31.429145], [31.801524, 31.442003], [31.804617, 31.458075], [31.814871, 31.471747], [31.827403, 31.477484], [31.824799, 31.484076], [31.830658, 31.498887], [31.844737, 31.525336]]}}, {"type": "Feature", "properties": {"dissolve": "210River", "scalerank": 6.0, "featurecla": "River", "name": "Ismailiya Canal", "name_alt": null, "rivernum": 210, "note": null, "min_zoom": 5.0, "name_en": "Ismailiya Canal", "min_label": 6.0}, "bbox": [31.237559, 30.120673, 32.303477, 30.593044], "geometry": {"type": "LineString", "coordinates": [[31.237559, 30.120673], [31.243907, 30.122178], [31.269623, 30.12287], [31.296967, 30.131415], [31.312918, 30.153917], [31.322195, 30.185126], [31.404796, 30.326239], [31.410737, 30.331163], [31.451427, 30.356879], [31.514659, 30.382148], [31.718679, 30.536729], [32.254649, 30.578884], [32.303477, 30.593044]]}}, {"type": "Feature", "properties": {"dissolve": "229Lake Centerline", "scalerank": 6.0, "featurecla": "Lake Centerline", "name": "Jordan", "name_alt": null, "rivernum": 229, "note": null, "min_zoom": 5.0, "name_en": "Jordan", "min_label": 6.0}, "bbox": [35.422862, 31.325385, 35.598888, 32.899726], "geometry": {"type": "MultiLineString", "coordinates": [[[35.598888, 32.899726], [35.597179, 32.87934], [35.595876, 32.857937], [35.597179, 32.800849], [35.594168, 32.766669], [35.591075, 32.74372], [35.576915, 32.720282]], [[35.422862, 31.325385], [35.426524, 31.341864], [35.434581, 31.360867], [35.452403, 31.401068], [35.456309, 31.423692], [35.4581, 31.491807], [35.457612, 31.492133], [35.458263, 31.491767], [35.458588, 31.492133], [35.458507, 31.493028], [35.458263, 31.494656], [35.463796, 31.568793], [35.479584, 31.641384], [35.52711, 31.735297], [35.556733, 31.751532], [35.559011, 31.765489]]]}}, {"type": "Feature", "properties": {"dissolve": "229River", "scalerank": 6.0, "featurecla": "River", "name": "Jordan", "name_alt": null, "rivernum": 229, "note": null, "min_zoom": 5.0, "name_en": "Jordan", "min_label": 6.0}, "bbox": [35.395274, 31.230496, 35.863862, 33.596381], "geometry": {"type": "MultiLineString", "coordinates": [[[35.863862, 33.596381], [35.85019, 33.587755], [35.837332, 33.577663], [35.825776, 33.565985], [35.816335, 33.552843], [35.803396, 33.511501], [35.795177, 33.505316], [35.779307, 33.500067], [35.761241, 33.476996], [35.730724, 33.466579], [35.716401, 33.454291], [35.695567, 33.430854], [35.676687, 33.411241], [35.664968, 33.389024], [35.638682, 33.311835], [35.633067, 33.269639], [35.628184, 33.254462], [35.596772, 33.197537], [35.593354, 33.181342], [35.583995, 32.995917], [35.598237, 32.92418], [35.598888, 32.899726]], [[35.576915, 32.720282], [35.566824, 32.711208], [35.564708, 32.70543], [35.566173, 32.70071], [35.572032, 32.697211], [35.560476, 32.69245], [35.558116, 32.68126], [35.561127, 32.667792], [35.565196, 32.656195], [35.565684, 32.652371], [35.564952, 32.649766], [35.565196, 32.648749], [35.560069, 32.64114], [35.559581, 32.63288], [35.563569, 32.625678], [35.572032, 32.621446], [35.572032, 32.615261], [35.565196, 32.615261], [35.565196, 32.607774], [35.570811, 32.598741], [35.573822, 32.573025], [35.579519, 32.560614], [35.575287, 32.555203], [35.573822, 32.554633], [35.573334, 32.556993], [35.572032, 32.560614], [35.569591, 32.557074], [35.565196, 32.546332], [35.559011, 32.553168], [35.562429, 32.532253], [35.565196, 32.525906], [35.551362, 32.525906], [35.551362, 32.51907], [35.556733, 32.519558], [35.560802, 32.519355], [35.567963, 32.510443], [35.570079, 32.506293], [35.579519, 32.497911], [35.579519, 32.491767], [35.570404, 32.489447], [35.564464, 32.484158], [35.560802, 32.477362], [35.559011, 32.470649], [35.562592, 32.46837], [35.564952, 32.466579], [35.567556, 32.465196], [35.572032, 32.464423], [35.572032, 32.456977], [35.565684, 32.453315], [35.559011, 32.450751], [35.565196, 32.443915], [35.551362, 32.436469], [35.553722, 32.434678], [35.555675, 32.435004], [35.557384, 32.434353], [35.559011, 32.429633], [35.551362, 32.429633], [35.551362, 32.423448], [35.557628, 32.41824], [35.558686, 32.414171], [35.554291, 32.411404], [35.544688, 32.409776], [35.549083, 32.398749], [35.551362, 32.395535], [35.556407, 32.39114], [35.560476, 32.384955], [35.563487, 32.377265], [35.565196, 32.368232], [35.559011, 32.368232], [35.559011, 32.375027], [35.551362, 32.375027], [35.551362, 32.368232], [35.556895, 32.358466], [35.556163, 32.328437], [35.565196, 32.313585], [35.560639, 32.301866], [35.560313, 32.282904], [35.564057, 32.263861], [35.572032, 32.252143], [35.566987, 32.249783], [35.563406, 32.247097], [35.560557, 32.243354], [35.559011, 32.23786], [35.572032, 32.23786], [35.554698, 32.174628], [35.559011, 32.162787], [35.559011, 32.155341], [35.550792, 32.151719], [35.546153, 32.147244], [35.546153, 32.141791], [35.551362, 32.135443], [35.534679, 32.111029], [35.534109, 32.099433], [35.544688, 32.087022], [35.527843, 32.075263], [35.52239, 32.058051], [35.524099, 32.011908], [35.535167, 31.988471], [35.537201, 31.977851], [35.537852, 31.964179], [35.539561, 31.955837], [35.545421, 31.94477], [35.544688, 31.936835], [35.540131, 31.932237], [35.533214, 31.930487], [35.526947, 31.927558], [35.524099, 31.91946], [35.548595, 31.839382], [35.537852, 31.826972], [35.537852, 31.819525], [35.559011, 31.765489]], [[35.423432, 31.324815], [35.421804, 31.303249], [35.407725, 31.282253], [35.395274, 31.25788], [35.400645, 31.230496]]]}}, {"type": "Feature", "properties": {"dissolve": "395River", "scalerank": 7.0, "featurecla": "River", "name": "Guadiana", "name_alt": null, "rivernum": 395, "note": null, "min_zoom": 6.0, "name_en": "Guadiana", "min_label": 7.0}, "bbox": [-7.681386, 37.192816, -3.164622, 39.323676], "geometry": {"type": "LineString", "coordinates": [[-7.481475127604165, 37.5], [-7.476552, 37.494452], [-7.469472, 37.475775], [-7.463531, 37.451361], [-7.460683, 37.429389], [-7.46288, 37.418158], [-7.445627, 37.38703], [-7.438059, 37.307563], [-7.428049, 37.274726], [-7.434885, 37.259548], [-7.430002, 37.236925], [-7.414377, 37.192816]]}}, {"type": "Feature", "properties": {"dissolve": "4Lake Centerline", "scalerank": 1.0, "featurecla": "Lake Centerline", "name": "Nile", "name_alt": null, "rivernum": 4, "note": null, "min_zoom": 2.0, "name_en": "Nile", "min_label": 3.0}, "bbox": [31.090587, 21.609198, 32.94573, 23.987657], "geometry": {"type": "LineString", "coordinates": [[32.879405, 23.987657], [32.877859, 23.976833], [32.876231, 23.954779], [32.872325, 23.930732], [32.863292, 23.893826], [32.871186, 23.867865], [32.888438, 23.839179], [32.900971, 23.809516], [32.918549, 23.785183], [32.918468, 23.748725], [32.88974, 23.661811], [32.872976, 23.6317], [32.866222, 23.599718], [32.86085, 23.557196], [32.856375, 23.538926], [32.865652, 23.526475], [32.882335, 23.510362], [32.894054, 23.491767], [32.900971, 23.454535], [32.898692, 23.425808], [32.91212, 23.396186], [32.938731, 23.362494], [32.94573, 23.335313], [32.9428, 23.306749], [32.929617, 23.289374], [32.881114, 23.250922], [32.866466, 23.225613], [32.841401, 23.205024], [32.800873, 23.196601], [32.781749, 23.164008], [32.75294, 23.109687], [32.72226, 23.079617], [32.70517, 23.055528], [32.68336, 22.994574], [32.667572, 22.971625], [32.647716, 22.949083], [32.634044, 22.936835], [32.622081, 22.93126], [32.608002, 22.921942], [32.592296, 22.910264], [32.582042, 22.888454], [32.584972, 22.856024], [32.583263, 22.822618], [32.577566, 22.794379], [32.570811, 22.771755], [32.555919, 22.760443], [32.529796, 22.751899], [32.50294, 22.737413], [32.479015, 22.722032], [32.454194, 22.708564], [32.437999, 22.696072], [32.421153, 22.672309], [32.40325, 22.643866], [32.394216, 22.626532], [32.373464, 22.620307], [32.340424, 22.619696], [32.31129, 22.626532], [32.291515, 22.634101], [32.275401, 22.653835], [32.273448, 22.682685], [32.253022, 22.709662], [32.216563, 22.738064], [32.184662, 22.750678], [32.135346, 22.745469], [32.102794, 22.735704], [32.074474, 22.725857], [32.032156, 22.704698], [31.99407, 22.681912], [31.934093, 22.627143], [31.914154, 22.601671], [31.896251, 22.572943], [31.883067, 22.539618], [31.87794, 22.50019], [31.860769, 22.473822], [31.827566, 22.454291], [31.784923, 22.440253], [31.757335, 22.428534], [31.724132, 22.401801], [31.602306, 22.312567], [31.530772, 22.241034], [31.487071, 22.203192], [31.441335, 22.168565], [31.418875, 22.149766], [31.394623, 22.113552], [31.375418, 22.075303], [31.363292, 22.021064], [31.353038, 21.957384], [31.343354, 21.923122], [31.316987, 21.880439], [31.295421, 21.84988], [31.247325, 21.820868], [31.222667, 21.797309], [31.200857, 21.766669], [31.194021, 21.750067], [31.191498, 21.722276], [31.184174, 21.695502], [31.176362, 21.672797], [31.159434, 21.655707], [31.131277, 21.647528], [31.10963, 21.63463], [31.097911, 21.617743], [31.090587, 21.609198]]}}, {"type": "Feature", "properties": {"dissolve": "4River", "scalerank": 1.0, "featurecla": "River", "name": "Nile", "name_alt": null, "rivernum": 4, "note": null, "min_zoom": 2.0, "name_en": "Nile", "min_label": 3.0}, "bbox": [30.298839, 15.634548, 33.989268, 30.123847], "geometry": {"type": "MultiLineString", "coordinates": [[[32.879405, 23.987657], [32.880056, 24.008246], [32.872651, 24.07331], [32.875499, 24.090155], [32.886241, 24.126247], [32.885671, 24.144721], [32.872651, 24.186306], [32.870535, 24.199042], [32.872651, 24.230984], [32.877371, 24.245185], [32.899506, 24.283474], [32.906749, 24.303005], [32.908702, 24.323676], [32.907237, 24.410468], [32.910167, 24.419501], [32.917003, 24.428982], [32.924246, 24.442003], [32.918549, 24.448025], [32.899343, 24.453192], [32.877859, 24.489854], [32.88323, 24.529853], [32.920421, 24.610867], [32.930105, 24.648953], [32.934011, 24.688585], [32.927257, 24.76911], [32.914154, 24.809272], [32.877533, 24.87287], [32.865245, 24.905056], [32.864838, 24.927558], [32.881358, 24.956855], [32.885671, 24.977647], [32.882091, 25.01496], [32.872651, 25.05032], [32.857188, 25.082628], [32.836192, 25.104926], [32.741222, 25.154161], [32.686453, 25.195339], [32.616222, 25.231553], [32.583425, 25.253445], [32.559581, 25.283149], [32.550548, 25.324042], [32.557384, 25.402208], [32.553722, 25.42414], [32.544526, 25.440863], [32.523204, 25.467353], [32.497813, 25.508653], [32.482839, 25.549831], [32.487885, 25.585964], [32.523204, 25.612006], [32.571544, 25.624376], [32.59547, 25.63642], [32.666026, 25.758124], [32.68214, 25.775417], [32.704112, 25.782742], [32.727061, 25.783881], [32.74879, 25.789333], [32.764415, 25.801703], [32.769542, 25.823676], [32.762462, 25.839179], [32.734793, 25.865668], [32.728526, 25.882025], [32.731619, 25.906317], [32.739757, 25.920844], [32.762787, 25.94713], [32.780528, 25.982733], [32.785818, 26.006619], [32.779796, 26.025987], [32.770518, 26.04503], [32.768077, 26.090888], [32.762787, 26.11164], [32.750662, 26.125067], [32.731619, 26.138536], [32.711681, 26.149034], [32.678152, 26.159776], [32.664561, 26.172309], [32.649099, 26.180487], [32.625499, 26.173692], [32.617198, 26.165391], [32.613048, 26.155463], [32.610281, 26.146064], [32.605724, 26.139594], [32.596446, 26.137315], [32.569753, 26.133857], [32.564057, 26.12873], [32.552257, 26.121121], [32.452159, 26.117051], [32.434093, 26.11164], [32.416921, 26.100165], [32.395925, 26.080634], [32.374604, 26.068305], [32.358979, 26.07392], [32.343761, 26.083808], [32.323985, 26.084337], [32.307221, 26.070583], [32.30071, 26.052354], [32.291108, 26.036485], [32.26588, 26.029731], [32.248139, 26.035671], [32.241791, 26.050605], [32.239757, 26.070502], [32.235037, 26.091173], [32.227061, 26.102362], [32.212657, 26.115912], [32.196707, 26.127305], [32.183686, 26.132148], [32.165701, 26.142646], [32.132091, 26.207872], [32.117117, 26.218329], [32.101329, 26.222113], [32.060476, 26.221503], [32.057058, 26.209499], [32.052989, 26.185899], [32.041515, 26.169949], [32.016124, 26.180528], [32.009207, 26.197699], [32.018077, 26.240505], [32.012706, 26.258734], [31.963878, 26.30622], [31.89267, 26.350694], [31.885753, 26.361843], [31.877452, 26.381049], [31.858409, 26.394802], [31.83782, 26.404853], [31.824229, 26.413357], [31.811127, 26.451199], [31.80836, 26.541327], [31.790131, 26.564154], [31.775808, 26.566718], [31.768321, 26.564643], [31.748546, 26.550482], [31.735444, 26.544949], [31.72519, 26.543036], [31.703868, 26.543647], [31.698253, 26.555976], [31.714366, 26.625596], [31.702647, 26.641181], [31.682628, 26.641181], [31.660655, 26.637722], [31.642507, 26.642646], [31.635671, 26.649766], [31.632498, 26.656358], [31.631847, 26.664618], [31.631847, 26.67711], [31.628347, 26.690741], [31.619395, 26.699897], [31.597097, 26.714952], [31.545177, 26.768826], [31.523367, 26.799384], [31.508311, 26.831081], [31.491628, 26.88699], [31.481537, 26.906806], [31.467865, 26.925238], [31.381602, 26.991889], [31.352794, 27.023749], [31.30364, 27.098578], [31.297374, 27.137559], [31.279796, 27.157904], [31.252533, 27.165595], [31.217296, 27.166815], [31.198497, 27.174384], [31.187755, 27.191026], [31.181244, 27.207709], [31.17628, 27.215277], [31.169444, 27.216864], [31.163829, 27.219102], [31.157319, 27.218573], [31.141694, 27.20657], [31.133067, 27.203559], [31.123546, 27.202012], [31.114513, 27.201606], [31.112804, 27.211493], [31.113048, 27.256863], [31.111095, 27.269884], [31.096934, 27.276313], [31.05421, 27.279161], [31.035411, 27.283515], [31.02296, 27.293158], [31.007742, 27.318956], [30.995046, 27.331326], [30.966238, 27.346788], [30.963145, 27.355902], [30.973888, 27.37226], [30.940929, 27.384101], [30.907319, 27.401068], [30.878184, 27.420762], [30.857921, 27.441189], [30.848888, 27.459784], [30.852306, 27.470771], [30.860281, 27.481635], [30.864757, 27.499538], [30.861501, 27.519355], [30.85019, 27.554389], [30.851085, 27.577704], [30.857514, 27.597113], [30.875418, 27.631903], [30.878917, 27.65001], [30.882253, 27.6553], [30.889171, 27.661078], [30.896251, 27.66824], [30.899425, 27.67768], [30.897553, 27.687567], [30.888682, 27.710761], [30.885753, 27.722357], [30.885753, 27.801134], [30.88144, 27.806342], [30.862234, 27.815538], [30.857921, 27.821357], [30.856375, 27.829901], [30.848237, 27.843288], [30.844249, 27.852078], [30.841563, 27.870469], [30.844249, 27.886908], [30.848643, 27.902167], [30.851085, 27.917263], [30.849132, 27.973904], [30.842377, 28.006537], [30.840424, 28.027777], [30.837413, 28.037665], [30.832612, 28.043565], [30.819021, 28.056708], [30.816173, 28.061591], [30.808849, 28.071397], [30.761729, 28.105902], [30.752859, 28.118964], [30.746349, 28.133246], [30.742442, 28.150214], [30.741222, 28.171169], [30.742117, 28.179389], [30.744233, 28.18948], [30.747651, 28.197943], [30.75644, 28.207546], [30.752452, 28.221055], [30.741222, 28.243109], [30.737885, 28.262152], [30.741222, 28.322292], [30.743337, 28.327216], [30.748057, 28.331895], [30.752696, 28.338568], [30.756358, 28.357245], [30.759858, 28.366156], [30.764578, 28.374294], [30.769054, 28.380316], [30.816905, 28.41531], [30.823741, 28.424994], [30.825776, 28.430447], [30.835216, 28.447781], [30.837413, 28.458808], [30.836192, 28.471055], [30.832937, 28.477159], [30.828298, 28.481798], [30.823741, 28.489529], [30.819835, 28.507636], [30.822765, 28.52322], [30.827729, 28.538153], [30.830496, 28.554714], [30.831065, 28.564032], [30.832612, 28.573065], [30.835704, 28.58157], [30.840831, 28.588894], [30.844493, 28.597602], [30.842052, 28.606024], [30.837983, 28.615302], [30.837413, 28.626736], [30.844493, 28.641425], [30.855968, 28.654242], [30.86671, 28.669623], [30.873627, 28.708116], [30.879649, 28.719346], [30.899425, 28.743435], [30.907319, 28.759955], [30.908946, 28.77619], [30.906261, 28.81505], [30.910085, 28.829657], [30.9192, 28.846381], [30.939708, 28.873725], [31.010509, 28.941962], [31.029226, 28.969306], [31.042735, 29.008328], [31.052989, 29.028754], [31.066417, 29.037624], [31.077647, 29.04206], [31.117931, 29.072333], [31.148529, 29.11282], [31.159434, 29.123114], [31.170909, 29.139512], [31.173269, 29.14407], [31.174815, 29.157294], [31.178233, 29.164171], [31.182872, 29.168728], [31.216401, 29.221991], [31.220876, 29.2331], [31.212006, 29.348212], [31.213471, 29.359727], [31.216889, 29.365343], [31.22226, 29.371121], [31.226817, 29.379706], [31.227794, 29.393866], [31.225352, 29.405341], [31.21575, 29.417426], [31.213471, 29.428575], [31.215343, 29.437079], [31.220144, 29.442898], [31.22698, 29.44831], [31.23463, 29.455919], [31.244151, 29.473171], [31.261811, 29.531684], [31.267833, 29.53795], [31.274669, 29.541693], [31.280284, 29.547187], [31.28297, 29.558946], [31.271251, 29.587714], [31.268647, 29.599921], [31.270437, 29.62519], [31.277273, 29.644558], [31.288503, 29.658718], [31.30364, 29.668809], [31.280365, 29.69656], [31.271983, 29.712592], [31.268647, 29.733425], [31.272472, 29.754177], [31.290131, 29.784369], [31.296804, 29.805365], [31.296479, 29.843329], [31.288666, 29.884955], [31.275971, 29.922675], [31.261811, 29.948798], [31.236339, 29.974433], [31.225352, 29.989366], [31.220876, 30.007758], [31.237397, 30.11461], [31.236908, 30.123847]], [[30.597792836663043, 20.0], [30.601003, 20.008328], [30.604015, 20.040107], [30.59962, 20.053982], [30.576671, 20.094753], [30.566335, 20.132351], [30.562429, 20.170111], [30.563731, 20.187445], [30.567475, 20.20539], [30.587494, 20.258409], [30.586843, 20.272244], [30.569835, 20.300808], [30.547374, 20.330919], [30.523204, 20.347276], [30.493175, 20.354071], [30.453136, 20.355414], [30.418224, 20.348904], [30.401947, 20.349921], [30.388276, 20.361884], [30.358165, 20.423692], [30.330577, 20.523139], [30.312918, 20.550889], [30.298839, 20.582058], [30.306163, 20.615668], [30.324718, 20.646837], [30.352306, 20.682074], [30.362397, 20.699001], [30.370128, 20.717149], [30.371186, 20.732204], [30.361746, 20.745795], [30.348074, 20.756944], [30.338308, 20.769558], [30.340424, 20.787421], [30.348888, 20.801622], [30.360281, 20.814236], [30.374441, 20.82099], [30.409679, 20.814643], [30.473643, 20.828396], [30.509288, 20.831081], [30.542572, 20.838324], [30.566987, 20.857856], [30.576671, 20.896999], [30.577647, 20.974921], [30.580658, 20.979682], [30.593761, 20.989122], [30.597911, 20.997016], [30.599864, 21.018012], [30.604015, 21.027615], [30.627533, 21.042182], [30.699229, 21.073594], [30.714447, 21.092475], [30.70517, 21.126166], [30.688243, 21.149848], [30.678966, 21.17296], [30.69337, 21.205146], [30.716319, 21.226386], [30.769542, 21.25788], [30.792979, 21.277126], [30.809093, 21.285712], [30.845795, 21.284776], [30.861339, 21.290798], [30.875499, 21.301093], [30.905854, 21.31741], [30.919932, 21.328681], [30.959727, 21.370225], [30.972585, 21.380927], [30.987397, 21.396348], [30.993582, 21.413194], [30.961925, 21.453681], [30.979991, 21.481391], [31.035411, 21.520453], [31.054291, 21.538398], [31.069591, 21.56037], [31.090587, 21.609198]]]}}, {"type": "Feature", "properties": {"dissolve": "634River", "scalerank": 7.0, "featurecla": "River", "name": null, "name_alt": null, "rivernum": 634, "note": null, "min_zoom": 6.0, "name_en": null, "min_label": 7.0}, "bbox": [29.958263, 30.76435, 30.754893, 31.249376], "geometry": {"type": "LineString", "coordinates": [[30.754893, 30.76435], [30.684988, 30.873603], [30.409434, 31.099473], [30.317475, 31.122423], [30.168386, 31.137763], [30.045665, 31.187567], [29.958263, 31.249376]]}}, {"type": "Feature", "properties": {"dissolve": "723River", "scalerank": 8.0, "featurecla": "River", "name": "Guadalquivir", "name_alt": null, "rivernum": 723, "note": null, "min_zoom": 7.0, "name_en": "Guadalquivir", "min_label": 8.0}, "bbox": [-6.194814, 36.932156, -2.775461, 38.200548], "geometry": {"type": "LineString", "coordinates": [[-5.995898279059403, 37.5], [-6.016672, 37.453559], [-6.013376, 37.440009], [-6.007069, 37.429267], [-6.002024, 37.416815], [-6.003, 37.398261], [-6.007314, 37.389472], [-6.023508, 37.370917], [-6.023874, 37.360663], [-6.021311, 37.351752], [-6.018259, 37.344753], [-6.016672, 37.339911], [-6.020009, 37.321601], [-6.028798, 37.306016], [-6.054514, 37.278428], [-6.063222, 37.264472], [-6.073435, 37.230292], [-6.081532, 37.216742], [-6.108957, 37.183173], [-6.112864, 37.175482], [-6.118153, 37.157416], [-6.1315, 37.147569], [-6.16747, 37.137559], [-6.16747, 37.130154], [-6.157297, 37.125352], [-6.126536, 37.103461], [-6.107655, 37.116807], [-6.099843, 37.112494], [-6.098622, 37.099392], [-6.099192, 37.086371], [-6.103505, 37.074246], [-6.113352, 37.061103], [-6.133372, 37.042019], [-6.159413, 37.02322], [-6.169993, 37.011583], [-6.174306, 36.997016], [-6.17748, 36.97956], [-6.184967, 36.961127], [-6.194814, 36.932156]]}}, {"type": "Feature", "properties": {"dissolve": "817River", "scalerank": 8.0, "featurecla": "River", "name": "Oued Sebou", "name_alt": null, "rivernum": 817, "note": null, "min_zoom": 7.0, "name_en": "Oued Sebou", "min_label": 8.0}, "bbox": [-6.675364, 33.157253, -4.517649, 34.61164], "geometry": {"type": "LineString", "coordinates": [[-5.07315, 33.157253], [-5.084543, 33.215155], [-5.082183, 33.236436], [-5.063059, 33.263007], [-4.938303, 33.342841], [-4.919342, 33.348415], [-4.875559, 33.355007], [-4.851633, 33.368354], [-4.774729, 33.45543], [-4.760243, 33.467353], [-4.744333, 33.47602], [-4.726308, 33.478787], [-4.684885, 33.476142], [-4.665598, 33.477729], [-4.644358, 33.483669], [-4.61205, 33.499579], [-4.580393, 33.522895], [-4.557444, 33.546007], [-4.538645, 33.572089], [-4.525868, 33.600165], [-4.517649, 33.651231], [-4.51887, 33.660997], [-4.535715, 33.682156], [-4.534739, 33.692939], [-4.530588, 33.704535], [-4.53067, 33.719265], [-4.54011, 33.737006], [-4.555247, 33.752875], [-4.587717, 33.779486], [-4.592844, 33.78852], [-4.594797, 33.79918], [-4.598093, 33.808539], [-4.606923, 33.813666], [-4.623362, 33.820095], [-4.627756, 33.831326], [-4.622222, 33.86697], [-4.62564, 33.892401], [-4.639312, 33.906317], [-4.679107, 33.926052], [-4.721913, 33.966742], [-4.740712, 33.977566], [-4.789947, 33.995429], [-4.838206, 34.034491], [-4.854563, 34.042996], [-4.90217, 34.061469], [-4.911041, 34.072333], [-4.909413, 34.088487], [-4.898752, 34.13349], [-4.899729, 34.144884], [-4.911041, 34.16706], [-4.917633, 34.175564], [-4.924631, 34.181423], [-4.928293, 34.189154], [-4.925364, 34.202948], [-4.903798, 34.238715], [-4.900624, 34.252712], [-4.912262, 34.265326], [-4.915679, 34.264472], [-4.936106, 34.263373], [-4.944814, 34.265001], [-4.95637, 34.273708], [-4.964345, 34.283555], [-4.97411, 34.291287], [-4.9912, 34.29324], [-5.073476, 34.289822], [-5.081858, 34.291205], [-5.08967, 34.290473], [-5.107004, 34.275906], [-5.116933, 34.28144], [-5.136545, 34.302436], [-5.156077, 34.309882], [-5.175608, 34.310655], [-5.194651, 34.306505], [-5.28425, 34.274441], [-5.320465, 34.268663], [-5.382395, 34.269639], [-5.402821, 34.272488], [-5.420725, 34.280544], [-5.469065, 34.336371], [-5.489817, 34.353298], [-5.510487, 34.362006], [-5.533396, 34.368476], [-5.549143, 34.37877], [-5.580149, 34.407253], [-5.592763, 34.408271], [-5.712717, 34.395128], [-5.730865, 34.398749], [-5.750722, 34.409857], [-5.789499, 34.442654], [-5.81843, 34.473456], [-5.835194, 34.486436], [-5.853749, 34.490424], [-5.889231, 34.466173], [-5.899566, 34.477362], [-5.908844, 34.516547], [-5.914947, 34.525946], [-5.923899, 34.530585], [-5.930165, 34.5362], [-5.92573, 34.562852], [-5.930165, 34.572699], [-5.939443, 34.579291], [-5.950754, 34.584011], [-5.960276, 34.585761], [-5.977854, 34.583808], [-5.986277, 34.58393], [-5.997385, 34.587226], [-6.019114, 34.596869], [-6.108062, 34.61164], [-6.142405, 34.607245], [-6.178212, 34.588935], [-6.23998, 34.537869], [-6.276031, 34.516628], [-6.314768, 34.510281], [-6.332428, 34.517442], [-6.345286, 34.527167], [-6.356679, 34.528428], [-6.3815, 34.496446], [-6.395823, 34.490668], [-6.411448, 34.487372], [-6.42634, 34.481553], [-6.432851, 34.473985], [-6.434885, 34.465644], [-6.438303, 34.458075], [-6.457183, 34.448065], [-6.46052, 34.440294], [-6.458404, 34.432318], [-6.450673, 34.426459], [-6.433909, 34.418769], [-6.437937, 34.416775], [-6.458567, 34.416693], [-6.463043, 34.415147], [-6.467844, 34.415798], [-6.473215, 34.41531], [-6.479075, 34.410509], [-6.479482, 34.404812], [-6.471425, 34.391221], [-6.470204, 34.386257], [-6.474599, 34.37698], [-6.479319, 34.371527], [-6.484609, 34.366726], [-6.502349, 34.343126], [-6.518259, 34.334499], [-6.524892, 34.33279], [-6.540598, 34.331732], [-6.549143, 34.327582], [-6.55427, 34.320746], [-6.559722, 34.303412], [-6.563791, 34.29621], [-6.582021, 34.28266], [-6.586741, 34.29267], [-6.590891, 34.307644], [-6.607249, 34.308865], [-6.622874, 34.296942], [-6.634592, 34.282335], [-6.64802, 34.270697], [-6.675364, 34.266913]]}}, {"type": "Feature", "properties": {"dissolve": "867River", "scalerank": 8.0, "featurecla": "River", "name": "Byk Menderes", "name_alt": null, "rivernum": 867, "note": null, "min_zoom": 7.0, "name_en": "Byk Menderes", "min_label": 8.0}, "bbox": [27.182058, 37.48017, 30.48406, 38.35871], "geometry": {"type": "LineString", "coordinates": [[27.20084603354055, 37.5], [27.199718, 37.498969], [27.194753, 37.489691], [27.190847, 37.48017]]}}, {"type": "Feature", "properties": {"dissolve": "983River", "scalerank": 9.0, "featurecla": "River", "name": "Sous", "name_alt": null, "rivernum": 983, "note": null, "min_zoom": 7.1, "name_en": "Sous", "min_label": 8.1}, "bbox": [-9.60554, 30.333319, -8.549998, 30.533271], "geometry": {"type": "LineString", "coordinates": [[-8.549998, 30.533271], [-8.687571, 30.521104], [-8.809804, 30.471544], [-8.941721, 30.431342], [-9.090321, 30.44538], [-9.161529, 30.437608], [-9.227773, 30.416693], [-9.254954, 30.398749], [-9.286204, 30.389106], [-9.330963, 30.394314], [-9.374989, 30.391669], [-9.440012, 30.378607], [-9.50121, 30.358425], [-9.516835, 30.353135], [-9.533315, 30.349962], [-9.538726, 30.340196], [-9.549916, 30.333319], [-9.577097, 30.350287], [-9.60554, 30.366645]]}}, {"type": "Feature", "properties": {"dissolve": "984River", "scalerank": 9.0, "featurecla": "River", "name": "Oum Er Rbia", "name_alt": null, "rivernum": 984, "note": null, "min_zoom": 7.1, "name_en": "Oum Er Rbia", "min_label": 8.1}, "bbox": [-8.347401, 32.29446, -5.083323, 33.33751], "geometry": {"type": "MultiLineString", "coordinates": [[[-5.083323, 33.016669], [-5.144602, 32.96837], [-5.21113, 32.930528], [-5.228098, 32.921007], [-5.244211, 32.909857], [-5.266347, 32.903998], [-5.288889, 32.90001], [-5.314605, 32.872178], [-5.334543, 32.839138], [-5.346344, 32.810858], [-5.363189, 32.781277], [-5.39509, 32.766425], [-5.430491, 32.761094], [-5.507395, 32.76557], [-5.572255, 32.805528], [-5.639231, 32.825629], [-5.705881, 32.797065], [-5.712229, 32.773627], [-5.727773, 32.763861], [-5.757151, 32.75727], [-5.77774, 32.733344], [-5.83259, 32.692694], [-5.888824, 32.64997], [-5.917063, 32.629706], [-5.949941, 32.62226], [-5.972239, 32.645087], [-5.999989, 32.672227]], [[-5.999989, 32.672187], [-6.032704, 32.669298], [-6.065134, 32.671088], [-6.106272, 32.650417], [-6.146067, 32.631903], [-6.183827, 32.622829], [-6.219228, 32.608832], [-6.265207, 32.599148], [-6.311106, 32.594428], [-6.324534, 32.582221], [-6.339101, 32.570746], [-6.35912, 32.564805], [-6.377756, 32.555609], [-6.394358, 32.538764], [-6.411122, 32.522244], [-6.427317, 32.520575], [-6.444407, 32.516669], [-6.452952, 32.494493], [-6.462473, 32.470567], [-6.489084, 32.438056], [-6.533274, 32.422227], [-6.595286, 32.39997], [-6.647288, 32.362372], [-6.669911, 32.3487], [-6.698557, 32.344428], [-6.74356, 32.340847], [-6.783274, 32.325019], [-6.822825, 32.318793], [-6.86262, 32.326606], [-6.890207, 32.323065], [-6.920481, 32.316718], [-6.9947, 32.298367], [-7.072255, 32.29446]], [[-7.072255, 32.29446], [-7.099355, 32.305854], [-7.122222, 32.322211], [-7.135732, 32.324734], [-7.149973, 32.327745], [-7.168528, 32.330878], [-7.186106, 32.330512], [-7.239247, 32.359198], [-7.299998, 32.394395], [-7.329335, 32.401638], [-7.349924, 32.413886], [-7.365061, 32.442694], [-7.394114, 32.453803], [-7.424875, 32.450466], [-7.452707, 32.455512], [-7.470286, 32.446967], [-7.483306, 32.461127], [-7.514394, 32.449897], [-7.54719, 32.447211], [-7.560618, 32.45657], [-7.577545, 32.456977], [-7.593251, 32.463406], [-7.60554, 32.477729], [-7.611318, 32.469509], [-7.616689, 32.461127], [-7.637929, 32.486436], [-7.666575, 32.500027], [-7.670969, 32.525214], [-7.694407, 32.54446], [-7.706207, 32.555732], [-7.716624, 32.566677], [-7.716624, 32.576931], [-7.716624, 32.587226], [-7.722239, 32.596015], [-7.733225, 32.599962], [-7.753733, 32.620673], [-7.783274, 32.636094], [-7.817332, 32.649237], [-7.847157, 32.663886], [-7.874582, 32.678778], [-7.905263, 32.691514], [-7.934641, 32.718329], [-7.955556, 32.752753], [-7.969716, 32.782416], [-7.990061, 32.806749], [-7.99885, 32.836534], [-7.999989, 32.866645], [-8.019032, 32.871365], [-8.038889, 32.866645], [-8.047556, 32.886054], [-8.045644, 32.905788], [-8.037668, 32.924669], [-8.055491, 32.933295], [-8.048166, 32.94949], [-8.061106, 32.966661], [-8.052073, 32.981553], [-8.055491, 33.002794], [-8.052561, 33.01435], [-8.043202, 33.023464], [-8.044667, 33.036404], [-8.055491, 33.049994], [-8.061513, 33.077826], [-8.080556, 33.086127], [-8.091624, 33.090603], [-8.088857, 33.111111], [-8.100331, 33.113389], [-8.10554, 33.122382], [-8.115549, 33.137274], [-8.127756, 33.138861], [-8.12678, 33.157253], [-8.122141, 33.166612], [-8.127024, 33.170478], [-8.138905, 33.172187], [-8.184641, 33.217637], [-8.263824, 33.247178], [-8.283274, 33.255561], [-8.302805, 33.263861], [-8.31371, 33.271593], [-8.325022, 33.258328], [-8.341379, 33.283271], [-8.347401, 33.33751]]]}}]}