{"type": "FeatureCollection", "features": [{"type": "Feature", "properties": {"FEATURECLA": "Range/mtn", "NAME": "Jabal bin Ghunaymah", "NAMEALT": null, "REGION": "Africa", "SUBREGION": null, "MIN_LABEL": 6, "MAX_LABEL": 11, "SCALERANK": 6, "LABEL": "Jabal bin Ghunaymah", "WIKIDATAID": "Q27496722", "NAME_AR": "جبل بن غنيمة", "NAME_BN": "জাবাল বিন ঘুনেমাহ", "NAME_DE": "Jabal bin Ghunaymah", "NAME_EN": "Jabal Bin Ghunaymah", "NAME_ES": "Jabal bin Ghunaymah", "NAME_FR": "Jabal Bin Ghunaymah", "NAME_EL": "Τζαμπάλ μπιν Γκουναϊμά", "NAME_HI": "जबल बिन घुनैमाह", "NAME_HU": "Jabal bin-Ghunaymah", "NAME_ID": "Jabal bin Ghunaymah", "NAME_IT": "Jabal bin Ghunaymah", "NAME_JA": "ジャバル・ビン・グナイマー", "NAME_KO": "자발 빈 구나이마", "NAME_NL": "Jabal bin Ghunaymah", "NAME_PL": "Jabal bin Ghunaymah", "NAME_PT": "Jabal bin Ghunaymah", "NAME_RU": "плато Джебель-бин-Гунайма", "NAME_SV": "Jabal Bin Ghunaymah", "NAME_TR": "Jabal bin Ghunaymah", "NAME_VI": "Dãy Jabal bin Ghunaymah", "NAME_ZH": "古奈马山", "NE_ID": 1159102605, "NAME_FA": "جبل بن غنیمه", "NAME_HE": "ג'בל בין ג'וניימה", "NAME_UK": "Джабаль-бін-Гунаймах", "NAME_UR": "جبل بن غنیمہ", "NAME_ZHT": "古奈馬山"}, "bbox": [13.246593, 21.908759, 17.228526, 26.340522], "geometry": {"type": "Polygon", "coordinates": [[[13.3921, 21.908759], [13.246593, 22.795111], [13.983737, 23.619399], [14.036216, 23.678081], [14.476939, 24.170905], [15.178111, 25.070502], [16.355479, 26.261115], [16.818492, 26.340522], [17.228526, 26.15528], [17.096324, 25.679023], [16.262828, 24.660407], [15.535289, 23.774054], [15.151622, 22.980292], [14.02711, 21.988105], [13.3921, 21.908759]]]}}, {"type": "Feature", "properties": {"FEATURECLA": "Range/mtn", "NAME": "Moyen Atlas", "NAMEALT": null, "REGION": "Africa", "SUBREGION": null, "MIN_LABEL": 6, "MAX_LABEL": 11, "SCALERANK": 6, "LABEL": "Moyen Atlas", "WIKIDATAID": "Q1433137", "NAME_AR": "الأطلس المتوسط", "NAME_BN": "মোয়েন অ্যাটলাস", "NAME_DE": "Mittlerer Atlas", "NAME_EN": "Moyen Atlas", "NAME_ES": "Atlas Medio", "NAME_FR": "Moyen Atlas", "NAME_EL": "Μογιέν Ατλάς", "NAME_HI": "मोयेन एटलस", "NAME_HU": "Moyen Atlas", "NAME_ID": "Moyen Atlas", "NAME_IT": "Medio Atlante", "NAME_JA": "中央アトラス", "NAME_KO": "모옌 아틀라스", "NAME_NL": "Midden-Atlas", "NAME_PL": "Atlas Średni", "NAME_PT": "Atlas Médio", "NAME_RU": "Средний Атлас", "NAME_SV": "Moyen Atlas", "NAME_TR": "Moyen Atlas", "NAME_VI": "Dãy Moyen Atlas", "NAME_ZH": "中阿特拉斯山脈", "NE_ID": 1159102615, "NAME_FA": "اطلس میانی", "NAME_HE": "אזור הרי האטלס התיכון", "NAME_UK": "Середній Атлас", "NAME_UR": "موین ایٹلس", "NAME_ZHT": "中阿特拉斯山脈"}, "bbox": [-5.671132, 32.756659, -3.408925, 34.297858], "geometry": {"type": "Polygon", "coordinates": [[[-3.660268, 33.557013], [-3.878529, 33.312262], [-4.083608, 33.047675], [-4.467275, 32.816169], [-4.6657, 32.783149], [-5.009633, 32.756659], [-5.3933, 32.862494], [-5.671132, 33.027838], [-5.446217, 33.371833], [-5.260976, 33.656256], [-4.963368, 33.94068], [-4.652455, 34.086188], [-4.215871, 34.284613], [-3.871938, 34.297858], [-3.733022, 34.264777], [-3.422109, 34.251532], [-3.408925, 34.079596], [-3.475087, 33.88111], [-3.660268, 33.557013]]]}}, {"type": "Feature", "properties": {"FEATURECLA": "Range/mtn", "NAME": "Al Jabal al Akhdar", "NAMEALT": null, "REGION": "Africa", "SUBREGION": null, "MIN_LABEL": 6, "MAX_LABEL": 10, "SCALERANK": 5, "LABEL": null, "WIKIDATAID": "Q310342", "NAME_AR": "الجبل الأخضر", "NAME_BN": "আল জাবাল অল আখদার", "NAME_DE": "al-Dschabal al-Achdar", "NAME_EN": "Al Jabal Al Akhdar", "NAME_ES": "Al Jabal Al Akhdar", "NAME_FR": "Al Jabal al Akhdar", "NAME_EL": "Αλ Τζαμπάλ αλ Αχντάρ", "NAME_HI": "अल जबल अल अख्दर", "NAME_HU": "Al-Dzsabal al-Akhdar", "NAME_ID": "Al Jabal al Akhdar", "NAME_IT": "Jabal Akhḍar", "NAME_JA": "アル・ジャバル・アル・アフダル山地", "NAME_KO": "알 자발 알 아크다르", "NAME_NL": "Djabal Achdar", "NAME_PL": "Al-Dżabal al-Achdar", "NAME_PT": "Monte Acdar", "NAME_RU": "Аль-Джабал-аль-Акдар", "NAME_SV": "Al Jabal al Akhdar", "NAME_TR": "Cebel Ahdar", "NAME_VI": "Dãy Al Jabal al Akhdar", "NAME_ZH": "贾巴阿赫达尔山脉", "NE_ID": 1730071523, "NAME_FA": "ال جبال ال اخدار", "NAME_HE": "אל הר אל אחדר", "NAME_UK": "Ель-Джабал-ель-Ахдар", "NAME_UR": "ال جبل ال اخدار", "NAME_ZHT": "艾赫代爾山"}, "bbox": [19.96046, 31.645392, 23.069224, 32.94248], "geometry": {"type": "Polygon", "coordinates": [[[23.060816, 32.379769], [22.17628, 32.392829], [21.283336, 32.333319], [20.803357, 32.006936], [20.787242, 31.995978], [20.763747, 31.982731], [20.165416, 31.645392], [19.996639, 31.87418], [19.972346, 31.907111], [19.96046, 31.923224], [20.448606, 32.477288], [20.455988, 32.481692], [21.074395, 32.775638], [21.31875, 32.777686], [21.424707, 32.79917], [21.635938, 32.937305], [21.721387, 32.94248], [21.839453, 32.908643], [22.187402, 32.918262], [22.340625, 32.879883], [22.523438, 32.793945], [22.754102, 32.740527], [22.771645, 32.734776], [22.799781, 32.723894], [23.02296, 32.63758], [23.052175, 32.4747], [23.069224, 32.379645], [23.060816, 32.379769]]]}}, {"type": "Feature", "properties": {"FEATURECLA": "Range/mtn", "NAME": "Er Rif", "NAMEALT": null, "REGION": "Africa", "SUBREGION": null, "MIN_LABEL": 6, "MAX_LABEL": 10, "SCALERANK": 5, "LABEL": "Er Rif", "WIKIDATAID": "Q275491", "NAME_AR": "جبال الريف", "NAME_BN": "রিফ পর্বতমালা", "NAME_DE": "Rif", "NAME_EN": "Rif", "NAME_ES": "Rif", "NAME_FR": "Rif", "NAME_EL": "Ερ Ριφ", "NAME_HI": "एर रिफ्", "NAME_HU": "Rif-hegység", "NAME_ID": "Rif", "NAME_IT": "Rif", "NAME_JA": "リーフ地方", "NAME_KO": "어 리프", "NAME_NL": "Rifgebergte", "NAME_PL": "Rif", "NAME_PT": "Rife", "NAME_RU": "Эр-Риф", "NAME_SV": "Rifbergen", "NAME_TR": "Er Rif", "NAME_VI": "Dãy Er Rif", "NAME_ZH": "里夫山脈", "NE_ID": 1159103005, "NAME_FA": "ریف", "NAME_HE": "ריף", "NAME_UK": "Ер-Риф", "NAME_UR": "ریف", "NAME_ZHT": "里夫山脈"}, "bbox": [-5.882741, 34.086188, -2.541161, 35.918402], "geometry": {"type": "Polygon", "coordinates": [[[-4.485383, 35.184874], [-4.32998, 35.161475], [-3.982422, 35.243408], [-3.787988, 35.244922], [-3.761939, 35.254563], [-3.693349, 35.24372], [-3.602965, 35.234532], [-3.590625, 35.22832], [-3.394727, 35.211816], [-3.388449, 35.212724], [-3.30309, 35.204047], [-3.261657, 35.231062], [-3.206006, 35.239111], [-3.063086, 35.317236], [-2.992132, 35.387542], [-2.965653, 35.327972], [-2.892934, 35.164374], [-2.86178, 35.160914], [-2.839941, 35.127832], [-2.731396, 35.135205], [-2.636816, 35.112695], [-2.541161, 35.117539], [-2.800343, 34.774115], [-3.336171, 34.410285], [-3.871938, 34.337531], [-4.262196, 34.297858], [-4.625966, 34.198615], [-5.12206, 34.119269], [-5.399892, 34.086188], [-5.869496, 34.139106], [-5.803395, 34.284613], [-5.748261, 34.340953], [-5.635079, 34.45661], [-5.499135, 34.595526], [-5.849721, 34.899787], [-5.809987, 35.137885], [-5.836476, 35.614142], [-5.881521, 35.768709], [-5.882741, 35.772895], [-5.881647, 35.77323], [-5.73925, 35.816867], [-5.622852, 35.828906], [-5.522266, 35.862012], [-5.443507, 35.904809], [-5.380055, 35.918402], [-5.378521, 35.915547], [-5.337646, 35.839466], [-5.337646, 35.745215], [-5.252686, 35.614746], [-5.175592, 35.537832], [-5.141957, 35.475226], [-5.128736, 35.463532], [-4.797963, 35.170966], [-4.485383, 35.184874]]]}}, {"type": "Feature", "properties": {"FEATURECLA": "Range/mtn", "NAME": "Atlas Tellien", "NAMEALT": null, "REGION": "Africa", "SUBREGION": null, "MIN_LABEL": 6, "MAX_LABEL": 10, "SCALERANK": 5, "LABEL": null, "WIKIDATAID": "Q1478180", "NAME_AR": "الأطلس التلي", "NAME_BN": "আটলাস তেল্লিয়েন", "NAME_DE": "Tellatlas", "NAME_EN": "Tell Atlas", "NAME_ES": "Atlas Telliano", "NAME_FR": "Atlas tellien", "NAME_EL": "Άτλας Τελλ", "NAME_HI": "एटलस टेलिएन", "NAME_HU": "Tell-Atlasz", "NAME_ID": "Atlas Tellien", "NAME_IT": "Atlante Telliano", "NAME_JA": "テル・アトラス山脈", "NAME_KO": "아틀라스 텔리엔", "NAME_NL": "Tell Atlas", "NAME_PL": "Atlas Tellski", "NAME_PT": "Atlas do Tell", "NAME_RU": "Телль-Атлас", "NAME_SV": "Tellatlas", "NAME_TR": "Tell Atlas", "NAME_VI": "Dãy Tell Atlas", "NAME_ZH": "泰勒阿特拉斯山脈", "NE_ID": 1730071533, "NAME_FA": "اطلس تلی", "NAME_HE": "אטלס התל", "NAME_UK": "Тель-Атлас", "NAME_UR": "ایٹلس ٹیلین", "NAME_ZHT": "泰勒阿特拉斯山脈"}, "bbox": [-3.475087, 33.78852, 6.142589, 36.896284], "geometry": {"type": "Polygon", "coordinates": [[[5.838267, 36.209479], [6.142589, 35.87873], [5.428233, 35.600898], [4.158214, 35.944892], [3.36439, 35.931647], [2.411876, 35.918402], [1.671153, 35.521552], [1.499156, 35.349555], [1.234508, 35.124701], [0.983165, 34.807196], [-0.194203, 34.701361], [-0.855702, 34.582282], [-1.808156, 34.30445], [-2.112416, 34.198615], [-2.628407, 33.920844], [-3.223683, 33.78852], [-3.475087, 33.88111], [-3.382436, 34.106024], [-3.025258, 34.450019], [-2.641591, 34.979132], [-2.435673, 35.112442], [-2.419266, 35.123064], [-2.219629, 35.104199], [-2.017773, 35.085059], [-2.012398, 35.085531], [-2.006581, 35.084967], [-2.004946, 35.085668], [-2.003428, 35.086319], [-1.913281, 35.094238], [-1.673633, 35.183105], [-1.48374, 35.303076], [-1.33584, 35.364258], [-1.321694, 35.378514], [-1.279166, 35.396742], [-1.265797, 35.402472], [-1.264766, 35.403598], [-1.134209, 35.546008], [-1.087695, 35.578857], [-0.91748, 35.668408], [-0.711871, 35.749218], [-0.702227, 35.75029], [-0.617543, 35.759711], [-0.543025, 35.815578], [-0.426123, 35.861523], [-0.350781, 35.863184], [-0.18916, 35.819092], [-0.185821, 35.819417], [-0.141286, 35.799384], [-0.104505, 35.827334], [-0.048242, 35.832813], [0.047949, 35.900537], [0.100742, 35.983305], [0.189464, 36.050727], [0.815121, 36.367987], [0.827693, 36.374362], [0.97168, 36.443945], [1.257227, 36.51958], [1.974512, 36.567578], [2.342871, 36.610303], [2.593359, 36.600684], [2.784897, 36.705246], [2.860946, 36.735661], [2.983507, 36.78468], [3.128695, 36.787502], [3.17921, 36.778327], [3.225262, 36.789379], [3.520508, 36.795117], [3.779004, 36.896191], [4.397981, 36.896284], [4.870148, 36.861719], [4.874301, 36.861415], [4.881035, 36.860922], [4.99541, 36.808057], [5.195605, 36.676807], [5.29541, 36.648242], [5.310071, 36.651328], [5.467906, 36.566657], [5.838267, 36.209479]]]}}, {"type": "Feature", "properties": {"FEATURECLA": "Range/mtn", "NAME": "Anti Atlas", "NAMEALT": null, "REGION": "Africa", "SUBREGION": null, "MIN_LABEL": 6, "MAX_LABEL": 9, "SCALERANK": 4, "LABEL": "Anti Atlas", "WIKIDATAID": "Q574853", "NAME_AR": "الأطلس الصغير", "NAME_BN": "আন্টি আটলাস", "NAME_DE": "Antiatlas", "NAME_EN": "Anti-Atlas", "NAME_ES": "Anti-Atlas", "NAME_FR": "Anti-Atlas", "NAME_EL": "Άντι Άτλας", "NAME_HI": "एंटी एटलस", "NAME_HU": "Anti-Atlasz", "NAME_ID": "Anti Atlas", "NAME_IT": "Anti Atlante", "NAME_JA": "アンティアトラス山脈", "NAME_KO": "안티 아틀라스", "NAME_NL": "Anti-Atlas", "NAME_PL": "Antyatlas", "NAME_PT": "Anti-Atlas", "NAME_RU": "Антиатлас", "NAME_SV": "Anti-Atlas", "NAME_TR": "Anti Atlas", "NAME_VI": "Dãy Anti Atlas", "NAME_ZH": "小阿特拉斯山脈", "NE_ID": 1159103521, "NAME_FA": "اطلس کوچک", "NAME_HE": "אזור הרי האטלס הדרומי", "NAME_UK": "Антиатлас", "NAME_UR": "اطلس صغیر", "NAME_ZHT": "小阿特拉斯山脈"}, "bbox": [-10.830434, 28.399787, -4.312917, 31.698249], "geometry": {"type": "Polygon", "coordinates": [[[-10.433583, 28.399787], [-10.610036, 28.408576], [-10.830434, 28.593817], [-10.601186, 28.96424], [-10.588942, 28.974243], [-10.543037, 29.011749], [-9.87798, 29.555121], [-9.198903, 30.146064], [-8.581532, 30.525275], [-8.255238, 30.719306], [-7.681935, 30.930976], [-7.249806, 31.089728], [-6.526601, 31.195563], [-5.944508, 31.319037], [-5.556508, 31.442511], [-5.159596, 31.601264], [-4.612782, 31.698249], [-4.312917, 31.530707], [-4.542226, 31.301459], [-4.912648, 30.860419], [-5.212514, 30.42829], [-5.415334, 30.163703], [-6.156178, 30.013739], [-6.623586, 30.013739], [-6.949941, 29.916693], [-7.58495, 29.766791], [-8.114125, 29.511054], [-8.272817, 29.16706], [-8.63445, 29.034796], [-9.154775, 28.796698], [-9.578114, 28.567328], [-10.433583, 28.399787]]]}}, {"type": "Feature", "properties": {"FEATURECLA": "Range/mtn", "NAME": "ATLAS SAHARIEN", "NAMEALT": null, "REGION": "Africa", "SUBREGION": null, "MIN_LABEL": 5, "MAX_LABEL": 8, "SCALERANK": 3, "LABEL": null, "WIKIDATAID": "Q1898305", "NAME_AR": "الأطلس الصحراوي", "NAME_BN": "আটলাস সাহারিয়েন", "NAME_DE": "Saharaatlas", "NAME_EN": "Saharan Atlas", "NAME_ES": "Atlas sahariano", "NAME_FR": "Atlas saharien", "NAME_EL": "Σαχαριανός Άτλας", "NAME_HI": "एटलस सहरिएन", "NAME_HU": "SZAHARAI-ATLASZ", "NAME_ID": "ATLAS SAHARIEN", "NAME_IT": "Atlante Sahariano", "NAME_JA": "サハラ・アトラス山脈", "NAME_KO": "아틀라스 사하리엔", "NAME_NL": "Saharan Atlas", "NAME_PL": "Atlas Saharyjski", "NAME_PT": "Atlas Argeliano", "NAME_RU": "Сахарский Атлас", "NAME_SV": "Sahara-Atlas", "NAME_TR": "SAHRA ATLAS", "NAME_VI": "DÃY SAHARAN ATLAS", "NAME_ZH": "撒哈拉阿特拉斯山脈", "NE_ID": 1730073315, "NAME_FA": "اطلس صحرایی", "NAME_HE": "אטלס הסהרה", "NAME_UK": "Сахарський Атлас", "NAME_UR": "صحراوی اطلس", "NAME_ZHT": "撒哈拉阿特拉斯山脈"}, "bbox": [-2.350575, 31.837226, 4.859386, 35.673712], "geometry": {"type": "Polygon", "coordinates": [[[2.782359, 33.861274], [2.747809, 33.852401], [2.06129, 33.676093], [1.135265, 33.15351], [0.685169, 32.995146], [0.420909, 32.902167], [-0.39269, 32.48548], [-0.486895, 32.402682], [-0.610951, 32.293647], [-0.908559, 32.174567], [-1.411305, 32.00257], [-1.953725, 31.837226], [-2.205068, 31.896735], [-2.350575, 32.042304], [-2.125661, 32.287055], [-1.960317, 32.5185], [-1.596547, 32.564826], [-1.073964, 32.769904], [-0.677113, 33.133673], [-0.498525, 33.146918], [-0.042104, 33.437934], [0.440807, 33.477668], [0.87733, 33.682685], [1.175059, 34.066352], [1.432994, 34.15235], [1.386729, 33.934027], [1.618175, 34.033271], [1.776866, 34.291266], [2.325938, 34.701361], [2.782359, 34.807196], [3.205699, 35.071784], [3.648814, 35.309882], [3.979625, 35.60755], [4.244151, 35.673712], [4.548473, 35.51496], [4.594737, 35.316474], [4.78651, 35.144538], [4.859386, 34.893134], [4.548473, 34.714545], [4.191295, 34.496283], [3.9994, 34.357367], [3.721761, 34.264806], [3.622447, 34.231696], [3.159434, 34.099433], [2.782359, 33.861274]]]}}, {"type": "Feature", "properties": {"FEATURECLA": "Range/mtn", "NAME": "HAUT ATLAS", "NAMEALT": null, "REGION": "Africa", "SUBREGION": null, "MIN_LABEL": 5, "MAX_LABEL": 8, "SCALERANK": 3, "LABEL": "HAUT ATLAS", "WIKIDATAID": "Q584279", "NAME_AR": "الأطلس الكبير", "NAME_BN": "হাউত অ্যাটলাস", "NAME_DE": "Hoher Atlas", "NAME_EN": "High Atlas", "NAME_ES": "Alto Atlas", "NAME_FR": "Haut Atlas", "NAME_EL": "Υψηλός Άτλας", "NAME_HI": "हौट एटलस", "NAME_HU": "MAGAS-ATLASZ", "NAME_ID": "HAUT ATLAS", "NAME_IT": "Alto Atlante", "NAME_JA": "高アトラス", "NAME_KO": "오트 아틀라스", "NAME_NL": "Hoge Atlas", "NAME_PL": "Atlas Wysoki", "NAME_PT": "Alto Atlas", "NAME_RU": "Высокий Атлас", "NAME_SV": "Haut Atlas", "NAME_TR": "Yukarı Atlaslar", "NAME_VI": "DÃY HAUT ATLAS", "NAME_ZH": "高阿特拉斯山脈", "NE_ID": 1159103879, "NAME_FA": "اطلس بزرگ", "NAME_HE": "אזור הרי האטלס הצפוני", "NAME_UK": "Високий Атлас", "NAME_UR": "ہاٹ ایٹلس", "NAME_ZHT": "高阿特拉斯山脈"}, "bbox": [-9.487721, 30.646613, -2.370412, 33.15351], "geometry": {"type": "Polygon", "coordinates": [[[-3.230336, 32.538398], [-2.754079, 32.564826], [-2.370412, 32.452399], [-2.535756, 32.280402], [-3.164174, 32.201056], [-3.81902, 32.081977], [-4.024037, 32.194403], [-4.751698, 31.936469], [-5.201466, 31.718146], [-5.776906, 31.453559], [-6.471425, 31.374213], [-6.861684, 31.308051], [-7.450429, 31.175788], [-7.609181, 31.030219], [-7.794362, 30.964118], [-7.992787, 30.937628], [-8.356618, 30.897956], [-8.641042, 30.831794], [-8.932118, 30.785529], [-9.276051, 30.646613], [-9.487721, 30.752448], [-9.15038, 30.997199], [-8.899037, 31.228705], [-8.641042, 31.235297], [-8.283864, 31.288214], [-7.953114, 31.294867], [-7.734853, 31.446967], [-7.457021, 31.625556], [-7.166005, 31.75788], [-6.980763, 32.00257], [-6.669911, 32.21424], [-6.193654, 32.465644], [-5.942311, 32.664069], [-5.69756, 32.750067], [-5.175038, 32.73017], [-5.016225, 32.670661], [-4.24236, 32.743415], [-3.997609, 32.750067], [-3.693349, 32.683905], [-3.428761, 32.783149], [-3.084828, 32.994757], [-2.833424, 33.15351], [-2.754079, 32.988166], [-2.965749, 32.836005], [-3.197255, 32.716986], [-3.230336, 32.538398]]]}}, {"type": "Feature", "properties": {"FEATURECLA": "Range/mtn", "NAME": "TIBESTI MTS.", "NAMEALT": null, "REGION": "Africa", "SUBREGION": null, "MIN_LABEL": 3.7, "MAX_LABEL": 8, "SCALERANK": 3, "LABEL": "TIBESTI MTS.", "WIKIDATAID": "Q309104", "NAME_AR": "جبال تيبستي", "NAME_BN": "তিব্বেসি পর্বতমালা", "NAME_DE": "Tibesti", "NAME_EN": "Tibesti Mountains", "NAME_ES": "Tibesti", "NAME_FR": "massif du Tibesti", "NAME_EL": "Τιμπέστι", "NAME_HI": "तीबेस्ती पहाड़ियाँ", "NAME_HU": "Tibeszti", "NAME_ID": "Pegunungan Tibesti", "NAME_IT": "Tibesti", "NAME_JA": "ティベスティ山地", "NAME_KO": "티베스티 마운틴스", "NAME_NL": "Tibestigebergte", "NAME_PL": "Tibesti", "NAME_PT": "Tibesti", "NAME_RU": "Тибести", "NAME_SV": "Tibesti", "NAME_TR": "TIBESTI DAĞLARI", "NAME_VI": "DÃY TIBESTI", "NAME_ZH": "提贝斯提高原", "NE_ID": 1159103885, "NAME_FA": "کوهستان تبیستی", "NAME_HE": "רכס טיבסטי", "NAME_UK": "Тібесті", "NAME_UR": "ٹائیبیسٹی پہاڑ", "NAME_ZHT": "提贝斯提高原"}, "bbox": [15.681041, 19.492316, 19.861461, 24.087226], "geometry": {"type": "Polygon", "coordinates": [[[19.579234, 21.847113], [19.499889, 21.467902], [19.376353, 20.841681], [19.420543, 20.2331], [19.35231296484804, 20.0], [17.3089445488449, 20.0], [17.065684, 20.374213], [16.686412, 20.356574], [16.386607, 20.153754], [16.167539, 20.09896], [16.139659, 20.091986], [16.148191, 20.134596], [16.192638, 20.356574], [16.104381, 20.550605], [16.227794, 20.709357], [16.121959, 20.894599], [15.945567, 21.194464], [15.822154, 21.706], [15.681041, 22.226325], [15.795665, 22.314521], [16.210216, 22.005866], [16.483653, 22.067572], [16.76588, 21.944098], [17.16273, 22.023505], [17.3744, 22.314521], [17.559581, 22.614386], [17.947642, 22.658515], [18.326915, 22.720221], [18.362193, 22.923041], [18.309215, 23.214118], [18.406261, 23.540473], [18.609141, 23.804999], [18.83839, 23.963813], [19.032359, 24.087226], [19.224392, 24.077661], [19.385265, 24.069648], [19.764415, 23.99903], [19.779994, 23.972135], [19.861461, 23.831488], [19.85255, 23.478705], [19.764415, 22.94953], [19.614513, 22.535041], [19.579234, 21.847113]]]}}, {"type": "Feature", "properties": {"FEATURECLA": "Range/mtn", "NAME": "AHAGGAR MTS.", "NAMEALT": null, "REGION": "Africa", "SUBREGION": null, "MIN_LABEL": 4, "MAX_LABEL": 8, "SCALERANK": 3, "LABEL": "AHAGGAR MTS.", "WIKIDATAID": "Q23836082", "NAME_AR": "جبال الأهقار", "NAME_BN": "আহাজ্ঞার মাউন্টেন", "NAME_DE": "Ahaggar", "NAME_EN": "Ahag", "NAME_ES": "Montañas Ahaggar", "NAME_FR": "Ahaggar", "NAME_EL": "ΟΡΗ ΑΧΑΓΚΑΡ", "NAME_HI": "अहग्गर पर्वत", "NAME_HU": "AHAGGAR-HEGYSÉG", "NAME_ID": "PEGUNUNGAN AHAGGAR", "NAME_IT": "Massiccio dell'Ahaggar", "NAME_JA": "ホガール山地", "NAME_KO": "아하가르 마운틴스", "NAME_NL": "Ahag", "NAME_PL": "MASYW GÓRSKI AHAGGAR", "NAME_PT": "Montanhas de Hoggar", "NAME_RU": "нагорье Ахаггар", "NAME_SV": "Ahag", "NAME_TR": "Hoggar Dağları", "NAME_VI": "DÃY HOGGAR", "NAME_ZH": "阿哈革山脉", "NE_ID": 1159103887, "NAME_FA": "کوه های آهاگار", "NAME_HE": "רכס אהאגאר", "NAME_UK": "Ахаггар", "NAME_UR": "اہاگار پہاڑ", "NAME_ZHT": "阿哈革山"}, "bbox": [1.067027, 21.666205, 8.925059, 26.984442], "geometry": {"type": "Polygon", "coordinates": [[[4.919759, 26.730424], [4.938609, 26.693305], [4.949641, 26.627168], [5.026866, 26.164191], [5.212047, 25.546759], [5.688365, 25.246955], [5.741957, 25.245191], [6.147137, 25.23186], [6.226329, 25.229254], [6.433604, 24.938239], [6.649547, 24.71778], [7.108165, 24.532538], [8.016612, 24.461982], [8.259288, 24.422309], [8.479744, 24.386546], [8.74879, 24.342902], [8.867808, 24.148871], [8.634353, 24.112401], [8.50172, 24.091681], [8.598888, 23.853522], [8.431285, 23.49195], [8.761885, 23.46833], [8.925059, 23.456671], [8.898692, 23.245002], [8.800293, 23.155045], [8.589976, 22.962775], [8.589976, 22.800897], [8.589976, 22.707038], [8.316539, 22.539435], [7.963756, 22.230658], [7.927189, 22.320534], [7.857921, 22.49079], [7.708018, 22.574713], [7.549327, 22.680548], [7.170055, 22.380683], [7.117198, 22.072028], [6.833047, 21.850484], [6.59669, 21.666205], [6.529814, 21.698868], [6.407115, 21.758795], [6.235118, 21.926398], [5.979402, 21.923168], [5.882335, 21.921942], [5.88377, 21.984474], [5.891246, 22.310126], [5.362071, 22.318915], [5.071056, 22.407172], [4.983062, 22.447164], [4.78004, 22.539435], [4.563853, 22.649543], [4.42274, 22.883246], [4.435924, 23.196295], [4.431529, 23.399176], [4.607921, 23.650519], [4.682872, 23.796027], [4.647594, 23.84455], [4.506602, 23.994635], [4.277354, 24.193], [4.250865, 24.232795], [3.924571, 24.30329], [3.615855, 24.241584], [3.254283, 24.223944], [2.910289, 24.188666], [2.531139, 24.188666], [2.257701, 24.276862], [1.666759, 24.373908], [1.305186, 24.638495], [1.067027, 24.850165], [1.61378, 25.079474], [1.957774, 25.114691], [2.081309, 24.806037], [2.407603, 24.779547], [2.522227, 25.123542], [2.636974, 25.555732], [2.733897, 25.57331], [2.751475, 25.238227], [2.919078, 25.264655], [2.998546, 25.335211], [3.157237, 25.423407], [3.139659, 25.58216], [3.236583, 25.811469], [3.219005, 26.128974], [3.492442, 26.455268], [3.554088, 26.808051], [3.562999, 26.966803], [3.74818, 26.931525], [3.836314, 26.799262], [4.092174, 26.81684], [4.656505, 26.984442], [4.802013, 26.962287], [4.919759, 26.730424]]]}}]}