{"type": "FeatureCollection", "features": [{"type": "Feature", "properties": {"featurecla": "Alkaline Lake", "scalerank": 8, "name": "Great Bitter Lake", "name_abb": "Great Bitter L.", "name_alt": null, "note": null, "delta": null, "dam_name": null, "year": -99, "admin": null, "min_zoom": 6, "min_label": 7, "label": "Great Bitter Lake", "wikidataid": "Q526440", "name_ar": "البحيرات المرة", "name_bn": "গ্রেট বিটার লেক", "name_de": "Bitterseen", "name_en": "Great Bitter", "name_es": "Gran Amargo", "name_fr": "lacs Amer", "name_el": "Λίμνη Γκρέιτ Μπίττερ", "name_hi": "ग्रेट बिटर झील", "name_hu": "Great Bitter Lake-tó", "name_id": "Pahit Besar", "name_it": "Laghi amari", "name_ja": "グレートビター湖", "name_ko": "그레이트비터호", "name_nl": "Bittermeren", "name_pl": "Wielkie Jezioro Gorzkie", "name_pt": "Grande Amargo", "name_ru": "Большое Горькое озеро", "name_sv": "Bittersjöarna", "name_tr": "Büyük Acı Göl", "name_vi": "Hồ Great Bitter", "name_zh": "大苦湖", "ne_id": 1159127045, "name_fa": "دریاچه تلخ بزرگ", "name_he": "האגמים המרים", "name_uk": "Велике Гірке озеро", "name_ur": "گریٹ بٹر لیک؎", "name_zht": "大苦湖"}, "bbox": [32.296606, 30.179502, 32.573014, 30.428534], "geometry": {"type": "Polygon", "coordinates": [[[32.550642, 30.195692], [32.550642, 30.200107], [32.547993, 30.203345], [32.543577, 30.209527], [32.536807, 30.203345], [32.536807, 30.229838], [32.532391, 30.230427], [32.53092, 30.229249], [32.526504, 30.233076], [32.520617, 30.241318], [32.512669, 30.249266], [32.491769, 30.265456], [32.487059, 30.266928], [32.464688, 30.249266], [32.461155, 30.243084], [32.457623, 30.240729], [32.447615, 30.244262], [32.437312, 30.24956], [32.413468, 30.271343], [32.398161, 30.280174], [32.361072, 30.291654], [32.344293, 30.298719], [32.331341, 30.309905], [32.309852, 30.336103], [32.296606, 30.3467], [32.306025, 30.374371], [32.310441, 30.380847], [32.305731, 30.399686], [32.326337, 30.413227], [32.372257, 30.428534], [32.386092, 30.422352], [32.393157, 30.408517], [32.432602, 30.362596], [32.437901, 30.359064], [32.44261, 30.354648], [32.447615, 30.3467], [32.449675, 30.336103], [32.448792, 30.327567], [32.448792, 30.319913], [32.454091, 30.313143], [32.449969, 30.30284], [32.459683, 30.291949], [32.475285, 30.282823], [32.48912, 30.277819], [32.526799, 30.272815], [32.537984, 30.266633], [32.550642, 30.250443], [32.552703, 30.253093], [32.553291, 30.25427], [32.554174, 30.255447], [32.557412, 30.257802], [32.559473, 30.254564], [32.559473, 30.253387], [32.560062, 30.252504], [32.564183, 30.250443], [32.564183, 30.245733], [32.562417, 30.24485], [32.559473, 30.245439], [32.557412, 30.244262], [32.571542, 30.236608], [32.565066, 30.236019], [32.563594, 30.234548], [32.564183, 30.229838], [32.573014, 30.211882], [32.569481, 30.190099], [32.560062, 30.179502], [32.550642, 30.195692]]]}}]}