{"type": "FeatureCollection", "features": [{"type": "Feature", "properties": {"scalerank": 3, "featurecla": "Playa", "name": "Chott el Djerid", "name_abb": null, "name_alt": "Tunisian Salt Lakes", "note": null, "min_zoom": 5.7, "wikidataid": "Q849143", "name_ar": "شط الجريد", "name_bn": "চোট এল দজেরিদ", "name_de": "Chott el Djerid", "name_en": "Chott el Djerid", "name_es": "Chott el Djerid", "name_fr": "Chott el-Jérid", "name_el": "Χοτ ελ Ντιερίντ", "name_hi": "चॉट एल जेरिड", "name_hu": "Chott el Djerid", "name_id": "Chott el Djerid", "name_it": "Chott el-Jerid", "name_ja": "ジェリド湖", "name_ko": "엘제리드호", "name_nl": "Sjott el-Djerid", "name_pl": "Wielki Szott", "name_pt": "Chott el Jerid", "name_ru": "Эль-Джерид", "name_sv": "Chott el Djerid", "name_tr": "Chott el Djerid", "name_vi": "Hồ muối Chott el Djerid", "name_zh": "杰里德大盐湖", "wdid_score": 4, "ne_id": 1159110967, "name_fa": "شات ال دیجرید", "name_he": "צ'וט אל ג'ריד", "name_uk": "Шотт-ель-Джерід", "name_ur": "چوٹ ایل جیرید", "name_zht": "傑里德大鹽湖"}, "bbox": [7.731036, 33.382478, 9.051848, 34.047152], "geometry": {"type": "Polygon", "coordinates": [[[8.908198, 33.91145], [8.867576, 33.916749], [8.814591, 33.949129], [8.805465, 33.947951], [8.799284, 33.933527], [8.774263, 33.915277], [8.771613, 33.898204], [8.782211, 33.879364], [8.800167, 33.872888], [8.821067, 33.871711], [8.839906, 33.868178], [8.847559, 33.861114], [8.876113, 33.823435], [8.814885, 33.826673], [8.776029, 33.823435], [8.757778, 33.824613], [8.740411, 33.829911], [8.724221, 33.840214], [8.695079, 33.878481], [8.688603, 33.883191], [8.650924, 33.860525], [8.637383, 33.847573], [8.651807, 33.841686], [8.662699, 33.83521], [8.685953, 33.80283], [8.699494, 33.791055], [8.716862, 33.784873], [8.771613, 33.773982], [8.796929, 33.762207], [8.842261, 33.729827], [8.867871, 33.719525], [8.910259, 33.710694], [8.942639, 33.699508], [8.966483, 33.67743], [8.997096, 33.602073], [9.009165, 33.59648], [9.016819, 33.59648], [9.023589, 33.597658], [9.031831, 33.594714], [9.048904, 33.57558], [9.051848, 33.554681], [9.041545, 33.536724], [9.019762, 33.52701], [9.005633, 33.526716], [8.976785, 33.529365], [8.962361, 33.527893], [8.95147, 33.523184], [8.929393, 33.510526], [8.917912, 33.508465], [8.901722, 33.514941], [8.893775, 33.529365], [8.892008, 33.547616], [8.894658, 33.564689], [8.907021, 33.600307], [8.904077, 33.61267], [8.884355, 33.61267], [8.867576, 33.604723], [8.852269, 33.592654], [8.827837, 33.565572], [8.815768, 33.548205], [8.810764, 33.533781], [8.815179, 33.519946], [8.831664, 33.505816], [8.864044, 33.485505], [8.874052, 33.470787], [8.871109, 33.451064], [8.86581, 33.444], [8.858157, 33.439584], [8.849326, 33.437524], [8.839906, 33.438112], [8.82872, 33.442528], [8.822538, 33.449593], [8.811647, 33.46696], [8.804877, 33.473436], [8.795163, 33.480795], [8.78486, 33.486388], [8.775146, 33.487271], [8.766609, 33.481973], [8.765137, 33.473436], [8.768375, 33.452242], [8.764843, 33.430165], [8.75719, 33.428104], [8.748064, 33.439584], [8.733346, 33.478146], [8.723043, 33.492275], [8.707148, 33.499046], [8.685953, 33.496985], [8.66888, 33.489037], [8.651219, 33.47638], [8.6365, 33.461367], [8.627669, 33.445766], [8.619427, 33.403672], [8.609713, 33.389248], [8.586458, 33.382478], [8.562026, 33.38601], [8.518755, 33.408087], [8.495206, 33.414563], [8.479016, 33.413386], [8.449285, 33.403966], [8.434272, 33.401317], [8.418082, 33.403377], [8.371278, 33.421039], [8.353911, 33.421039], [8.320648, 33.413386], [8.304752, 33.413975], [8.290034, 33.422511], [8.255004, 33.465194], [8.248528, 33.469609], [8.2291, 33.479912], [8.224096, 33.483445], [8.222036, 33.491687], [8.224391, 33.512292], [8.224096, 33.522006], [8.216737, 33.54114], [8.204963, 33.552031], [8.172582, 33.567338], [8.138142, 33.593242], [8.128428, 33.597658], [8.099875, 33.605311], [8.082801, 33.614142], [8.052188, 33.638869], [8.035114, 33.649172], [8.016569, 33.655648], [7.899118, 33.677136], [7.857613, 33.67743], [7.841717, 33.681552], [7.828471, 33.69156], [7.766949, 33.765445], [7.763122, 33.775159], [7.759001, 33.795176], [7.755763, 33.805185], [7.750464, 33.811955], [7.734863, 33.826673], [7.731036, 33.831972], [7.731036, 33.839625], [7.734569, 33.843157], [7.749287, 33.849339], [7.776957, 33.867884], [7.785494, 33.870828], [7.799329, 33.869062], [7.837007, 33.850517], [7.850548, 33.846984], [7.864383, 33.845218], [7.892053, 33.846395], [7.988605, 33.866118], [8.066906, 33.871122], [8.079858, 33.869062], [8.109, 33.857581], [8.121363, 33.85817], [8.133726, 33.869062], [8.14344, 33.863469], [8.154626, 33.860819], [8.165812, 33.862291], [8.175526, 33.869062], [8.181119, 33.881719], [8.177587, 33.891433], [8.171405, 33.900853], [8.167873, 33.913511], [8.171405, 33.937943], [8.181708, 33.949423], [8.265013, 33.965613], [8.283852, 33.974444], [8.300336, 34.006235], [8.321825, 34.014183], [8.367157, 34.019776], [8.387174, 34.026252], [8.425441, 34.043619], [8.446047, 34.047152], [8.545247, 34.047152], [8.589696, 34.039498], [8.667703, 34.013889], [8.709208, 34.019776], [8.719805, 34.026252], [8.728342, 34.033317], [8.737762, 34.038615], [8.750714, 34.039793], [8.762488, 34.035672], [8.781916, 34.02272], [8.795163, 34.019776], [8.887887, 34.026546], [8.982967, 34.023014], [8.932336, 33.904974], [8.908198, 33.91145]]]}}, {"type": "Feature", "properties": {"scalerank": 3, "featurecla": "Playa", "name": "Chott el Fejaj", "name_abb": null, "name_alt": "Tunisian Salt Lakes", "note": null, "min_zoom": 5.7, "wikidataid": "Q5105409", "name_ar": "شط الفجاج", "name_bn": "চোট এল ফেজাজ", "name_de": "Chott el Fedjadj", "name_en": "Chott el Fejej", "name_es": "Chott el Fejaj", "name_fr": "Chott el-Fejaj", "name_el": "Χοτ ελ Φεζάζ", "name_hi": "चॉट एल फेजाज", "name_hu": "Chott el Fejaj", "name_id": "Chott el Fejaj", "name_it": "Chott el Fejaj", "name_ja": "ショット・エル・フェジャジ", "name_ko": "쇼트 엘 페자이", "name_nl": "Chott el Fejaj", "name_pl": "Chott el Fejaj", "name_pt": "Chott el Fejaj", "name_ru": "солончак Шотт эль-Феджадж", "name_sv": "Chott el Fejaj", "name_tr": "Chott el Fejaj", "name_vi": "Lạch Chott el Fejaj", "name_zh": "杰里德盐湖", "wdid_score": 4, "ne_id": 1159110987, "name_fa": "شات ال فجاج", "name_he": "שאט אל פג'אג'", "name_uk": "Шот-ель-Фежаж", "name_ur": "چوٹ ایل فجاج", "name_zht": "費傑鹽湖"}, "bbox": [8.932336, 33.815193, 9.811308, 34.023014], "geometry": {"type": "Polygon", "coordinates": [[[9.029182, 34.0133], [9.066861, 33.993283], [9.073925, 33.984452], [9.080401, 33.967085], [9.087172, 33.957665], [9.095708, 33.950306], [9.101596, 33.948834], [9.136036, 33.951189], [9.146045, 33.950306], [9.152815, 33.945302], [9.155464, 33.934116], [9.16194, 33.930878], [9.291755, 33.921164], [9.423041, 33.942064], [9.574344, 33.987102], [9.637633, 33.994461], [9.693562, 34.010651], [9.714756, 34.012122], [9.757439, 34.002114], [9.778633, 33.999759], [9.804243, 34.002703], [9.811308, 33.99917], [9.806009, 33.98563], [9.773335, 33.963847], [9.734773, 33.955899], [9.694445, 33.952661], [9.655883, 33.944419], [9.641754, 33.93912], [9.635572, 33.935588], [9.629685, 33.930878], [9.622915, 33.921753], [9.618793, 33.913216], [9.6132, 33.905857], [9.602603, 33.900558], [9.592006, 33.899675], [9.581704, 33.90203], [9.545497, 33.915571], [9.531073, 33.917632], [9.516649, 33.916454], [9.49987, 33.910861], [9.442764, 33.883191], [9.41421, 33.880542], [9.40067, 33.904091], [9.35416, 33.884957], [9.317365, 33.877304], [9.306767, 33.872594], [9.26644, 33.831972], [9.249661, 33.821963], [9.230527, 33.816959], [9.054497, 33.815193], [9.003867, 33.821669], [8.983556, 33.828145], [8.973253, 33.836976], [8.959712, 33.853755], [8.948232, 33.873771], [8.943228, 33.892905], [8.932336, 33.904974], [8.982967, 34.023014], [9.029182, 34.0133]]]}}, {"type": "Feature", "properties": {"scalerank": 5, "featurecla": "Playa", "name": null, "name_abb": null, "name_alt": null, "note": "_untitled_4", "min_zoom": 6, "wikidataid": null, "name_ar": null, "name_bn": null, "name_de": null, "name_en": null, "name_es": null, "name_fr": null, "name_el": null, "name_hi": null, "name_hu": null, "name_id": null, "name_it": null, "name_ja": null, "name_ko": null, "name_nl": null, "name_pl": null, "name_pt": null, "name_ru": null, "name_sv": null, "name_tr": null, "name_vi": null, "name_zh": null, "wdid_score": 0, "ne_id": 1159111075, "name_fa": null, "name_he": null, "name_uk": null, "name_ur": null, "name_zht": null}, "bbox": [9.037719, 21.751268, 9.862821, 23.128892], "geometry": {"type": "Polygon", "coordinates": [[[9.852519, 22.118634], [9.862821, 22.022083], [9.862527, 21.989997], [9.853696, 21.967625], [9.832502, 21.988525], [9.820433, 22.016784], [9.802182, 22.075363], [9.785109, 22.100089], [9.742426, 22.128054], [9.720938, 22.147482], [9.712696, 22.167204], [9.711224, 22.214008], [9.70357, 22.232848], [9.685614, 22.244917], [9.6759, 22.235497], [9.671485, 22.21548], [9.670307, 22.195169], [9.672956, 22.172797], [9.692679, 22.112747], [9.695622, 22.085371], [9.692973, 22.030619], [9.695034, 22.002949], [9.726531, 21.908164], [9.720938, 21.90787], [9.719466, 21.907575], [9.707397, 21.906986], [9.693856, 21.912874], [9.680021, 21.916995], [9.666775, 21.910813], [9.662654, 21.899333], [9.664125, 21.884909], [9.668835, 21.87078], [9.674134, 21.860183], [9.693268, 21.839577], [9.715345, 21.822504], [9.731241, 21.803665], [9.731241, 21.776878], [9.715345, 21.751268], [9.699744, 21.758627], [9.66913, 21.80337], [9.639105, 21.826625], [9.630274, 21.83575], [9.61585, 21.859594], [9.593772, 21.907575], [9.574933, 21.929358], [9.538138, 21.952613], [9.521948, 21.965859], [9.514, 21.98411], [9.516649, 21.986759], [9.560509, 21.969686], [9.564336, 21.983227], [9.561981, 22.001477], [9.550795, 22.036801], [9.549029, 22.047693], [9.549323, 22.056818], [9.54638, 22.063883], [9.535783, 22.069181], [9.524008, 22.069181], [9.516943, 22.063588], [9.511645, 22.056523], [9.503991, 22.051814], [9.469551, 22.063588], [9.440997, 22.104505], [9.404791, 22.200762], [9.378004, 22.240207], [9.335909, 22.254631], [9.240536, 22.257574], [9.200208, 22.277002], [9.147516, 22.349121], [9.11131, 22.369727], [9.097475, 22.366783], [9.082462, 22.358835], [9.067449, 22.352948], [9.053909, 22.356481], [9.051554, 22.3659], [9.064506, 22.431543], [9.0648, 22.440669], [9.062151, 22.452149], [9.054792, 22.458919], [9.043606, 22.464512], [9.037719, 22.472166], [9.04655, 22.48394], [9.068332, 22.488356], [9.118669, 22.469516], [9.143101, 22.471871], [9.136919, 22.48865], [9.143395, 22.499247], [9.153404, 22.508961], [9.158408, 22.523385], [9.144573, 22.550172], [9.076869, 22.587556], [9.052142, 22.609928], [9.045078, 22.62759], [9.043606, 22.646429], [9.049199, 22.663797], [9.063623, 22.677632], [9.085994, 22.682342], [9.108366, 22.676749], [9.130738, 22.667623], [9.153404, 22.662914], [9.142807, 22.685285], [9.110721, 22.719431], [9.100713, 22.741509], [9.103362, 22.767707], [9.116019, 22.795377], [9.13427, 22.808329], [9.153404, 22.790079], [9.161057, 22.814217], [9.152815, 22.835411], [9.140157, 22.855722], [9.133681, 22.878682], [9.139569, 22.896344], [9.153109, 22.894284], [9.169888, 22.881037], [9.19697, 22.850718], [9.229938, 22.80362], [9.246717, 22.785958], [9.256431, 22.784486], [9.267911, 22.792434], [9.289694, 22.80362], [9.289694, 22.775361], [9.281158, 22.747985], [9.234648, 22.642602], [9.211099, 22.501602], [9.216398, 22.458036], [9.242596, 22.433898], [9.266145, 22.441257], [9.289694, 22.461568], [9.310889, 22.475698], [9.327373, 22.463923], [9.329139, 22.418297], [9.313243, 22.371493], [9.305884, 22.327338], [9.332083, 22.288777], [9.379475, 22.284067], [9.410678, 22.259929], [9.431872, 22.222839], [9.457188, 22.158373], [9.466607, 22.140417], [9.479854, 22.126288], [9.49987, 22.115691], [9.54844, 22.099501], [9.560804, 22.08596], [9.632923, 21.946137], [9.648819, 21.932007], [9.669424, 21.953202], [9.664714, 21.984993], [9.642048, 22.044455], [9.638221, 22.068004], [9.620854, 22.115396], [9.617027, 22.1413], [9.625858, 22.28024], [9.592889, 22.550761], [9.581115, 22.579314], [9.565219, 22.594032], [9.545497, 22.604629], [9.521653, 22.620819], [9.505463, 22.641425], [9.485152, 22.689995], [9.471611, 22.712367], [9.458365, 22.723847], [9.445413, 22.729734], [9.415682, 22.739448], [9.398903, 22.753283], [9.403025, 22.766235], [9.415977, 22.78007], [9.425396, 22.794789], [9.424513, 22.813039], [9.41686, 22.831584], [9.405085, 22.848363], [9.35416, 22.892518], [9.341502, 22.909885], [9.330022, 22.935789], [9.292638, 23.094157], [9.292932, 23.122416], [9.304118, 23.128892], [9.310005, 23.118001], [9.35887, 22.987303], [9.378004, 22.949919], [9.427751, 22.887219], [9.448651, 22.853073], [9.468373, 22.80362], [9.480737, 22.787724], [9.531956, 22.745041], [9.54638, 22.727674], [9.554622, 22.712072], [9.565219, 22.679987], [9.573756, 22.662619], [9.584942, 22.647312], [9.609374, 22.621703], [9.619677, 22.605513], [9.629685, 22.575487], [9.631451, 22.547228], [9.628802, 22.48865], [9.633217, 22.455092], [9.643226, 22.420946], [9.658533, 22.388272], [9.747431, 22.258457], [9.777161, 22.1831], [9.796589, 22.163378], [9.842805, 22.135707], [9.852519, 22.118634]]]}}, {"type": "Feature", "properties": {"scalerank": 7, "featurecla": "Playa", "name": "Chott Melrhir", "name_abb": null, "name_alt": "Chott Melghir, Chott Melhir", "note": null, "min_zoom": 6.7, "wikidataid": "Q584255", "name_ar": "شط ملغيغ", "name_bn": "চোট মেল্রহির", "name_de": "Schott Melghir", "name_en": "Chott Melrhir", "name_es": "Chott Melrhir", "name_fr": "Chott Melghir", "name_el": "Σοτ Μελρίρ", "name_hi": "चॉट मेलरिर", "name_hu": "Merlhir-sott", "name_id": "Chott Melrhir", "name_it": "Chott Melrhir", "name_ja": "メルリール湖", "name_ko": "쇼트 멜리르", "name_nl": "Chott Melrhir", "name_pl": "Szatt Malghigh", "name_pt": "Chott Melrhir", "name_ru": "Мельгир", "name_sv": "Chott Melrhir", "name_tr": "Melrhir Tuz Gölü", "name_vi": "Hồ muối Chott Melrhir", "name_zh": "邁勒吉爾鹽湖", "wdid_score": 4, "ne_id": 1159111311, "name_fa": "شط ملغیغ", "name_he": "שוט מלע'יע'", "name_uk": "Шотт-Мельгір", "name_ur": "چوٹ میلریر", "name_zht": "邁勒吉爾鹽湖"}, "bbox": [5.927173, 33.872005, 6.408458, 34.204342], "geometry": {"type": "Polygon", "coordinates": [[[6.402865, 34.037438], [6.408458, 34.027429], [6.403454, 34.017715], [6.389325, 34.013889], [6.359005, 34.012711], [6.311612, 34.01801], [6.300132, 34.013889], [6.299838, 33.999465], [6.315734, 33.983569], [6.352235, 33.958254], [6.362537, 33.946774], [6.369308, 33.932055], [6.369897, 33.917043], [6.360771, 33.904091], [6.347819, 33.898204], [6.3384, 33.901736], [6.323976, 33.919987], [6.303959, 33.934705], [6.291007, 33.929995], [6.277172, 33.920575], [6.254506, 33.920281], [6.24803, 33.924108], [6.243909, 33.929406], [6.240376, 33.934705], [6.236255, 33.93912], [6.22242, 33.945596], [6.207113, 33.946774], [6.192395, 33.943241], [6.179443, 33.935293], [6.138232, 33.901736], [6.129401, 33.892316], [6.121453, 33.881425], [6.112328, 33.872888], [6.09967, 33.872005], [6.087601, 33.87907], [6.078476, 33.88849], [6.068173, 33.896732], [6.052572, 33.899381], [6.03962, 33.896143], [6.006651, 33.87436], [6.006062, 33.896143], [6.012833, 33.921458], [6.013127, 33.942358], [5.992227, 33.950895], [5.958081, 33.943241], [5.945718, 33.947951], [5.941008, 33.9715], [5.948661, 33.993872], [5.963674, 34.01536], [5.973388, 34.03626], [5.965146, 34.05716], [5.960142, 34.066285], [5.956021, 34.089246], [5.951311, 34.098371], [5.934238, 34.116622], [5.929528, 34.125453], [5.927173, 34.136639], [5.939831, 34.16843], [5.97486, 34.19139], [6.01872, 34.204048], [6.057576, 34.204342], [6.070823, 34.196983], [6.085246, 34.182854], [6.096138, 34.166075], [6.099082, 34.151062], [6.091722, 34.141643], [6.080242, 34.136933], [6.072294, 34.130751], [6.074944, 34.117799], [6.084658, 34.106613], [6.097315, 34.098666], [6.123219, 34.086597], [6.134111, 34.077177], [6.150301, 34.054805], [6.161781, 34.046269], [6.174439, 34.041853], [6.189451, 34.039793], [6.203875, 34.041265], [6.215061, 34.048329], [6.218888, 34.060693], [6.218888, 34.075411], [6.222126, 34.086597], [6.235078, 34.089246], [6.24803, 34.083359], [6.256272, 34.075411], [6.265692, 34.070407], [6.34046, 34.085714], [6.36136, 34.093661], [6.367836, 34.093073], [6.37284, 34.088363], [6.374018, 34.081592], [6.373429, 34.074233], [6.374018, 34.066874], [6.381082, 34.055983], [6.402865, 34.037438]]]}}, {"type": "Feature", "properties": {"scalerank": 7, "featurecla": "Playa", "name": "Chott el Gharsa", "name_abb": null, "name_alt": "Tunisian Salt Lakes", "note": null, "min_zoom": 6.7, "wikidataid": "Q590855", "name_ar": "شط الغرسة", "name_bn": "চোট এল ঘারসা", "name_de": "Chott el Gharsa", "name_en": "Shatt al Gharsah", "name_es": "Shatt al Gharsah", "name_fr": "Chott el-Gharsa", "name_el": "Χοτ ελ Γκαρσά", "name_hi": "चॉट एल घरसा", "name_hu": "Chott el Gharsa", "name_id": "Chott el Gharsa", "name_it": "Chott el Gharsa", "name_ja": "ショット・エル・ガルサ", "name_ko": "쇼트 엘 가르사", "name_nl": "Chott el Gharsa", "name_pl": "Szatt al-Gharsa", "name_pt": "Chott el-Gharsa", "name_ru": "Шотт-эль-Гарса", "name_sv": "Chott el Gharsa", "name_tr": "Chott el Gharsa", "name_vi": "Hồ muối Chott el Gharsa", "name_zh": "盖尔萨盐湖", "wdid_score": 4, "ne_id": 1159111325, "name_fa": "شات ال قرصا", "name_he": "שט אל ג'רש", "name_uk": "Шотт-ель-Гарса", "name_ur": "چوٹ ایل غارصہ", "name_zht": "蓋爾薩鹽湖"}, "bbox": [7.369557, 34.003586, 8.121363, 34.19404], "geometry": {"type": "Polygon", "coordinates": [[[7.737807, 34.077471], [7.728681, 34.080121], [7.713374, 34.077766], [7.683055, 34.068052], [7.66922, 34.065697], [7.617706, 34.070995], [7.459633, 34.058632], [7.434023, 34.053333], [7.384275, 34.03626], [7.371029, 34.042736], [7.369557, 34.058926], [7.381037, 34.081298], [7.390163, 34.093661], [7.397227, 34.099843], [7.406941, 34.101609], [7.424898, 34.101904], [7.447564, 34.105436], [7.5188, 34.13605], [7.528219, 34.138405], [7.53705, 34.138405], [7.544115, 34.134284], [7.547353, 34.126336], [7.547353, 34.118682], [7.548825, 34.111618], [7.555595, 34.106908], [7.56737, 34.108085], [7.613879, 34.125747], [7.698067, 34.132812], [7.710431, 34.138405], [7.734274, 34.154006], [8.089866, 34.19404], [8.093104, 34.187269], [8.089277, 34.179616], [8.082801, 34.171373], [8.077797, 34.163131], [8.075737, 34.148707], [8.076325, 34.122803], [8.070438, 34.108674], [8.056014, 34.091012], [8.053365, 34.081592], [8.059252, 34.070701], [8.077503, 34.065402], [8.111355, 34.077766], [8.121363, 34.065697], [8.121069, 34.05245], [8.116065, 34.036555], [8.109, 34.021542], [8.101052, 34.010945], [8.087806, 34.00388], [8.07397, 34.003586], [8.045123, 34.012417], [7.980068, 34.02272], [7.97006, 34.030079], [7.965644, 34.046857], [7.954459, 34.043619], [7.940329, 34.033022], [7.925611, 34.026546], [7.869387, 34.024486], [7.770481, 34.041853], [7.759295, 34.047152], [7.750759, 34.057455], [7.744283, 34.069818], [7.737807, 34.077471]]]}}, {"type": "Feature", "properties": {"scalerank": 7, "featurecla": "Playa", "name": "Chott ech Chergui", "name_abb": null, "name_alt": null, "note": null, "min_zoom": 6.7, "wikidataid": "Q3643226", "name_ar": "شط الشرقي", "name_bn": "চোট এক চেরগুই", "name_de": "Chott Ech Chergui", "name_en": "Chott Ech Chergui", "name_es": "Chott Ech Chergui", "name_fr": "Chott ech Chergui", "name_el": "Σοτ Ες Σεργκί", "name_hi": "चॉट ईच चेरगुइ", "name_hu": "Chott ech Chergui", "name_id": "Chott ech Chergui", "name_it": "Chott Ech Chergui", "name_ja": "ショット・シェルギ", "name_ko": "쇼트 에크 체르기", "name_nl": "Chott Ech Chergui", "name_pl": "Asz-Szatt asz-Szarki", "name_pt": "Chott ech Chergui", "name_ru": "Шотт-эш-Шерги", "name_sv": "Chott ech Chergui", "name_tr": "Chott ech Chergui", "name_vi": "Hồ  muối Chott ech Chergui", "name_zh": "东部盐湖", "wdid_score": 4, "ne_id": 1159111339, "name_fa": "چوت اک چرگوی", "name_he": "שאט אל שארקי", "name_uk": "Шот Шергі", "name_ur": "چوٹ ایک چیرگوئی", "name_zht": "夏吉鹽湖"}, "bbox": [0.136883, 34.123392, 1.186144, 34.641473], "geometry": {"type": "Polygon", "coordinates": [[[1.132864, 34.623517], [1.186144, 34.641473], [1.178785, 34.629698], [1.161418, 34.60821], [1.156708, 34.595258], [1.169071, 34.580834], [1.162301, 34.562289], [1.067221, 34.462794], [1.058685, 34.451314], [1.05633, 34.444543], [1.068987, 34.3998], [1.065455, 34.380372], [1.055741, 34.368303], [1.027482, 34.348875], [0.985977, 34.304132], [0.959484, 34.29118], [0.925043, 34.300305], [0.867054, 34.307958], [0.805826, 34.302954], [0.746953, 34.285881], [0.695145, 34.257033], [0.728408, 34.312963], [0.74136, 34.329447], [0.760052, 34.345343], [0.800527, 34.370069], [0.818483, 34.383904], [0.780805, 34.403627], [0.71943, 34.394501], [0.656142, 34.371247], [0.517349, 34.300011], [0.47187, 34.267631], [0.468779, 34.242021], [0.478199, 34.240255], [0.523236, 34.239372], [0.582109, 34.228186], [0.611545, 34.216706], [0.630238, 34.198161], [0.485705, 34.198161], [0.464658, 34.194334], [0.418737, 34.166958], [0.401664, 34.160776], [0.327484, 34.145764], [0.312177, 34.146647], [0.277589, 34.152829], [0.243149, 34.149002], [0.174562, 34.126041], [0.136883, 34.123392], [0.182657, 34.156067], [0.20341, 34.176083], [0.218569, 34.218766], [0.235054, 34.231424], [0.255512, 34.238194], [0.274646, 34.239077], [0.331164, 34.219355], [0.336757, 34.222593], [0.334696, 34.226714], [0.333519, 34.230835], [0.331605, 34.235545], [0.327484, 34.240255], [0.377084, 34.275873], [0.494536, 34.324148], [0.688522, 34.431591], [0.737533, 34.450136], [0.826431, 34.465149], [0.850569, 34.47604], [0.862638, 34.492819], [0.861755, 34.510481], [0.857045, 34.52932], [0.85734, 34.548748], [0.865287, 34.563172], [0.879417, 34.578773], [0.895901, 34.59202], [0.910619, 34.600262], [0.93564, 34.600262], [0.95448, 34.560523], [0.983033, 34.549926], [1.03543, 34.562878], [1.132864, 34.623517]]]}}, {"type": "Feature", "properties": {"scalerank": 7, "featurecla": "Playa", "name": null, "name_abb": null, "name_alt": null, "note": "_untitled_5", "min_zoom": 6.7, "wikidataid": null, "name_ar": null, "name_bn": null, "name_de": null, "name_en": null, "name_es": null, "name_fr": null, "name_el": null, "name_hi": null, "name_hu": null, "name_id": null, "name_it": null, "name_ja": null, "name_ko": null, "name_nl": null, "name_pl": null, "name_pt": null, "name_ru": null, "name_sv": null, "name_tr": null, "name_vi": null, "name_zh": null, "wdid_score": 0, "ne_id": 1159111351, "name_fa": null, "name_he": null, "name_uk": null, "name_ur": null, "name_zht": null}, "bbox": [21.965897, 32.000438, 22.361522, 32.257712], "geometry": {"type": "Polygon", "coordinates": [[[22.361522, 32.063726], [22.348276, 32.047536], [22.32561, 32.039294], [22.259966, 32.031052], [22.238478, 32.033407], [22.216401, 32.039], [22.195501, 32.046653], [22.17048, 32.061666], [22.154878, 32.067847], [22.147814, 32.063432], [22.149874, 32.050774], [22.161943, 32.023104], [22.168714, 32.011918], [22.153995, 32.000438], [22.132212, 32.002204], [22.070985, 32.028403], [22.062448, 32.028697], [22.051557, 32.025459], [22.042726, 32.0181], [22.034484, 32.008386], [22.02477, 32.005737], [22.011229, 32.018689], [22.011229, 32.030169], [22.012406, 32.041649], [22.012701, 32.052835], [22.00858, 32.062843], [21.997394, 32.070791], [21.984147, 32.074323], [21.972373, 32.079033], [21.965897, 32.090808], [21.968546, 32.104643], [21.978554, 32.113768], [21.990035, 32.121716], [21.997099, 32.132313], [21.995922, 32.144971], [21.982381, 32.169109], [21.977671, 32.181472], [21.978849, 32.199723], [21.984736, 32.221505], [21.993861, 32.242111], [22.003575, 32.257712], [22.010934, 32.24947], [22.029185, 32.223272], [22.034778, 32.217384], [22.049791, 32.206787], [22.057738, 32.185593], [22.067452, 32.168814], [22.087175, 32.171758], [22.092473, 32.181472], [22.092768, 32.194424], [22.094828, 32.207082], [22.106603, 32.215029], [22.118672, 32.213852], [22.129858, 32.206493], [22.139866, 32.197368], [22.150169, 32.190597], [22.162826, 32.187948], [22.185787, 32.186182], [22.19815, 32.180295], [22.20757, 32.169697], [22.220227, 32.144676], [22.231119, 32.135257], [22.244071, 32.132902], [22.255551, 32.135551], [22.267031, 32.135551], [22.279689, 32.125543], [22.286165, 32.113179], [22.288225, 32.101405], [22.291463, 32.090219], [22.300883, 32.079328], [22.313541, 32.074029], [22.361522, 32.063726]]]}}, {"type": "Feature", "properties": {"scalerank": 8, "featurecla": "Playa", "name": null, "name_abb": null, "name_alt": null, "note": "_untitled_91", "min_zoom": 7, "wikidataid": null, "name_ar": null, "name_bn": null, "name_de": null, "name_en": null, "name_es": null, "name_fr": null, "name_el": null, "name_hi": null, "name_hu": null, "name_id": null, "name_it": null, "name_ja": null, "name_ko": null, "name_nl": null, "name_pl": null, "name_pt": null, "name_ru": null, "name_sv": null, "name_tr": null, "name_vi": null, "name_zh": null, "wdid_score": 0, "ne_id": 1159111777, "name_fa": null, "name_he": null, "name_uk": null, "name_ur": null, "name_zht": null}, "bbox": [15.18463, 28.928454, 15.334167, 29.266973], "geometry": {"type": "Polygon", "coordinates": [[[15.322687, 29.125089], [15.334167, 29.100068], [15.325925, 29.071809], [15.317977, 29.065333], [15.299727, 29.062095], [15.290601, 29.05768], [15.271762, 29.030893], [15.265286, 28.998807], [15.263226, 28.965544], [15.256455, 28.93493], [15.253217, 28.928454], [15.236438, 28.948176], [15.227902, 28.954358], [15.209651, 28.957007], [15.204058, 28.958774], [15.19876, 28.961717], [15.19405, 28.966133], [15.199937, 28.982028], [15.202881, 28.997335], [15.199054, 29.010582], [15.18463, 29.020884], [15.297961, 29.266973], [15.306791, 29.245484], [15.304731, 29.222524], [15.298844, 29.198975], [15.2959, 29.176897], [15.30532, 29.149816], [15.322687, 29.125089]]]}}, {"type": "Feature", "properties": {"scalerank": 8, "featurecla": "Playa", "name": null, "name_abb": null, "name_alt": null, "note": "_untitled_90", "min_zoom": 7, "wikidataid": null, "name_ar": null, "name_bn": null, "name_de": null, "name_en": null, "name_es": null, "name_fr": null, "name_el": null, "name_hi": null, "name_hu": null, "name_id": null, "name_it": null, "name_ja": null, "name_ko": null, "name_nl": null, "name_pl": null, "name_pt": null, "name_ru": null, "name_sv": null, "name_tr": null, "name_vi": null, "name_zh": null, "wdid_score": 0, "ne_id": 1159111797, "name_fa": null, "name_he": null, "name_uk": null, "name_ur": null, "name_zht": null}, "bbox": [15.913182, 28.869287, 16.224619, 29.029127], "geometry": {"type": "Polygon", "coordinates": [[[16.224619, 28.941995], [16.222558, 28.919623], [16.208429, 28.897251], [16.188706, 28.878706], [16.169278, 28.869287], [16.094804, 28.871642], [16.082735, 28.874291], [16.048589, 28.88842], [15.997075, 28.901078], [15.978236, 28.913736], [15.971466, 28.929926], [15.972937, 28.964366], [15.967639, 28.980262], [15.954098, 28.989682], [15.922896, 28.993803], [15.913182, 29.002339], [15.914359, 29.016469], [15.928783, 29.020296], [16.086268, 29.009993], [16.102752, 29.011465], [16.153971, 29.025005], [16.183113, 29.029127], [16.20107, 29.022356], [16.200775, 29.012348], [16.186646, 28.987916], [16.184585, 28.976435], [16.192239, 28.966721], [16.216377, 28.953475], [16.224619, 28.941995]]]}}]}