{"type": "FeatureCollection", "features": [{"type": "Feature", "properties": {"SCALERANK": 10, "NATSCALE": 1, "LABELRANK": 7, "FEATURECLA": "Admin-1 capital", "NAME": "Kasserine", "NAMEPAR": null, "NAMEALT": null, "NAMEASCII": "Kasserine", "ADM0CAP": 0, "CAPIN": null, "WORLDCITY": 0, "MEGACITY": 0, "SOV0NAME": "Tunisia", "SOV_A3": "TUN", "ADM0NAME": "Tunisia", "ADM0_A3": "TUN", "ADM1NAME": "Kasssrine", "ISO_A2": "TN", "NOTE": null, "LATITUDE": 35.216703, "LONGITUDE": 8.716699, "POP_MAX": 76243, "POP_MIN": 76243, "POP_OTHER": 0, "RANK_MAX": 8, "RANK_MIN": 8, "MEGANAME": null, "LS_NAME": null, "MAX_POP10": 0, "MAX_POP20": 0, "MAX_POP50": 0, "MAX_POP300": 0, "MAX_POP310": 0, "MAX_NATSCA": 0, "MIN_AREAKM": 0, "MAX_AREAKM": 0, "MIN_AREAMI": 0, "MAX_AREAMI": 0, "MIN_PERKM": 0, "MAX_PERKM": 0, "MIN_PERMI": 0, "MAX_PERMI": 0, "MIN_BBXMIN": 0, "MAX_BBXMIN": 0, "MIN_BBXMAX": 0, "MAX_BBXMAX": 0, "MIN_BBYMIN": 0, "MAX_BBYMIN": 0, "MIN_BBYMAX": 0, "MAX_BBYMAX": 0, "MEAN_BBXC": 0, "MEAN_BBYC": 0, "TIMEZONE": null, "UN_FID": 0, "POP1950": 0, "POP1955": 0, "POP1960": 0, "POP1965": 0, "POP1970": 0, "POP1975": 0, "POP1980": 0, "POP1985": 0, "POP1990": 0, "POP1995": 0, "POP2000": 0, "POP2005": 0, "POP2010": 0, "POP2015": 0, "POP2020": 0, "POP2025": 0, "POP2050": 0, "MIN_ZOOM": 9, "WIKIDATAID": "Q852735", "WOF_ID": 1141905995, "CAPALT": 0, "NAME_EN": "Kasserine", "NAME_DE": "Kasserine", "NAME_ES": "Kasserine", "NAME_FR": "Kasserine", "NAME_PT": "Kasserine", "NAME_RU": "Кассерин", "NAME_ZH": "卡塞林", "LABEL": null, "NAME_AR": "القصرين", "NAME_BN": "ক্যাসারাইন", "NAME_EL": "Αλ Κασράυν", "NAME_HI": "कैसरीन", "NAME_HU": "Kasszerine", "NAME_ID": "Kasserine", "NAME_IT": "Kasserine", "NAME_JA": "カスリーヌ", "NAME_KO": "카세린", "NAME_NL": "Kasserine", "NAME_PL": "Al-Kasrajn", "NAME_SV": "Kasserine", "NAME_TR": "Kassarin", "NAME_VI": "Kasserine", "NE_ID": 1159112827, "NAME_FA": "القصرین", "NAME_HE": "קסרין", "NAME_UK": "Касерін", "NAME_UR": "قصرین", "NAME_ZHT": "卡塞林", "GEONAMESID": -1, "FCLASS_ISO": null, "FCLASS_US": null, "FCLASS_FR": null, "FCLASS_RU": null, "FCLASS_ES": null, "FCLASS_CN": null, "FCLASS_TW": null, "FCLASS_IN": null, "FCLASS_NP": null, "FCLASS_PK": null, "FCLASS_DE": null, "FCLASS_GB": null, "FCLASS_BR": null, "FCLASS_IL": null, "FCLASS_PS": null, "FCLASS_SA": null, "FCLASS_EG": null, "FCLASS_MA": null, "FCLASS_PT": null, "FCLASS_AR": null, "FCLASS_JP": null, "FCLASS_KO": null, "FCLASS_VN": null, "FCLASS_TR": null, "FCLASS_ID": null, "FCLASS_PL": null, "FCLASS_GR": null, "FCLASS_IT": null, "FCLASS_NL": null, "FCLASS_SE": null, "FCLASS_BD": null, "FCLASS_UA": null, "FCLASS_TLC": null}, "bbox": [8.716698, 35.216703, 8.716698, 35.216703], "geometry": {"type": "Point", "coordinates": [8.716698, 35.216703]}}, {"type": "Feature", "properties": {"SCALERANK": 7, "NATSCALE": 20, "LABELRANK": 7, "FEATURECLA": "Admin-1 capital", "NAME": "Bizerte", "NAMEPAR": null, "NAMEALT": null, "NAMEASCII": "Bizerte", "ADM0CAP": 0, "CAPIN": null, "WORLDCITY": 0, "MEGACITY": 0, "SOV0NAME": "Tunisia", "SOV_A3": "TUN", "ADM0NAME": "Tunisia", "ADM0_A3": "TUN", "ADM1NAME": "Bizerte", "ISO_A2": "TN", "NOTE": null, "LATITUDE": 37.290423, "LONGITUDE": 9.854995, "POP_MAX": 139843, "POP_MIN": 115268, "POP_OTHER": 135557, "RANK_MAX": 9, "RANK_MIN": 9, "MEGANAME": null, "LS_NAME": "Bizerte", "MAX_POP10": 139843, "MAX_POP20": 139843, "MAX_POP50": 0, "MAX_POP300": 0, "MAX_POP310": 0, "MAX_NATSCA": 20, "MIN_AREAKM": 55, "MAX_AREAKM": 55, "MIN_AREAMI": 21, "MAX_AREAMI": 21, "MIN_PERKM": 83, "MAX_PERKM": 83, "MIN_PERMI": 52, "MAX_PERMI": 52, "MIN_BBXMIN": 9.766667, "MAX_BBXMIN": 9.766667, "MIN_BBXMAX": 9.958333, "MAX_BBXMAX": 9.958333, "MIN_BBYMIN": 37.208333, "MAX_BBYMIN": 37.208333, "MIN_BBYMAX": 37.308333, "MAX_BBYMAX": 37.308333, "MEAN_BBXC": 9.866924, "MEAN_BBYC": 37.255916, "TIMEZONE": "Africa/Tunis", "UN_FID": 0, "POP1950": 0, "POP1955": 0, "POP1960": 0, "POP1965": 0, "POP1970": 0, "POP1975": 0, "POP1980": 0, "POP1985": 0, "POP1990": 0, "POP1995": 0, "POP2000": 0, "POP2005": 0, "POP2010": 0, "POP2015": 0, "POP2020": 0, "POP2025": 0, "POP2050": 0, "MIN_ZOOM": 6.7, "WIKIDATAID": "Q189546", "WOF_ID": 421200583, "CAPALT": 0, "NAME_EN": "Bizerte", "NAME_DE": "Bizerta", "NAME_ES": "Bizerta", "NAME_FR": "Bizerte", "NAME_PT": "Bizerta", "NAME_RU": "Бизерта", "NAME_ZH": "比塞大", "LABEL": null, "NAME_AR": "بنزرت", "NAME_BN": "বিজেরতে", "NAME_EL": "Μπιζέρτα", "NAME_HI": "बिझेरते", "NAME_HU": "Bizerte", "NAME_ID": "Bizerte", "NAME_IT": "Biserta", "NAME_JA": "ビゼルト", "NAME_KO": "비제르테", "NAME_NL": "Bizerte", "NAME_PL": "Bizerta", "NAME_SV": "Bizerte", "NAME_TR": "Bizerte", "NAME_VI": "Bizerte", "NE_ID": 1159133857, "NAME_FA": "بنزرت", "NAME_HE": "ביזרטה", "NAME_UK": "Бізерта", "NAME_UR": "بنزرت", "NAME_ZHT": "比塞大", "GEONAMESID": 2472706, "FCLASS_ISO": null, "FCLASS_US": null, "FCLASS_FR": null, "FCLASS_RU": null, "FCLASS_ES": null, "FCLASS_CN": null, "FCLASS_TW": null, "FCLASS_IN": null, "FCLASS_NP": null, "FCLASS_PK": null, "FCLASS_DE": null, "FCLASS_GB": null, "FCLASS_BR": null, "FCLASS_IL": null, "FCLASS_PS": null, "FCLASS_SA": null, "FCLASS_EG": null, "FCLASS_MA": null, "FCLASS_PT": null, "FCLASS_AR": null, "FCLASS_JP": null, "FCLASS_KO": null, "FCLASS_VN": null, "FCLASS_TR": null, "FCLASS_ID": null, "FCLASS_PL": null, "FCLASS_GR": null, "FCLASS_IT": null, "FCLASS_NL": null, "FCLASS_SE": null, "FCLASS_BD": null, "FCLASS_UA": null, "FCLASS_TLC": null}, "bbox": [9.854995, 37.290423, 9.854995, 37.290423], "geometry": {"type": "Point", "coordinates": [9.854995, 37.290423]}}, {"type": "Feature", "properties": {"SCALERANK": 7, "NATSCALE": 20, "LABELRANK": 7, "FEATURECLA": "Admin-1 capital", "NAME": "Gabès", "NAMEPAR": null, "NAMEALT": null, "NAMEASCII": "Gabes", "ADM0CAP": 0, "CAPIN": null, "WORLDCITY": 0, "MEGACITY": 0, "SOV0NAME": "Tunisia", "SOV_A3": "TUN", "ADM0NAME": "Tunisia", "ADM0_A3": "TUN", "ADM1NAME": "Gabès", "ISO_A2": "TN", "NOTE": null, "LATITUDE": 33.900423, "LONGITUDE": 10.099993, "POP_MAX": 219517, "POP_MIN": 110075, "POP_OTHER": 205750, "RANK_MAX": 10, "RANK_MIN": 9, "MEGANAME": null, "LS_NAME": "Gabes", "MAX_POP10": 219517, "MAX_POP20": 219517, "MAX_POP50": 0, "MAX_POP300": 0, "MAX_POP310": 0, "MAX_NATSCA": 20, "MIN_AREAKM": 85, "MAX_AREAKM": 85, "MIN_AREAMI": 33, "MAX_AREAMI": 33, "MIN_PERKM": 98, "MAX_PERKM": 98, "MIN_PERMI": 61, "MAX_PERMI": 61, "MIN_BBXMIN": 9.983333, "MAX_BBXMIN": 9.983333, "MIN_BBXMAX": 10.141667, "MAX_BBXMAX": 10.141667, "MIN_BBYMIN": 33.816667, "MAX_BBYMIN": 33.816667, "MIN_BBYMAX": 34, "MAX_BBYMAX": 34, "MEAN_BBXC": 10.072708, "MEAN_BBYC": 33.903542, "TIMEZONE": "Africa/Tunis", "UN_FID": 0, "POP1950": 0, "POP1955": 0, "POP1960": 0, "POP1965": 0, "POP1970": 0, "POP1975": 0, "POP1980": 0, "POP1985": 0, "POP1990": 0, "POP1995": 0, "POP2000": 0, "POP2005": 0, "POP2010": 0, "POP2015": 0, "POP2020": 0, "POP2025": 0, "POP2050": 0, "MIN_ZOOM": 6.1, "WIKIDATAID": "Q215661", "WOF_ID": 421197969, "CAPALT": 0, "NAME_EN": "Gabès", "NAME_DE": "Gabès", "NAME_ES": "Gabès", "NAME_FR": "Gabès", "NAME_PT": "Gabès", "NAME_RU": "Габес", "NAME_ZH": "加贝斯", "LABEL": null, "NAME_AR": "قابس", "NAME_BN": "গাবেস", "NAME_EL": "Κάμπις", "NAME_HI": "गेब्स", "NAME_HU": "Kábesz", "NAME_ID": "Gabes", "NAME_IT": "Gabès", "NAME_JA": "ガベス", "NAME_KO": "가베스", "NAME_NL": "Gabès", "NAME_PL": "Kabis", "NAME_SV": "Gabès", "NAME_TR": "Gabes", "NAME_VI": "Gabès", "NE_ID": 1159133879, "NAME_FA": "قابس", "NAME_HE": "גאבס", "NAME_UK": "Габес", "NAME_UR": "قابس", "NAME_ZHT": "加貝斯", "GEONAMESID": 2468369, "FCLASS_ISO": null, "FCLASS_US": null, "FCLASS_FR": null, "FCLASS_RU": null, "FCLASS_ES": null, "FCLASS_CN": null, "FCLASS_TW": null, "FCLASS_IN": null, "FCLASS_NP": null, "FCLASS_PK": null, "FCLASS_DE": null, "FCLASS_GB": null, "FCLASS_BR": null, "FCLASS_IL": null, "FCLASS_PS": null, "FCLASS_SA": null, "FCLASS_EG": null, "FCLASS_MA": null, "FCLASS_PT": null, "FCLASS_AR": null, "FCLASS_JP": null, "FCLASS_KO": null, "FCLASS_VN": null, "FCLASS_TR": null, "FCLASS_ID": null, "FCLASS_PL": null, "FCLASS_GR": null, "FCLASS_IT": null, "FCLASS_NL": null, "FCLASS_SE": null, "FCLASS_BD": null, "FCLASS_UA": null, "FCLASS_TLC": null}, "bbox": [10.099993, 33.900423, 10.099993, 33.900423], "geometry": {"type": "Point", "coordinates": [10.099993, 33.900423]}}, {"type": "Feature", "properties": {"SCALERANK": 7, "NATSCALE": 20, "LABELRANK": 7, "FEATURECLA": "Populated place", "NAME": "El Agheila", "NAMEPAR": null, "NAMEALT": "Al Ugaylah", "NAMEASCII": "El Agheila", "ADM0CAP": 0, "CAPIN": null, "WORLDCITY": 0, "MEGACITY": 0, "SOV0NAME": "Libya", "SOV_A3": "LBY", "ADM0NAME": "Libya", "ADM0_A3": "LBY", "ADM1NAME": "Ajdabiya", "ISO_A2": "LY", "NOTE": null, "LATITUDE": 30.257028, "LONGITUDE": 19.200006, "POP_MAX": 100, "POP_MIN": 100, "POP_OTHER": 0, "RANK_MAX": 1, "RANK_MIN": 1, "MEGANAME": null, "LS_NAME": "Al Ugaylah", "MAX_POP10": 0, "MAX_POP20": 0, "MAX_POP50": 0, "MAX_POP300": 0, "MAX_POP310": 0, "MAX_NATSCA": 0, "MIN_AREAKM": 0, "MAX_AREAKM": 0, "MIN_AREAMI": 0, "MAX_AREAMI": 0, "MIN_PERKM": 0, "MAX_PERKM": 0, "MIN_PERMI": 0, "MAX_PERMI": 0, "MIN_BBXMIN": 0, "MAX_BBXMIN": 0, "MIN_BBXMAX": 0, "MAX_BBXMAX": 0, "MIN_BBYMIN": 0, "MAX_BBYMIN": 0, "MIN_BBYMAX": 0, "MAX_BBYMAX": 0, "MEAN_BBXC": 0, "MEAN_BBYC": 0, "TIMEZONE": null, "UN_FID": 0, "POP1950": 0, "POP1955": 0, "POP1960": 0, "POP1965": 0, "POP1970": 0, "POP1975": 0, "POP1980": 0, "POP1985": 0, "POP1990": 0, "POP1995": 0, "POP2000": 0, "POP2005": 0, "POP2010": 0, "POP2015": 0, "POP2020": 0, "POP2025": 0, "POP2050": 0, "MIN_ZOOM": 6.7, "WIKIDATAID": "Q41339", "WOF_ID": 1141907449, "CAPALT": 0, "NAME_EN": "El Agheila", "NAME_DE": "El Agheila", "NAME_ES": "El Agheila", "NAME_FR": "El Agheila", "NAME_PT": "Al-Uqaylah", "NAME_RU": "Эль-Агейла", "NAME_ZH": "埃尔阿盖拉", "LABEL": null, "NAME_AR": "العقيلة", "NAME_BN": "এল আঘেিলা", "NAME_EL": "Ελ Αγκέιλα", "NAME_HI": "अल अघीला", "NAME_HU": "El Agheila", "NAME_ID": "El Agheila", "NAME_IT": "el-Agheila", "NAME_JA": "エル・アゲイラ", "NAME_KO": "엘 아게일라", "NAME_NL": "El Agheila", "NAME_PL": "Al-Ukajla", "NAME_SV": "El Agheila", "NAME_TR": "El Agheila", "NAME_VI": "El Agheila", "NE_ID": 1159139015, "NAME_FA": "عقیله", "NAME_HE": "אל-עגילה", "NAME_UK": "Ель-Агейла", "NAME_UR": "ایل اغیلا", "NAME_ZHT": "埃爾阿給拉", "GEONAMESID": -1, "FCLASS_ISO": null, "FCLASS_US": null, "FCLASS_FR": null, "FCLASS_RU": null, "FCLASS_ES": null, "FCLASS_CN": null, "FCLASS_TW": null, "FCLASS_IN": null, "FCLASS_NP": null, "FCLASS_PK": null, "FCLASS_DE": null, "FCLASS_GB": null, "FCLASS_BR": null, "FCLASS_IL": null, "FCLASS_PS": null, "FCLASS_SA": null, "FCLASS_EG": null, "FCLASS_MA": null, "FCLASS_PT": null, "FCLASS_AR": null, "FCLASS_JP": null, "FCLASS_KO": null, "FCLASS_VN": null, "FCLASS_TR": null, "FCLASS_ID": null, "FCLASS_PL": null, "FCLASS_GR": null, "FCLASS_IT": null, "FCLASS_NL": null, "FCLASS_SE": null, "FCLASS_BD": null, "FCLASS_UA": null, "FCLASS_TLC": null}, "bbox": [19.200006, 30.257028, 19.200006, 30.257028], "geometry": {"type": "Point", "coordinates": [19.200006, 30.257028]}}, {"type": "Feature", "properties": {"SCALERANK": 7, "NATSCALE": 20, "LABELRANK": 3, "FEATURECLA": "Admin-1 capital", "NAME": "Matruh", "NAMEPAR": null, "NAMEALT": "Marsa Matruh", "NAMEASCII": "Mersa Matruh", "ADM0CAP": 0, "CAPIN": null, "WORLDCITY": 0, "MEGACITY": 0, "SOV0NAME": "Egypt", "SOV_A3": "EGY", "ADM0NAME": "Egypt", "ADM0_A3": "EGY", "ADM1NAME": "Matruh", "ISO_A2": "EG", "NOTE": null, "LATITUDE": 31.350424, "LONGITUDE": 27.230007, "POP_MAX": 103470, "POP_MIN": 62042, "POP_OTHER": 103470, "RANK_MAX": 9, "RANK_MIN": 8, "MEGANAME": null, "LS_NAME": "Matruh", "MAX_POP10": 103470, "MAX_POP20": 103470, "MAX_POP50": 0, "MAX_POP300": 0, "MAX_POP310": 0, "MAX_NATSCA": 20, "MIN_AREAKM": 30, "MAX_AREAKM": 30, "MIN_AREAMI": 12, "MAX_AREAMI": 12, "MIN_PERKM": 48, "MAX_PERKM": 48, "MIN_PERMI": 30, "MAX_PERMI": 30, "MIN_BBXMIN": 27.175, "MAX_BBXMIN": 27.175, "MIN_BBXMAX": 27.3, "MAX_BBXMAX": 27.3, "MIN_BBYMIN": 31.316667, "MAX_BBYMIN": 31.316667, "MIN_BBYMAX": 31.366667, "MAX_BBYMAX": 31.366667, "MEAN_BBXC": 27.240549, "MEAN_BBYC": 31.344614, "TIMEZONE": "Africa/Cairo", "UN_FID": 0, "POP1950": 0, "POP1955": 0, "POP1960": 0, "POP1965": 0, "POP1970": 0, "POP1975": 0, "POP1980": 0, "POP1985": 0, "POP1990": 0, "POP1995": 0, "POP2000": 0, "POP2005": 0, "POP2010": 0, "POP2015": 0, "POP2020": 0, "POP2025": 0, "POP2050": 0, "MIN_ZOOM": 6.1, "WIKIDATAID": "Q393829", "WOF_ID": 1141907629, "CAPALT": 0, "NAME_EN": "Mersa Matruh", "NAME_DE": "Marsa Matruh", "NAME_ES": "Marsa Matruh", "NAME_FR": "Marsa Matruh", "NAME_PT": "Marsa Matruh", "NAME_RU": "Мерса-Матрух", "NAME_ZH": "马特鲁港", "LABEL": null, "NAME_AR": "مرسى مطروح", "NAME_BN": "মাত্রুহ", "NAME_EL": "Μάρσα Ματρούχ", "NAME_HI": "मात्रुह", "NAME_HU": "Marsza Matrúh", "NAME_ID": "Mersa Matruh", "NAME_IT": "Marsa Matruh", "NAME_JA": "マルサ・マトルーフ", "NAME_KO": "메르사마트루", "NAME_NL": "Marsa Matruh", "NAME_PL": "Matruh", "NAME_SV": "Mersa Matruh", "NAME_TR": "Mersa Matruh", "NAME_VI": "Matruh", "NE_ID": 1159140389, "NAME_FA": "مرسی مطروح", "NAME_HE": "מרסא מטרוח", "NAME_UK": "Мерса-Матрух", "NAME_UR": "مرسی مطروح", "NAME_ZHT": "馬特魯港", "GEONAMESID": 352733, "FCLASS_ISO": null, "FCLASS_US": null, "FCLASS_FR": null, "FCLASS_RU": null, "FCLASS_ES": null, "FCLASS_CN": null, "FCLASS_TW": null, "FCLASS_IN": null, "FCLASS_NP": null, "FCLASS_PK": null, "FCLASS_DE": null, "FCLASS_GB": null, "FCLASS_BR": null, "FCLASS_IL": null, "FCLASS_PS": null, "FCLASS_SA": null, "FCLASS_EG": null, "FCLASS_MA": null, "FCLASS_PT": null, "FCLASS_AR": null, "FCLASS_JP": null, "FCLASS_KO": null, "FCLASS_VN": null, "FCLASS_TR": null, "FCLASS_ID": null, "FCLASS_PL": null, "FCLASS_GR": null, "FCLASS_IT": null, "FCLASS_NL": null, "FCLASS_SE": null, "FCLASS_BD": null, "FCLASS_UA": null, "FCLASS_TLC": null, "sourceName": "Matruh"}, "bbox": [27.230007, 31.350424, 27.230007, 31.350424], "geometry": {"type": "Point", "coordinates": [27.230007, 31.350424]}}, {"type": "Feature", "properties": {"SCALERANK": 7, "NATSCALE": 20, "LABELRANK": 3, "FEATURECLA": "Populated place", "NAME": "El Alamein", "NAMEPAR": null, "NAMEALT": null, "NAMEASCII": "El Alamein", "ADM0CAP": 0, "CAPIN": null, "WORLDCITY": 0, "MEGACITY": 0, "SOV0NAME": "Egypt", "SOV_A3": "EGY", "ADM0NAME": "Egypt", "ADM0_A3": "EGY", "ADM1NAME": "Matruh", "ISO_A2": "EG", "NOTE": null, "LATITUDE": 30.817071, "LONGITUDE": 28.949954, "POP_MAX": 7400, "POP_MIN": 2476, "POP_OTHER": 0, "RANK_MAX": 5, "RANK_MIN": 4, "MEGANAME": null, "LS_NAME": "El Alamein", "MAX_POP10": 2476, "MAX_POP20": 2476, "MAX_POP50": 0, "MAX_POP300": 0, "MAX_POP310": 0, "MAX_NATSCA": 20, "MIN_AREAKM": 3, "MAX_AREAKM": 3, "MIN_AREAMI": 1, "MAX_AREAMI": 1, "MIN_PERKM": 9, "MAX_PERKM": 9, "MIN_PERMI": 5, "MAX_PERMI": 5, "MIN_BBXMIN": 28.95, "MAX_BBXMIN": 28.95, "MIN_BBXMAX": 28.975, "MAX_BBXMAX": 28.975, "MIN_BBYMIN": 30.816667, "MAX_BBYMIN": 30.816667, "MIN_BBYMAX": 30.833333, "MAX_BBYMAX": 30.833333, "MEAN_BBXC": 28.960417, "MEAN_BBYC": 30.827083, "TIMEZONE": "Africa/Cairo", "UN_FID": 0, "POP1950": 0, "POP1955": 0, "POP1960": 0, "POP1965": 0, "POP1970": 0, "POP1975": 0, "POP1980": 0, "POP1985": 0, "POP1990": 0, "POP1995": 0, "POP2000": 0, "POP2005": 0, "POP2010": 0, "POP2015": 0, "POP2020": 0, "POP2025": 0, "POP2050": 0, "MIN_ZOOM": 6.7, "WIKIDATAID": "Q204439", "WOF_ID": 421198061, "CAPALT": 0, "NAME_EN": "El Alamein", "NAME_DE": "el-Alamein", "NAME_ES": "El Alamein", "NAME_FR": "El-Alamein", "NAME_PT": "El Alamein", "NAME_RU": "Эль-Аламейн", "NAME_ZH": "阿莱曼", "LABEL": null, "NAME_AR": "العلمين", "NAME_BN": "এল আলামেইন", "NAME_EL": "Ελ Αλαμέιν", "NAME_HI": "एल आलामीन", "NAME_HU": "El Alamein", "NAME_ID": "Alamain", "NAME_IT": "El Alamein", "NAME_JA": "エル・アラメイン", "NAME_KO": "엘 알라메인", "NAME_NL": "El Alamein", "NAME_PL": "Al-Alamajn", "NAME_SV": "El Alamein", "NAME_TR": "El Alameyn", "NAME_VI": "El Alamein", "NE_ID": 1159140395, "NAME_FA": "العالمین", "NAME_HE": "אל-עלמיין", "NAME_UK": "Ель-Аламейн", "NAME_UR": "ال الامیں", "NAME_ZHT": "阿萊曼", "GEONAMESID": 361612, "FCLASS_ISO": null, "FCLASS_US": null, "FCLASS_FR": null, "FCLASS_RU": null, "FCLASS_ES": null, "FCLASS_CN": null, "FCLASS_TW": null, "FCLASS_IN": null, "FCLASS_NP": null, "FCLASS_PK": null, "FCLASS_DE": null, "FCLASS_GB": null, "FCLASS_BR": null, "FCLASS_IL": null, "FCLASS_PS": null, "FCLASS_SA": null, "FCLASS_EG": null, "FCLASS_MA": null, "FCLASS_PT": null, "FCLASS_AR": null, "FCLASS_JP": null, "FCLASS_KO": null, "FCLASS_VN": null, "FCLASS_TR": null, "FCLASS_ID": null, "FCLASS_PL": null, "FCLASS_GR": null, "FCLASS_IT": null, "FCLASS_NL": null, "FCLASS_SE": null, "FCLASS_BD": null, "FCLASS_UA": null, "FCLASS_TLC": null}, "bbox": [28.949954, 30.817071, 28.949954, 30.817071], "geometry": {"type": "Point", "coordinates": [28.949954, 30.817071]}}, {"type": "Feature", "properties": {"SCALERANK": 6, "NATSCALE": 30, "LABELRANK": 7, "FEATURECLA": "Populated place", "NAME": "Sfax", "NAMEPAR": null, "NAMEALT": null, "NAMEASCII": "Sfax", "ADM0CAP": 0, "CAPIN": null, "WORLDCITY": 0, "MEGACITY": 0, "SOV0NAME": "Tunisia", "SOV_A3": "TUN", "ADM0NAME": "Tunisia", "ADM0_A3": "TUN", "ADM1NAME": "Sfax", "ISO_A2": "TN", "NOTE": null, "LATITUDE": 34.750035, "LONGITUDE": 10.720007, "POP_MAX": 453050, "POP_MIN": 277278, "POP_OTHER": 415105, "RANK_MAX": 10, "RANK_MIN": 10, "MEGANAME": null, "LS_NAME": "Sfax", "MAX_POP10": 453050, "MAX_POP20": 453050, "MAX_POP50": 0, "MAX_POP300": 0, "MAX_POP310": 0, "MAX_NATSCA": 20, "MIN_AREAKM": 161, "MAX_AREAKM": 161, "MIN_AREAMI": 62, "MAX_AREAMI": 62, "MIN_PERKM": 109, "MAX_PERKM": 109, "MIN_PERMI": 68, "MAX_PERMI": 68, "MIN_BBXMIN": 10.675, "MAX_BBXMIN": 10.675, "MIN_BBXMAX": 10.875, "MAX_BBXMAX": 10.875, "MIN_BBYMIN": 34.675, "MAX_BBYMIN": 34.675, "MIN_BBYMAX": 34.858333, "MAX_BBYMAX": 34.858333, "MEAN_BBXC": 10.748648, "MEAN_BBYC": 34.773538, "TIMEZONE": "Africa/Tunis", "UN_FID": 0, "POP1950": 0, "POP1955": 0, "POP1960": 0, "POP1965": 0, "POP1970": 0, "POP1975": 0, "POP1980": 0, "POP1985": 0, "POP1990": 0, "POP1995": 0, "POP2000": 0, "POP2005": 0, "POP2010": 0, "POP2015": 0, "POP2020": 0, "POP2025": 0, "POP2050": 0, "MIN_ZOOM": 6, "WIKIDATAID": "Q46325", "WOF_ID": 421197967, "CAPALT": 0, "NAME_EN": "Sfax", "NAME_DE": "Sfax", "NAME_ES": "Sfax", "NAME_FR": "Sfax", "NAME_PT": "Sfax", "NAME_RU": "Сфакс", "NAME_ZH": "斯法克斯", "LABEL": null, "NAME_AR": "صفاقس", "NAME_BN": "সফেক্স", "NAME_EL": "Σφαξ", "NAME_HI": "साक्स", "NAME_HU": "Szfaksz", "NAME_ID": "Sfax", "NAME_IT": "Sfax", "NAME_JA": "スファックス", "NAME_KO": "스팍스", "NAME_NL": "Sfax", "NAME_PL": "Safakis", "NAME_SV": "Sfax", "NAME_TR": "Safakes", "NAME_VI": "Sfax", "NE_ID": 1159147487, "NAME_FA": "صفاقس", "NAME_HE": "ספקס", "NAME_UK": "Сфакс", "NAME_UR": "صفاقس", "NAME_ZHT": "斯法克斯", "GEONAMESID": 2467454, "FCLASS_ISO": null, "FCLASS_US": null, "FCLASS_FR": null, "FCLASS_RU": null, "FCLASS_ES": null, "FCLASS_CN": null, "FCLASS_TW": null, "FCLASS_IN": null, "FCLASS_NP": null, "FCLASS_PK": null, "FCLASS_DE": null, "FCLASS_GB": null, "FCLASS_BR": null, "FCLASS_IL": null, "FCLASS_PS": null, "FCLASS_SA": null, "FCLASS_EG": null, "FCLASS_MA": null, "FCLASS_PT": null, "FCLASS_AR": null, "FCLASS_JP": null, "FCLASS_KO": null, "FCLASS_VN": null, "FCLASS_TR": null, "FCLASS_ID": null, "FCLASS_PL": null, "FCLASS_GR": null, "FCLASS_IT": null, "FCLASS_NL": null, "FCLASS_SE": null, "FCLASS_BD": null, "FCLASS_UA": null, "FCLASS_TLC": null}, "bbox": [10.720007, 34.750035, 10.720007, 34.750035], "geometry": {"type": "Point", "coordinates": [10.720007, 34.750035]}}, {"type": "Feature", "properties": {"SCALERANK": 6, "NATSCALE": 30, "LABELRANK": 3, "FEATURECLA": "Populated place", "NAME": "Siwa", "NAMEPAR": null, "NAMEALT": null, "NAMEASCII": "Siwa", "ADM0CAP": 0, "CAPIN": null, "WORLDCITY": 0, "MEGACITY": 0, "SOV0NAME": "Egypt", "SOV_A3": "EGY", "ADM0NAME": "Egypt", "ADM0_A3": "EGY", "ADM1NAME": "Matruh", "ISO_A2": "EG", "NOTE": null, "LATITUDE": 29.200012, "LONGITUDE": 25.516675, "POP_MAX": 23080, "POP_MIN": 23080, "POP_OTHER": 23080, "RANK_MAX": 7, "RANK_MIN": 7, "MEGANAME": null, "LS_NAME": "Siwa", "MAX_POP10": 23080, "MAX_POP20": 23080, "MAX_POP50": 0, "MAX_POP300": 0, "MAX_POP310": 0, "MAX_NATSCA": 20, "MIN_AREAKM": 13, "MAX_AREAKM": 13, "MIN_AREAMI": 5, "MAX_AREAMI": 5, "MIN_PERKM": 21, "MAX_PERKM": 21, "MIN_PERMI": 13, "MAX_PERMI": 13, "MIN_BBXMIN": 25.5, "MAX_BBXMIN": 25.5, "MIN_BBXMAX": 25.558333, "MAX_BBXMAX": 25.558333, "MIN_BBYMIN": 29.183333, "MAX_BBYMIN": 29.183333, "MIN_BBYMAX": 29.216667, "MAX_BBYMAX": 29.216667, "MEAN_BBXC": 25.531127, "MEAN_BBYC": 29.200735, "TIMEZONE": null, "UN_FID": 0, "POP1950": 0, "POP1955": 0, "POP1960": 0, "POP1965": 0, "POP1970": 0, "POP1975": 0, "POP1980": 0, "POP1985": 0, "POP1990": 0, "POP1995": 0, "POP2000": 0, "POP2005": 0, "POP2010": 0, "POP2015": 0, "POP2020": 0, "POP2025": 0, "POP2050": 0, "MIN_ZOOM": 6, "WIKIDATAID": "Q2008735", "WOF_ID": 1141908927, "CAPALT": 0, "NAME_EN": "Siwa Oasis", "NAME_DE": "Oase Siwa", "NAME_ES": "Siwa", "NAME_FR": "Siwa", "NAME_PT": "Oásis de Siuá", "NAME_RU": "Сива", "NAME_ZH": "西瓦", "LABEL": null, "NAME_AR": "سيوة", "NAME_BN": "সিওয়া ওয়েসিস", "NAME_EL": "Όαση Σίβα", "NAME_HI": "सीवा मरूद्यान", "NAME_HU": "Szíva-oázis", "NAME_ID": "Siwa Oasis", "NAME_IT": "Siwa", "NAME_JA": "シワ・オアシス", "NAME_KO": "시와 오아시스", "NAME_NL": "Siwa", "NAME_PL": "Siwa", "NAME_SV": "Siwa", "NAME_TR": "Siwa Oasis", "NAME_VI": "Siwa", "NE_ID": 1159148431, "NAME_FA": "واحه سیوا", "NAME_HE": "נווה המדבר סיווה", "NAME_UK": "Оаза Сива", "NAME_UR": "سوا اوسس", "NAME_ZHT": "錫瓦綠洲", "GEONAMESID": -1, "FCLASS_ISO": null, "FCLASS_US": null, "FCLASS_FR": null, "FCLASS_RU": null, "FCLASS_ES": null, "FCLASS_CN": null, "FCLASS_TW": null, "FCLASS_IN": null, "FCLASS_NP": null, "FCLASS_PK": null, "FCLASS_DE": null, "FCLASS_GB": null, "FCLASS_BR": null, "FCLASS_IL": null, "FCLASS_PS": null, "FCLASS_SA": null, "FCLASS_EG": null, "FCLASS_MA": null, "FCLASS_PT": null, "FCLASS_AR": null, "FCLASS_JP": null, "FCLASS_KO": null, "FCLASS_VN": null, "FCLASS_TR": null, "FCLASS_ID": null, "FCLASS_PL": null, "FCLASS_GR": null, "FCLASS_IT": null, "FCLASS_NL": null, "FCLASS_SE": null, "FCLASS_BD": null, "FCLASS_UA": null, "FCLASS_TLC": null}, "bbox": [25.516675, 29.200012, 25.516675, 29.200012], "geometry": {"type": "Point", "coordinates": [25.516675, 29.200012]}}, {"type": "Feature", "properties": {"SCALERANK": 6, "NATSCALE": 30, "LABELRANK": 7, "FEATURECLA": "Populated place", "NAME": "Surt", "NAMEPAR": null, "NAMEALT": null, "NAMEASCII": "Surt", "ADM0CAP": 0, "CAPIN": null, "WORLDCITY": 0, "MEGACITY": 0, "SOV0NAME": "Libya", "SOV_A3": "LBY", "ADM0NAME": "Libya", "ADM0_A3": "LBY", "ADM1NAME": "Surt", "ISO_A2": "LY", "NOTE": null, "LATITUDE": 31.209993, "LONGITUDE": 16.590036, "POP_MAX": 128123, "POP_MIN": 93390, "POP_OTHER": 93390, "RANK_MAX": 9, "RANK_MIN": 8, "MEGANAME": null, "LS_NAME": "Surt", "MAX_POP10": 93390, "MAX_POP20": 93390, "MAX_POP50": 0, "MAX_POP300": 0, "MAX_POP310": 0, "MAX_NATSCA": 20, "MIN_AREAKM": 23, "MAX_AREAKM": 23, "MIN_AREAMI": 9, "MAX_AREAMI": 9, "MIN_PERKM": 33, "MAX_PERKM": 33, "MIN_PERMI": 20, "MAX_PERMI": 20, "MIN_BBXMIN": 16.541667, "MAX_BBXMIN": 16.541667, "MIN_BBXMAX": 16.608333, "MAX_BBXMAX": 16.608333, "MIN_BBYMIN": 31.158333, "MAX_BBYMIN": 31.158333, "MIN_BBYMAX": 31.216667, "MAX_BBYMAX": 31.216667, "MEAN_BBXC": 16.57474, "MEAN_BBYC": 31.191146, "TIMEZONE": "Africa/Tripoli", "UN_FID": 0, "POP1950": 0, "POP1955": 0, "POP1960": 0, "POP1965": 0, "POP1970": 0, "POP1975": 0, "POP1980": 0, "POP1985": 0, "POP1990": 0, "POP1995": 0, "POP2000": 0, "POP2005": 0, "POP2010": 0, "POP2015": 0, "POP2020": 0, "POP2025": 0, "POP2050": 0, "MIN_ZOOM": 6, "WIKIDATAID": "Q162413", "WOF_ID": 421199027, "CAPALT": 0, "NAME_EN": "Sirte", "NAME_DE": "Sirte", "NAME_ES": "Sirte", "NAME_FR": "Syrte", "NAME_PT": "Sirte", "NAME_RU": "Сирт", "NAME_ZH": "苏尔特", "LABEL": null, "NAME_AR": "سرت", "NAME_BN": "সিরতে", "NAME_EL": "Σύρτη", "NAME_HI": "सिर्त", "NAME_HU": "Szurt", "NAME_ID": "Sirte", "NAME_IT": "Sirte", "NAME_JA": "スルト", "NAME_KO": "시르테", "NAME_NL": "Sirte", "NAME_PL": "Syrta", "NAME_SV": "Sirt", "NAME_TR": "Sirte", "NAME_VI": "Sirt", "NE_ID": 1159148611, "NAME_FA": "سرت", "NAME_HE": "סירת", "NAME_UK": "Сирт", "NAME_UR": "سرت", "NAME_ZHT": "蘇特", "GEONAMESID": 2210554, "FCLASS_ISO": null, "FCLASS_US": null, "FCLASS_FR": null, "FCLASS_RU": null, "FCLASS_ES": null, "FCLASS_CN": null, "FCLASS_TW": null, "FCLASS_IN": null, "FCLASS_NP": null, "FCLASS_PK": null, "FCLASS_DE": null, "FCLASS_GB": null, "FCLASS_BR": null, "FCLASS_IL": null, "FCLASS_PS": null, "FCLASS_SA": null, "FCLASS_EG": null, "FCLASS_MA": null, "FCLASS_PT": null, "FCLASS_AR": null, "FCLASS_JP": null, "FCLASS_KO": null, "FCLASS_VN": null, "FCLASS_TR": null, "FCLASS_ID": null, "FCLASS_PL": null, "FCLASS_GR": null, "FCLASS_IT": null, "FCLASS_NL": null, "FCLASS_SE": null, "FCLASS_BD": null, "FCLASS_UA": null, "FCLASS_TLC": null}, "bbox": [16.590036, 31.209993, 16.590036, 31.209993], "geometry": {"type": "Point", "coordinates": [16.590036, 31.209993]}}, {"type": "Feature", "properties": {"SCALERANK": 6, "NATSCALE": 30, "LABELRANK": 7, "FEATURECLA": "Populated place", "NAME": "Tubruq", "NAMEPAR": null, "NAMEALT": null, "NAMEASCII": "Tobruk", "ADM0CAP": 0, "CAPIN": null, "WORLDCITY": 0, "MEGACITY": 0, "SOV0NAME": "Libya", "SOV_A3": "LBY", "ADM0NAME": "Libya", "ADM0_A3": "LBY", "ADM1NAME": "Al Butnan", "ISO_A2": "LY", "NOTE": null, "LATITUDE": 32.079992, "LONGITUDE": 23.960026, "POP_MAX": 263527, "POP_MIN": 121052, "POP_OTHER": 263527, "RANK_MAX": 10, "RANK_MIN": 9, "MEGANAME": null, "LS_NAME": "Tubruq", "MAX_POP10": 263527, "MAX_POP20": 263527, "MAX_POP50": 0, "MAX_POP300": 0, "MAX_POP310": 0, "MAX_NATSCA": 20, "MIN_AREAKM": 25, "MAX_AREAKM": 25, "MIN_AREAMI": 10, "MAX_AREAMI": 10, "MIN_PERKM": 34, "MAX_PERKM": 34, "MIN_PERMI": 21, "MAX_PERMI": 21, "MIN_BBXMIN": 23.9, "MAX_BBXMIN": 23.9, "MIN_BBXMAX": 24.008333, "MAX_BBXMAX": 24.008333, "MIN_BBYMIN": 32.066667, "MAX_BBYMIN": 32.066667, "MIN_BBYMAX": 32.108333, "MAX_BBYMAX": 32.108333, "MEAN_BBXC": 23.954412, "MEAN_BBYC": 32.084314, "TIMEZONE": "Africa/Tripoli", "UN_FID": 0, "POP1950": 0, "POP1955": 0, "POP1960": 0, "POP1965": 0, "POP1970": 0, "POP1975": 0, "POP1980": 0, "POP1985": 0, "POP1990": 0, "POP1995": 0, "POP2000": 0, "POP2005": 0, "POP2010": 0, "POP2015": 0, "POP2020": 0, "POP2025": 0, "POP2050": 0, "MIN_ZOOM": 6, "WIKIDATAID": "Q182092", "WOF_ID": 890449789, "CAPALT": 0, "NAME_EN": "Tobruk", "NAME_DE": "Tobruk", "NAME_ES": "Tobruk", "NAME_FR": "Tobrouk", "NAME_PT": "Tobruk", "NAME_RU": "Тобрук", "NAME_ZH": "图卜鲁格", "LABEL": null, "NAME_AR": "طبرق", "NAME_BN": "তবরুক", "NAME_EL": "Τομπρούκ", "NAME_HI": "टोब्रुक", "NAME_HU": "Tobruk", "NAME_ID": "Thubruq", "NAME_IT": "Tobruch", "NAME_JA": "トブルク", "NAME_KO": "투브루크", "NAME_NL": "Tobroek", "NAME_PL": "Tobruk", "NAME_SV": "Tobruk", "NAME_TR": "Tobruk", "NAME_VI": "Tobruk", "NE_ID": 1159148615, "NAME_FA": "طبرق", "NAME_HE": "טוברוק", "NAME_UK": "Тобрук", "NAME_UR": "طبرق", "NAME_ZHT": "圖卜魯格", "GEONAMESID": 81302, "FCLASS_ISO": null, "FCLASS_US": null, "FCLASS_FR": null, "FCLASS_RU": null, "FCLASS_ES": null, "FCLASS_CN": null, "FCLASS_TW": null, "FCLASS_IN": null, "FCLASS_NP": null, "FCLASS_PK": null, "FCLASS_DE": null, "FCLASS_GB": null, "FCLASS_BR": null, "FCLASS_IL": null, "FCLASS_PS": null, "FCLASS_SA": null, "FCLASS_EG": null, "FCLASS_MA": null, "FCLASS_PT": null, "FCLASS_AR": null, "FCLASS_JP": null, "FCLASS_KO": null, "FCLASS_VN": null, "FCLASS_TR": null, "FCLASS_ID": null, "FCLASS_PL": null, "FCLASS_GR": null, "FCLASS_IT": null, "FCLASS_NL": null, "FCLASS_SE": null, "FCLASS_BD": null, "FCLASS_UA": null, "FCLASS_TLC": null, "sourceName": "Tubruq"}, "bbox": [23.960026, 32.079991, 23.960026, 32.079991], "geometry": {"type": "Point", "coordinates": [23.960026, 32.079991]}}, {"type": "Feature", "properties": {"SCALERANK": 4, "NATSCALE": 50, "LABELRANK": 3, "FEATURECLA": "Populated place", "NAME": "Suez", "NAMEPAR": "El Suweis", "NAMEALT": null, "NAMEASCII": "Suez", "ADM0CAP": 0, "CAPIN": null, "WORLDCITY": 0, "MEGACITY": 0, "SOV0NAME": "Egypt", "SOV_A3": "EGY", "ADM0NAME": "Egypt", "ADM0_A3": "EGY", "ADM1NAME": "As Suways", "ISO_A2": "EG", "NOTE": null, "LATITUDE": 30.004976, "LONGITUDE": 32.549941, "POP_MAX": 508335, "POP_MIN": 488125, "POP_OTHER": 508335, "RANK_MAX": 11, "RANK_MIN": 10, "MEGANAME": null, "LS_NAME": "El Suweis", "MAX_POP10": 508335, "MAX_POP20": 508335, "MAX_POP50": 508335, "MAX_POP300": 0, "MAX_POP310": 0, "MAX_NATSCA": 50, "MIN_AREAKM": 66, "MAX_AREAKM": 66, "MIN_AREAMI": 26, "MAX_AREAMI": 26, "MIN_PERKM": 62, "MAX_PERKM": 62, "MIN_PERMI": 39, "MAX_PERMI": 39, "MIN_BBXMIN": 32.458333, "MAX_BBXMIN": 32.458333, "MIN_BBXMAX": 32.583333, "MAX_BBXMAX": 32.583333, "MIN_BBYMIN": 29.925, "MAX_BBYMIN": 29.925, "MIN_BBYMAX": 30.016667, "MAX_BBYMAX": 30.016667, "MEAN_BBXC": 32.521395, "MEAN_BBYC": 29.970084, "TIMEZONE": "Africa/Cairo", "UN_FID": 0, "POP1950": 0, "POP1955": 0, "POP1960": 0, "POP1965": 0, "POP1970": 0, "POP1975": 0, "POP1980": 0, "POP1985": 0, "POP1990": 0, "POP1995": 0, "POP2000": 0, "POP2005": 0, "POP2010": 0, "POP2015": 0, "POP2020": 0, "POP2025": 0, "POP2050": 0, "MIN_ZOOM": 5.6, "WIKIDATAID": "Q134514", "WOF_ID": 421168705, "CAPALT": 0, "NAME_EN": "Suez", "NAME_DE": "Sues", "NAME_ES": "Suez", "NAME_FR": "Suez", "NAME_PT": "Suez", "NAME_RU": "Суэц", "NAME_ZH": "苏伊士", "LABEL": null, "NAME_AR": "السويس", "NAME_BN": "সুয়েজ", "NAME_EL": "Σουέζ", "NAME_HI": "सुएज़", "NAME_HU": "Szuez", "NAME_ID": "Suez", "NAME_IT": "Suez", "NAME_JA": "スエズ", "NAME_KO": "수에즈", "NAME_NL": "Suez", "NAME_PL": "Suez", "NAME_SV": "Suez", "NAME_TR": "Süveyş", "NAME_VI": "Suez", "NE_ID": 1159149853, "NAME_FA": "سوئز", "NAME_HE": "סואץ", "NAME_UK": "Суец", "NAME_UR": "سوئیز", "NAME_ZHT": "蘇伊士", "GEONAMESID": 359796, "FCLASS_ISO": null, "FCLASS_US": null, "FCLASS_FR": null, "FCLASS_RU": null, "FCLASS_ES": null, "FCLASS_CN": null, "FCLASS_TW": null, "FCLASS_IN": null, "FCLASS_NP": null, "FCLASS_PK": null, "FCLASS_DE": null, "FCLASS_GB": null, "FCLASS_BR": null, "FCLASS_IL": null, "FCLASS_PS": null, "FCLASS_SA": null, "FCLASS_EG": null, "FCLASS_MA": null, "FCLASS_PT": null, "FCLASS_AR": null, "FCLASS_JP": null, "FCLASS_KO": null, "FCLASS_VN": null, "FCLASS_TR": null, "FCLASS_ID": null, "FCLASS_PL": null, "FCLASS_GR": null, "FCLASS_IT": null, "FCLASS_NL": null, "FCLASS_SE": null, "FCLASS_BD": null, "FCLASS_UA": null, "FCLASS_TLC": null}, "bbox": [32.549941, 30.004976, 32.549941, 30.004976], "geometry": {"type": "Point", "coordinates": [32.549941, 30.004976]}}, {"type": "Feature", "properties": {"SCALERANK": 4, "NATSCALE": 50, "LABELRANK": 3, "FEATURECLA": "Admin-1 capital", "NAME": "Bur Said", "NAMEPAR": null, "NAMEALT": "Port Said", "NAMEASCII": "Port Said", "ADM0CAP": 0, "CAPIN": null, "WORLDCITY": 0, "MEGACITY": 0, "SOV0NAME": "Egypt", "SOV_A3": "EGY", "ADM0NAME": "Egypt", "ADM0_A3": "EGY", "ADM1NAME": "Bur Sa`id", "ISO_A2": "EG", "NOTE": null, "LATITUDE": 31.25999, "LONGITUDE": 32.290008, "POP_MAX": 623864, "POP_MIN": 500000, "POP_OTHER": 623864, "RANK_MAX": 11, "RANK_MIN": 10, "MEGANAME": null, "LS_NAME": "Bur Said", "MAX_POP10": 623864, "MAX_POP20": 623864, "MAX_POP50": 623864, "MAX_POP300": 0, "MAX_POP310": 0, "MAX_NATSCA": 50, "MIN_AREAKM": 32, "MAX_AREAKM": 32, "MIN_AREAMI": 12, "MAX_AREAMI": 12, "MIN_PERKM": 38, "MAX_PERKM": 38, "MIN_PERMI": 23, "MAX_PERMI": 23, "MIN_BBXMIN": 32.258333, "MAX_BBXMIN": 32.258333, "MIN_BBXMAX": 32.341667, "MAX_BBXMAX": 32.341667, "MIN_BBYMIN": 31.225, "MAX_BBYMIN": 31.225, "MIN_BBYMAX": 31.283333, "MAX_BBYMAX": 31.283333, "MEAN_BBXC": 32.296023, "MEAN_BBYC": 31.252462, "TIMEZONE": "Africa/Cairo", "UN_FID": 0, "POP1950": 0, "POP1955": 0, "POP1960": 0, "POP1965": 0, "POP1970": 0, "POP1975": 0, "POP1980": 0, "POP1985": 0, "POP1990": 0, "POP1995": 0, "POP2000": 0, "POP2005": 0, "POP2010": 0, "POP2015": 0, "POP2020": 0, "POP2025": 0, "POP2050": 0, "MIN_ZOOM": 5.6, "WIKIDATAID": "Q134509", "WOF_ID": 1141909237, "CAPALT": 0, "NAME_EN": "Port Said", "NAME_DE": "Port Said", "NAME_ES": "Puerto Saíd", "NAME_FR": "Port-Saïd", "NAME_PT": "Porto Said", "NAME_RU": "Порт-Саид", "NAME_ZH": "塞得港", "LABEL": null, "NAME_AR": "بورسعيد", "NAME_BN": "সাইদ বন্দর", "NAME_EL": "Πορτ Σάιντ", "NAME_HI": "पोर्ट सईद", "NAME_HU": "Port Szaíd", "NAME_ID": "Bursaid", "NAME_IT": "Porto Said", "NAME_JA": "ポートサイド", "NAME_KO": "포트사이드", "NAME_NL": "Port Said", "NAME_PL": "Port Said", "NAME_SV": "Port Said", "NAME_TR": "Port Said", "NAME_VI": "Port Said", "NE_ID": 1159149855, "NAME_FA": "پورتسعید", "NAME_HE": "פורט סעיד", "NAME_UK": "Порт-Саїд", "NAME_UR": "پورٹ سعید", "NAME_ZHT": "塞得港", "GEONAMESID": 6690765, "FCLASS_ISO": null, "FCLASS_US": null, "FCLASS_FR": null, "FCLASS_RU": null, "FCLASS_ES": null, "FCLASS_CN": null, "FCLASS_TW": null, "FCLASS_IN": null, "FCLASS_NP": null, "FCLASS_PK": null, "FCLASS_DE": null, "FCLASS_GB": null, "FCLASS_BR": null, "FCLASS_IL": null, "FCLASS_PS": null, "FCLASS_SA": null, "FCLASS_EG": null, "FCLASS_MA": null, "FCLASS_PT": null, "FCLASS_AR": null, "FCLASS_JP": null, "FCLASS_KO": null, "FCLASS_VN": null, "FCLASS_TR": null, "FCLASS_ID": null, "FCLASS_PL": null, "FCLASS_GR": null, "FCLASS_IT": null, "FCLASS_NL": null, "FCLASS_SE": null, "FCLASS_BD": null, "FCLASS_UA": null, "FCLASS_TLC": null, "sourceName": "Bur Said"}, "bbox": [32.290008, 31.25999, 32.290008, 31.25999], "geometry": {"type": "Point", "coordinates": [32.290008, 31.25999]}}, {"type": "Feature", "properties": {"SCALERANK": 3, "NATSCALE": 110, "LABELRANK": 7, "FEATURECLA": "Admin-0 capital", "NAME": "Tunis", "NAMEPAR": null, "NAMEALT": null, "NAMEASCII": "Tunis", "ADM0CAP": 1, "CAPIN": null, "WORLDCITY": 0, "MEGACITY": 0, "SOV0NAME": "Tunisia", "SOV_A3": "TUN", "ADM0NAME": "Tunisia", "ADM0_A3": "TUN", "ADM1NAME": "Tunis", "ISO_A2": "TN", "NOTE": null, "LATITUDE": 36.802778, "LONGITUDE": 10.179678, "POP_MAX": 2412500, "POP_MIN": 728453, "POP_OTHER": 1675117, "RANK_MAX": 12, "RANK_MIN": 11, "MEGANAME": null, "LS_NAME": "Tunis", "MAX_POP10": 1831176, "MAX_POP20": 1831176, "MAX_POP50": 1838972, "MAX_POP300": 1838972, "MAX_POP310": 0, "MAX_NATSCA": 100, "MIN_AREAKM": 480, "MAX_AREAKM": 502, "MIN_AREAMI": 185, "MAX_AREAMI": 194, "MIN_PERKM": 485, "MAX_PERKM": 524, "MIN_PERMI": 302, "MAX_PERMI": 326, "MIN_BBXMIN": 9.95, "MAX_BBXMIN": 9.95, "MIN_BBXMAX": 10.497585, "MAX_BBXMAX": 10.575, "MIN_BBYMIN": 36.633333, "MAX_BBYMIN": 36.633333, "MIN_BBYMAX": 36.966667, "MAX_BBYMAX": 36.966667, "MEAN_BBXC": 10.202041, "MEAN_BBYC": 36.802974, "TIMEZONE": "Africa/Tunis", "UN_FID": 0, "POP1950": 0, "POP1955": 0, "POP1960": 0, "POP1965": 0, "POP1970": 0, "POP1975": 0, "POP1980": 0, "POP1985": 0, "POP1990": 0, "POP1995": 0, "POP2000": 0, "POP2005": 0, "POP2010": 0, "POP2015": 0, "POP2020": 0, "POP2025": 0, "POP2050": 0, "MIN_ZOOM": 5, "WIKIDATAID": "Q3572", "WOF_ID": 421195703, "CAPALT": 0, "NAME_EN": "Tunis", "NAME_DE": "Tunis", "NAME_ES": "Túnez", "NAME_FR": "Tunis", "NAME_PT": "Tunes", "NAME_RU": "Тунис", "NAME_ZH": "突尼斯", "LABEL": null, "NAME_AR": "تونس العاصمة", "NAME_BN": "তিউনিস", "NAME_EL": "Τύνιδα", "NAME_HI": "तूनिस", "NAME_HU": "Tunisz", "NAME_ID": "Tunis", "NAME_IT": "Tunisi", "NAME_JA": "チュニス", "NAME_KO": "튀니스", "NAME_NL": "Tunis", "NAME_PL": "Tunis", "NAME_SV": "Tunis", "NAME_TR": "Tunus", "NAME_VI": "Tunis", "NE_ID": 1159150537, "NAME_FA": "تونس", "NAME_HE": "תוניס", "NAME_UK": "Туніс", "NAME_UR": "تونس شہر", "NAME_ZHT": "突尼斯市", "GEONAMESID": 2464470, "FCLASS_ISO": null, "FCLASS_US": null, "FCLASS_FR": null, "FCLASS_RU": null, "FCLASS_ES": null, "FCLASS_CN": null, "FCLASS_TW": null, "FCLASS_IN": null, "FCLASS_NP": null, "FCLASS_PK": null, "FCLASS_DE": null, "FCLASS_GB": null, "FCLASS_BR": null, "FCLASS_IL": null, "FCLASS_PS": null, "FCLASS_SA": null, "FCLASS_EG": null, "FCLASS_MA": null, "FCLASS_PT": null, "FCLASS_AR": null, "FCLASS_JP": null, "FCLASS_KO": null, "FCLASS_VN": null, "FCLASS_TR": null, "FCLASS_ID": null, "FCLASS_PL": null, "FCLASS_GR": null, "FCLASS_IT": null, "FCLASS_NL": null, "FCLASS_SE": null, "FCLASS_BD": null, "FCLASS_UA": null, "FCLASS_TLC": null}, "bbox": [10.179678, 36.802778, 10.179678, 36.802778], "geometry": {"type": "Point", "coordinates": [10.179678, 36.802778]}}, {"type": "Feature", "properties": {"SCALERANK": 3, "NATSCALE": 110, "LABELRANK": 5, "FEATURECLA": "Admin-0 capital", "NAME": "Rabat", "NAMEPAR": null, "NAMEALT": null, "NAMEASCII": "Rabat", "ADM0CAP": 1, "CAPIN": null, "WORLDCITY": 0, "MEGACITY": 1, "SOV0NAME": "Morocco", "SOV_A3": "MAR", "ADM0NAME": "Morocco", "ADM0_A3": "MAR", "ADM1NAME": "Rabat - Salé - Zemmour - Zaer", "ISO_A2": "MA", "NOTE": null, "LATITUDE": 34.025307, "LONGITUDE": -6.836408, "POP_MAX": 1705000, "POP_MIN": 1655753, "POP_OTHER": 2029349, "RANK_MAX": 12, "RANK_MIN": 12, "MEGANAME": "Rabat", "LS_NAME": "Rabat", "MAX_POP10": 2037124, "MAX_POP20": 2037124, "MAX_POP50": 2037124, "MAX_POP300": 2037124, "MAX_POP310": 0, "MAX_NATSCA": 100, "MIN_AREAKM": 428, "MAX_AREAKM": 428, "MIN_AREAMI": 165, "MAX_AREAMI": 165, "MIN_PERKM": 475, "MAX_PERKM": 475, "MIN_PERMI": 295, "MAX_PERMI": 295, "MIN_BBXMIN": -7.116667, "MAX_BBXMIN": -7.116667, "MIN_BBXMAX": -6.725, "MAX_BBXMAX": -6.725, "MIN_BBYMIN": 33.741667, "MAX_BBYMIN": 33.741667, "MIN_BBYMAX": 34.125, "MAX_BBYMAX": 34.125, "MEAN_BBXC": -6.87491, "MEAN_BBYC": 33.912847, "TIMEZONE": "Africa/Casablanca", "UN_FID": 375, "POP1950": 145, "POP1955": 184, "POP1960": 233, "POP1965": 339, "POP1970": 494, "POP1975": 641, "POP1980": 808, "POP1985": 986, "POP1990": 1174, "POP1995": 1379, "POP2000": 1507, "POP2005": 1647, "POP2010": 1705, "POP2015": 1793, "POP2020": 1938, "POP2025": 2083, "POP2050": 2222, "MIN_ZOOM": 5, "WIKIDATAID": "Q3551", "WOF_ID": 890444507, "CAPALT": 0, "NAME_EN": "Rabat", "NAME_DE": "Rabat", "NAME_ES": "Rabat", "NAME_FR": "Rabat", "NAME_PT": "Rabat", "NAME_RU": "Рабат", "NAME_ZH": "拉巴特", "LABEL": null, "NAME_AR": "الرباط", "NAME_BN": "রাবাত", "NAME_EL": "Ραμπάτ", "NAME_HI": "रबात", "NAME_HU": "Rabat", "NAME_ID": "Rabat", "NAME_IT": "Rabat", "NAME_JA": "ラバト", "NAME_KO": "라바트", "NAME_NL": "Rabat", "NAME_PL": "Rabat", "NAME_SV": "Rabat", "NAME_TR": "Rabat", "NAME_VI": "Rabat", "NE_ID": 1159150673, "NAME_FA": "رباط", "NAME_HE": "רבאט", "NAME_UK": "Рабат", "NAME_UR": "رباط", "NAME_ZHT": "拉巴特", "GEONAMESID": 2538475, "FCLASS_ISO": null, "FCLASS_US": null, "FCLASS_FR": null, "FCLASS_RU": null, "FCLASS_ES": null, "FCLASS_CN": null, "FCLASS_TW": null, "FCLASS_IN": null, "FCLASS_NP": null, "FCLASS_PK": null, "FCLASS_DE": null, "FCLASS_GB": null, "FCLASS_BR": null, "FCLASS_IL": null, "FCLASS_PS": null, "FCLASS_SA": null, "FCLASS_EG": null, "FCLASS_MA": null, "FCLASS_PT": null, "FCLASS_AR": null, "FCLASS_JP": null, "FCLASS_KO": null, "FCLASS_VN": null, "FCLASS_TR": null, "FCLASS_ID": null, "FCLASS_PL": null, "FCLASS_GR": null, "FCLASS_IT": null, "FCLASS_NL": null, "FCLASS_SE": null, "FCLASS_BD": null, "FCLASS_UA": null, "FCLASS_TLC": null}, "bbox": [-6.836408, 34.025307, -6.836408, 34.025307], "geometry": {"type": "Point", "coordinates": [-6.836408, 34.025307]}}, {"type": "Feature", "properties": {"SCALERANK": 3, "NATSCALE": 110, "LABELRANK": 7, "FEATURECLA": "Admin-1 capital", "NAME": "Banghazi", "NAMEPAR": null, "NAMEALT": "Benghazi", "NAMEASCII": "Benghazi", "ADM0CAP": 0, "CAPIN": null, "WORLDCITY": 0, "MEGACITY": 1, "SOV0NAME": "Libya", "SOV_A3": "LBY", "ADM0NAME": "Libya", "ADM0_A3": "LBY", "ADM1NAME": "Benghazi", "ISO_A2": "LY", "NOTE": null, "LATITUDE": 32.118679, "LONGITUDE": 20.064777, "POP_MAX": 1180000, "POP_MIN": 582374, "POP_OTHER": 0, "RANK_MAX": 12, "RANK_MIN": 11, "MEGANAME": "Banghazi", "LS_NAME": "Banghazi", "MAX_POP10": 582374, "MAX_POP20": 582374, "MAX_POP50": 582374, "MAX_POP300": 582374, "MAX_POP310": 0, "MAX_NATSCA": 100, "MIN_AREAKM": 94, "MAX_AREAKM": 94, "MIN_AREAMI": 36, "MAX_AREAMI": 36, "MIN_PERKM": 63, "MAX_PERKM": 63, "MIN_PERMI": 39, "MAX_PERMI": 39, "MIN_BBXMIN": 20.05, "MAX_BBXMIN": 20.05, "MIN_BBXMAX": 20.175, "MAX_BBXMAX": 20.175, "MIN_BBYMIN": 32.05, "MAX_BBYMIN": 32.05, "MIN_BBYMAX": 32.175, "MAX_BBYMAX": 32.175, "MEAN_BBXC": 20.107115, "MEAN_BBYC": 32.108718, "TIMEZONE": "Africa/Tripoli", "UN_FID": 343, "POP1950": 53, "POP1955": 74, "POP1960": 104, "POP1965": 148, "POP1970": 220, "POP1975": 306, "POP1980": 376, "POP1985": 469, "POP1990": 612, "POP1995": 799, "POP2000": 945, "POP2005": 1113, "POP2010": 1180, "POP2015": 1271, "POP2020": 1398, "POP2025": 1505, "POP2050": 1590, "MIN_ZOOM": 4.7, "WIKIDATAID": "Q40816", "WOF_ID": 421199765, "CAPALT": 0, "NAME_EN": "Benghazi", "NAME_DE": "Bengasi", "NAME_ES": "Bengasi", "NAME_FR": "Benghazi", "NAME_PT": "Bengasi", "NAME_RU": "Бенгази", "NAME_ZH": "班加西", "LABEL": null, "NAME_AR": "بنغازي", "NAME_BN": "বেনগাজি", "NAME_EL": "Βεγγάζη", "NAME_HI": "बेनगाज़ी", "NAME_HU": "Bengázi", "NAME_ID": "Benghazi", "NAME_IT": "Bengasi", "NAME_JA": "ベンガジ", "NAME_KO": "벵가지", "NAME_NL": "Benghazi", "NAME_PL": "Bengazi", "NAME_SV": "Benghazi", "NAME_TR": "Bingazi", "NAME_VI": "Benghazi", "NE_ID": 1159150953, "NAME_FA": "بنغازی", "NAME_HE": "בנגאזי", "NAME_UK": "Бенгазі", "NAME_UR": "بنغازی", "NAME_ZHT": "班加西", "GEONAMESID": 88319, "FCLASS_ISO": null, "FCLASS_US": null, "FCLASS_FR": null, "FCLASS_RU": null, "FCLASS_ES": null, "FCLASS_CN": null, "FCLASS_TW": null, "FCLASS_IN": null, "FCLASS_NP": null, "FCLASS_PK": null, "FCLASS_DE": null, "FCLASS_GB": null, "FCLASS_BR": null, "FCLASS_IL": null, "FCLASS_PS": null, "FCLASS_SA": null, "FCLASS_EG": null, "FCLASS_MA": null, "FCLASS_PT": null, "FCLASS_AR": null, "FCLASS_JP": null, "FCLASS_KO": null, "FCLASS_VN": null, "FCLASS_TR": null, "FCLASS_ID": null, "FCLASS_PL": null, "FCLASS_GR": null, "FCLASS_IT": null, "FCLASS_NL": null, "FCLASS_SE": null, "FCLASS_BD": null, "FCLASS_UA": null, "FCLASS_TLC": null, "sourceName": "Banghazi"}, "bbox": [20.064777, 32.118679, 20.064777, 32.118679], "geometry": {"type": "Point", "coordinates": [20.064777, 32.118679]}}, {"type": "Feature", "properties": {"SCALERANK": 3, "NATSCALE": 110, "LABELRANK": 5, "FEATURECLA": "Populated place", "NAME": "Oran", "NAMEPAR": null, "NAMEALT": "Wahran", "NAMEASCII": "Oran", "ADM0CAP": 0, "CAPIN": null, "WORLDCITY": 0, "MEGACITY": 1, "SOV0NAME": "Algeria", "SOV_A3": "DZA", "ADM0NAME": "Algeria", "ADM0_A3": "DZA", "ADM1NAME": "Oran", "ISO_A2": "DZ", "NOTE": null, "LATITUDE": 35.711948, "LONGITUDE": -0.621919, "POP_MAX": 798000, "POP_MIN": 645984, "POP_OTHER": 1110421, "RANK_MAX": 11, "RANK_MIN": 11, "MEGANAME": "Wahran", "LS_NAME": "Oran", "MAX_POP10": 1164149, "MAX_POP20": 1170747, "MAX_POP50": 1170747, "MAX_POP300": 1170747, "MAX_POP310": 0, "MAX_NATSCA": 100, "MIN_AREAKM": 284, "MAX_AREAKM": 295, "MIN_AREAMI": 109, "MAX_AREAMI": 114, "MIN_PERKM": 306, "MAX_PERKM": 328, "MIN_PERMI": 190, "MAX_PERMI": 204, "MIN_BBXMIN": -0.716667, "MAX_BBXMIN": -0.716667, "MIN_BBXMAX": -0.256906, "MAX_BBXMAX": -0.183333, "MIN_BBYMIN": 35.608333, "MAX_BBYMIN": 35.608333, "MIN_BBYMAX": 35.891667, "MAX_BBYMAX": 35.891667, "MEAN_BBXC": -0.498154, "MEAN_BBYC": 35.731807, "TIMEZONE": "Africa/Algiers", "UN_FID": 7, "POP1950": 269, "POP1955": 286, "POP1960": 305, "POP1965": 325, "POP1970": 385, "POP1975": 466, "POP1980": 537, "POP1985": 604, "POP1990": 647, "POP1995": 675, "POP2000": 706, "POP2005": 765, "POP2010": 798, "POP2015": 852, "POP2020": 944, "POP2025": 1030, "POP2050": 1105, "MIN_ZOOM": 5, "WIKIDATAID": "Q131818", "WOF_ID": 421170449, "CAPALT": 0, "NAME_EN": "Oran", "NAME_DE": "Oran", "NAME_ES": "Orán", "NAME_FR": "Oran", "NAME_PT": "Orã", "NAME_RU": "Оран", "NAME_ZH": "瓦赫兰", "LABEL": null, "NAME_AR": "وهران", "NAME_BN": "ওরান", "NAME_EL": "Οράν", "NAME_HI": "ओरान", "NAME_HU": "Orán", "NAME_ID": "Oran", "NAME_IT": "Orano", "NAME_JA": "オラン", "NAME_KO": "오랑", "NAME_NL": "Oran", "NAME_PL": "Oran", "NAME_SV": "Oran", "NAME_TR": "Oran", "NAME_VI": "Oran", "NE_ID": 1159151137, "NAME_FA": "وهران", "NAME_HE": "אוראן", "NAME_UK": "Оран", "NAME_UR": "وہران", "NAME_ZHT": "瓦赫蘭", "GEONAMESID": 2485926, "FCLASS_ISO": null, "FCLASS_US": null, "FCLASS_FR": null, "FCLASS_RU": null, "FCLASS_ES": null, "FCLASS_CN": null, "FCLASS_TW": null, "FCLASS_IN": null, "FCLASS_NP": null, "FCLASS_PK": null, "FCLASS_DE": null, "FCLASS_GB": null, "FCLASS_BR": null, "FCLASS_IL": null, "FCLASS_PS": null, "FCLASS_SA": null, "FCLASS_EG": null, "FCLASS_MA": null, "FCLASS_PT": null, "FCLASS_AR": null, "FCLASS_JP": null, "FCLASS_KO": null, "FCLASS_VN": null, "FCLASS_TR": null, "FCLASS_ID": null, "FCLASS_PL": null, "FCLASS_GR": null, "FCLASS_IT": null, "FCLASS_NL": null, "FCLASS_SE": null, "FCLASS_BD": null, "FCLASS_UA": null, "FCLASS_TLC": null}, "bbox": [-0.621919, 35.711948, -0.621919, 35.711948], "geometry": {"type": "Point", "coordinates": [-0.621919, 35.711948]}}, {"type": "Feature", "properties": {"SCALERANK": 2, "NATSCALE": 200, "LABELRANK": 3, "FEATURECLA": "Populated place", "NAME": "Alexandria", "NAMEPAR": null, "NAMEALT": "Al-Iskandariyah", "NAMEASCII": "Alexandria", "ADM0CAP": 0, "CAPIN": null, "WORLDCITY": 0, "MEGACITY": 1, "SOV0NAME": "Egypt", "SOV_A3": "EGY", "ADM0NAME": "Egypt", "ADM0_A3": "EGY", "ADM1NAME": "Al Iskandariyah", "ISO_A2": "EG", "NOTE": null, "LATITUDE": 31.201965, "LONGITUDE": 29.94805, "POP_MAX": 4165000, "POP_MIN": 3811516, "POP_OTHER": 4629303, "RANK_MAX": 12, "RANK_MIN": 12, "MEGANAME": "Al-Iskandariyah", "LS_NAME": "Alexandria3", "MAX_POP10": 4678990, "MAX_POP20": 4680652, "MAX_POP50": 4680652, "MAX_POP300": 4680652, "MAX_POP310": 0, "MAX_NATSCA": 100, "MIN_AREAKM": 361, "MAX_AREAKM": 363, "MIN_AREAMI": 140, "MAX_AREAMI": 140, "MIN_PERKM": 307, "MAX_PERKM": 310, "MIN_PERMI": 191, "MAX_PERMI": 193, "MIN_BBXMIN": 29.716667, "MAX_BBXMIN": 29.716667, "MIN_BBXMAX": 30.222014, "MAX_BBXMAX": 30.225, "MIN_BBYMIN": 31.066667, "MAX_BBYMIN": 31.066667, "MIN_BBYMAX": 31.325, "MAX_BBYMAX": 31.325, "MEAN_BBXC": 30.015504, "MEAN_BBYC": 31.192471, "TIMEZONE": "Africa/Cairo", "UN_FID": 514, "POP1950": 1037, "POP1955": 1249, "POP1960": 1504, "POP1965": 1752, "POP1970": 1987, "POP1975": 2241, "POP1980": 2519, "POP1985": 2826, "POP1990": 3063, "POP1995": 3277, "POP2000": 3600, "POP2005": 3995, "POP2010": 4165, "POP2015": 4421, "POP2020": 4817, "POP2025": 5210, "POP2050": 5652, "MIN_ZOOM": 4, "WIKIDATAID": "Q87", "WOF_ID": 890429453, "CAPALT": 0, "NAME_EN": "Alexandria", "NAME_DE": "Alexandria", "NAME_ES": "Alejandría", "NAME_FR": "Alexandrie", "NAME_PT": "Alexandria", "NAME_RU": "Александрия", "NAME_ZH": "亚历山大港", "LABEL": null, "NAME_AR": "الإسكندرية", "NAME_BN": "আলেকজান্দ্রিয়া", "NAME_EL": "Αλεξάνδρεια", "NAME_HI": "सिकन्दरिया", "NAME_HU": "Alexandria", "NAME_ID": "Iskandariyah", "NAME_IT": "Alessandria d'Egitto", "NAME_JA": "アレクサンドリア", "NAME_KO": "알렉산드리아", "NAME_NL": "Alexandrië", "NAME_PL": "Aleksandria", "NAME_SV": "Alexandria", "NAME_TR": "İskenderiye", "NAME_VI": "Alexandria", "NE_ID": 1159151349, "NAME_FA": "اسکندریه", "NAME_HE": "אלכסנדריה", "NAME_UK": "Александрія", "NAME_UR": "اسکندریہ", "NAME_ZHT": "亞歷山卓", "GEONAMESID": 361058, "FCLASS_ISO": null, "FCLASS_US": null, "FCLASS_FR": null, "FCLASS_RU": null, "FCLASS_ES": null, "FCLASS_CN": null, "FCLASS_TW": null, "FCLASS_IN": null, "FCLASS_NP": null, "FCLASS_PK": null, "FCLASS_DE": null, "FCLASS_GB": null, "FCLASS_BR": null, "FCLASS_IL": null, "FCLASS_PS": null, "FCLASS_SA": null, "FCLASS_EG": null, "FCLASS_MA": null, "FCLASS_PT": null, "FCLASS_AR": null, "FCLASS_JP": null, "FCLASS_KO": null, "FCLASS_VN": null, "FCLASS_TR": null, "FCLASS_ID": null, "FCLASS_PL": null, "FCLASS_GR": null, "FCLASS_IT": null, "FCLASS_NL": null, "FCLASS_SE": null, "FCLASS_BD": null, "FCLASS_UA": null, "FCLASS_TLC": null}, "bbox": [29.94805, 31.201965, 29.94805, 31.201965], "geometry": {"type": "Point", "coordinates": [29.94805, 31.201965]}}, {"type": "Feature", "properties": {"SCALERANK": 2, "NATSCALE": 200, "LABELRANK": 7, "FEATURECLA": "Admin-0 capital", "NAME": "Tripoli", "NAMEPAR": null, "NAMEALT": null, "NAMEASCII": "Tripoli", "ADM0CAP": 1, "CAPIN": null, "WORLDCITY": 0, "MEGACITY": 1, "SOV0NAME": "Libya", "SOV_A3": "LBY", "ADM0NAME": "Libya", "ADM0_A3": "LBY", "ADM1NAME": "Tajura' wa an Nawahi al Arba", "ISO_A2": "LY", "NOTE": null, "LATITUDE": 32.8925, "LONGITUDE": 13.180012, "POP_MAX": 2189000, "POP_MIN": 229398, "POP_OTHER": 1149981, "RANK_MAX": 12, "RANK_MIN": 10, "MEGANAME": "Tarabulus", "LS_NAME": "Tripoli1", "MAX_POP10": 1173386, "MAX_POP20": 1173386, "MAX_POP50": 1173386, "MAX_POP300": 1173386, "MAX_POP310": 0, "MAX_NATSCA": 100, "MIN_AREAKM": 195, "MAX_AREAKM": 195, "MIN_AREAMI": 75, "MAX_AREAMI": 75, "MIN_PERKM": 142, "MAX_PERKM": 142, "MIN_PERMI": 88, "MAX_PERMI": 88, "MIN_BBXMIN": 12.983333, "MAX_BBXMIN": 12.983333, "MIN_BBXMAX": 13.408333, "MAX_BBXMAX": 13.408333, "MIN_BBYMIN": 32.808333, "MAX_BBYMIN": 32.808333, "MIN_BBYMAX": 32.908333, "MAX_BBYMAX": 32.908333, "MEAN_BBXC": 13.19322, "MEAN_BBYC": 32.86207, "TIMEZONE": null, "UN_FID": 344, "POP1950": 106, "POP1955": 136, "POP1960": 174, "POP1965": 235, "POP1970": 398, "POP1975": 611, "POP1980": 797, "POP1985": 1056, "POP1990": 1500, "POP1995": 1678, "POP2000": 1877, "POP2005": 2098, "POP2010": 2189, "POP2015": 2322, "POP2020": 2532, "POP2025": 2713, "POP2050": 2855, "MIN_ZOOM": 4, "WIKIDATAID": "Q3579", "WOF_ID": 1141909421, "CAPALT": 0, "NAME_EN": "Tripoli", "NAME_DE": "Tripolis", "NAME_ES": "Trípoli", "NAME_FR": "Tripoli", "NAME_PT": "Trípoli", "NAME_RU": "Триполи", "NAME_ZH": "的黎波里", "LABEL": null, "NAME_AR": "طرابلس", "NAME_BN": "ত্রিপোলি", "NAME_EL": "Τρίπολη", "NAME_HI": "ताराबूलस", "NAME_HU": "Tripoli", "NAME_ID": "Tripoli", "NAME_IT": "Tripoli", "NAME_JA": "トリポリ", "NAME_KO": "트리폴리", "NAME_NL": "Tripoli", "NAME_PL": "Trypolis", "NAME_SV": "Tripoli", "NAME_TR": "Trablus", "NAME_VI": "Tripoli", "NE_ID": 1159151415, "NAME_FA": "طرابلس", "NAME_HE": "טריפולי", "NAME_UK": "Триполі", "NAME_UR": "طرابلس", "NAME_ZHT": "的黎波里", "GEONAMESID": -1, "FCLASS_ISO": null, "FCLASS_US": null, "FCLASS_FR": null, "FCLASS_RU": null, "FCLASS_ES": null, "FCLASS_CN": null, "FCLASS_TW": null, "FCLASS_IN": null, "FCLASS_NP": null, "FCLASS_PK": null, "FCLASS_DE": null, "FCLASS_GB": null, "FCLASS_BR": null, "FCLASS_IL": null, "FCLASS_PS": null, "FCLASS_SA": null, "FCLASS_EG": null, "FCLASS_MA": null, "FCLASS_PT": null, "FCLASS_AR": null, "FCLASS_JP": null, "FCLASS_KO": null, "FCLASS_VN": null, "FCLASS_TR": null, "FCLASS_ID": null, "FCLASS_PL": null, "FCLASS_GR": null, "FCLASS_IT": null, "FCLASS_NL": null, "FCLASS_SE": null, "FCLASS_BD": null, "FCLASS_UA": null, "FCLASS_TLC": null}, "bbox": [13.180012, 32.8925, 13.180012, 32.8925], "geometry": {"type": "Point", "coordinates": [13.180012, 32.8925]}}, {"type": "Feature", "properties": {"SCALERANK": 2, "NATSCALE": 200, "LABELRANK": 5, "FEATURECLA": "Admin-0 capital", "NAME": "Algiers", "NAMEPAR": null, "NAMEALT": "El Djazacr", "NAMEASCII": "Algiers", "ADM0CAP": 1, "CAPIN": null, "WORLDCITY": 0, "MEGACITY": 1, "SOV0NAME": "Algeria", "SOV_A3": "DZA", "ADM0NAME": "Algeria", "ADM0_A3": "DZA", "ADM1NAME": "Alger", "ISO_A2": "DZ", "NOTE": null, "LATITUDE": 36.765011, "LONGITUDE": 3.048607, "POP_MAX": 3354000, "POP_MIN": 1977663, "POP_OTHER": 3332619, "RANK_MAX": 12, "RANK_MIN": 12, "MEGANAME": "El Djazasr", "LS_NAME": "Algiers", "MAX_POP10": 3368320, "MAX_POP20": 3698473, "MAX_POP50": 4203253, "MAX_POP300": 4203253, "MAX_POP310": 0, "MAX_NATSCA": 100, "MIN_AREAKM": 886, "MAX_AREAKM": 1275, "MIN_AREAMI": 342, "MAX_AREAMI": 492, "MIN_PERKM": 798, "MAX_PERKM": 1192, "MIN_PERMI": 496, "MAX_PERMI": 741, "MIN_BBXMIN": 2.641667, "MAX_BBXMIN": 2.808333, "MIN_BBXMAX": 3.548211, "MAX_BBXMAX": 3.741667, "MIN_BBYMIN": 36.45, "MAX_BBYMIN": 36.508333, "MIN_BBYMAX": 36.816667, "MAX_BBYMAX": 36.816667, "MEAN_BBXC": 3.101671, "MEAN_BBYC": 36.673641, "TIMEZONE": "Africa/Algiers", "UN_FID": 6, "POP1950": 516, "POP1955": 623, "POP1960": 872, "POP1965": 1049, "POP1970": 1254, "POP1975": 1499, "POP1980": 1621, "POP1985": 1672, "POP1990": 1908, "POP1995": 2295, "POP2000": 2754, "POP2005": 3199, "POP2010": 3354, "POP2015": 3574, "POP2020": 3922, "POP2025": 4235, "POP2050": 4499, "MIN_ZOOM": 4, "WIKIDATAID": "Q3561", "WOF_ID": 421174649, "CAPALT": 0, "NAME_EN": "Algiers", "NAME_DE": "Algier", "NAME_ES": "Argel", "NAME_FR": "Alger", "NAME_PT": "Argel", "NAME_RU": "Алжир", "NAME_ZH": "阿尔及尔", "LABEL": null, "NAME_AR": "الجزائر", "NAME_BN": "আলজিয়ার্স", "NAME_EL": "Αλγέρι", "NAME_HI": "अल्जीयर्स", "NAME_HU": "Algír", "NAME_ID": "Aljir", "NAME_IT": "Algeri", "NAME_JA": "アルジェ", "NAME_KO": "알제", "NAME_NL": "Algiers", "NAME_PL": "Algier", "NAME_SV": "Alger", "NAME_TR": "Cezayir", "NAME_VI": "Algiers", "NE_ID": 1159151471, "NAME_FA": "الجزیره", "NAME_HE": "אלג'יר", "NAME_UK": "Алжир", "NAME_UR": "الجزائر شہر", "NAME_ZHT": "阿爾及爾", "GEONAMESID": 2507480, "FCLASS_ISO": null, "FCLASS_US": null, "FCLASS_FR": null, "FCLASS_RU": null, "FCLASS_ES": null, "FCLASS_CN": null, "FCLASS_TW": null, "FCLASS_IN": null, "FCLASS_NP": null, "FCLASS_PK": null, "FCLASS_DE": null, "FCLASS_GB": null, "FCLASS_BR": null, "FCLASS_IL": null, "FCLASS_PS": null, "FCLASS_SA": null, "FCLASS_EG": null, "FCLASS_MA": null, "FCLASS_PT": null, "FCLASS_AR": null, "FCLASS_JP": null, "FCLASS_KO": null, "FCLASS_VN": null, "FCLASS_TR": null, "FCLASS_ID": null, "FCLASS_PL": null, "FCLASS_GR": null, "FCLASS_IT": null, "FCLASS_NL": null, "FCLASS_SE": null, "FCLASS_BD": null, "FCLASS_UA": null, "FCLASS_TLC": null}, "bbox": [3.048607, 36.765011, 3.048607, 36.765011], "geometry": {"type": "Point", "coordinates": [3.048607, 36.765011]}}, {"type": "Feature", "properties": {"SCALERANK": 1, "NATSCALE": 300, "LABELRANK": 5, "FEATURECLA": "Admin-1 capital", "NAME": "Casablanca", "NAMEPAR": null, "NAMEALT": "Dar-el-Beida", "NAMEASCII": "Casablanca", "ADM0CAP": 0, "CAPIN": null, "WORLDCITY": 1, "MEGACITY": 1, "SOV0NAME": "Morocco", "SOV_A3": "MAR", "ADM0NAME": "Morocco", "ADM0_A3": "MAR", "ADM1NAME": "Grand Casablanca", "ISO_A2": "MA", "NOTE": null, "LATITUDE": 33.601922, "LONGITUDE": -7.618313, "POP_MAX": 3181000, "POP_MIN": 3144909, "POP_OTHER": 3718797, "RANK_MAX": 12, "RANK_MIN": 12, "MEGANAME": "Dar-el-Beida", "LS_NAME": "Casablanca", "MAX_POP10": 3796279, "MAX_POP20": 3796279, "MAX_POP50": 3796279, "MAX_POP300": 3796279, "MAX_POP310": 0, "MAX_NATSCA": 100, "MIN_AREAKM": 436, "MAX_AREAKM": 436, "MIN_AREAMI": 168, "MAX_AREAMI": 168, "MIN_PERKM": 261, "MAX_PERKM": 261, "MIN_PERMI": 162, "MAX_PERMI": 162, "MIN_BBXMIN": -7.7, "MAX_BBXMIN": -7.7, "MIN_BBXMAX": -7.325, "MAX_BBXMAX": -7.325, "MIN_BBYMIN": 33.391667, "MAX_BBYMIN": 33.391667, "MIN_BBYMAX": 33.733333, "MAX_BBYMAX": 33.733333, "MEAN_BBXC": -7.518511, "MEAN_BBYC": 33.557664, "TIMEZONE": "Africa/Casablanca", "UN_FID": 372, "POP1950": 625, "POP1955": 778, "POP1960": 967, "POP1965": 1206, "POP1970": 1505, "POP1975": 1793, "POP1980": 2109, "POP1985": 2406, "POP1990": 2682, "POP1995": 2951, "POP2000": 3043, "POP2005": 3138, "POP2010": 3181, "POP2015": 3267, "POP2020": 3475, "POP2025": 3716, "POP2050": 3949, "MIN_ZOOM": 3.7, "WIKIDATAID": "Q7903", "WOF_ID": 890434661, "CAPALT": 0, "NAME_EN": "Casablanca", "NAME_DE": "Casablanca", "NAME_ES": "Casablanca", "NAME_FR": "Casablanca", "NAME_PT": "Casablanca", "NAME_RU": "Касабланка", "NAME_ZH": "卡萨布兰卡", "LABEL": null, "NAME_AR": "الدار البيضاء", "NAME_BN": "কাসাব্লাঙ্কা", "NAME_EL": "Καζαμπλάνκα", "NAME_HI": "कासाब्लांका", "NAME_HU": "Casablanca", "NAME_ID": "Casablanca", "NAME_IT": "Casablanca", "NAME_JA": "カサブランカ", "NAME_KO": "카사블랑카", "NAME_NL": "Casablanca", "NAME_PL": "Casablanca", "NAME_SV": "Casablanca", "NAME_TR": "Kazablanka", "NAME_VI": "Casablanca", "NE_ID": 1159151521, "NAME_FA": "کازابلانکا", "NAME_HE": "קזבלנקה", "NAME_UK": "Касабланка", "NAME_UR": "دار البیضاء", "NAME_ZHT": "卡薩布蘭卡", "GEONAMESID": 2553604, "FCLASS_ISO": null, "FCLASS_US": null, "FCLASS_FR": null, "FCLASS_RU": null, "FCLASS_ES": null, "FCLASS_CN": null, "FCLASS_TW": null, "FCLASS_IN": null, "FCLASS_NP": null, "FCLASS_PK": null, "FCLASS_DE": null, "FCLASS_GB": null, "FCLASS_BR": null, "FCLASS_IL": null, "FCLASS_PS": null, "FCLASS_SA": null, "FCLASS_EG": null, "FCLASS_MA": null, "FCLASS_PT": null, "FCLASS_AR": null, "FCLASS_JP": null, "FCLASS_KO": null, "FCLASS_VN": null, "FCLASS_TR": null, "FCLASS_ID": null, "FCLASS_PL": null, "FCLASS_GR": null, "FCLASS_IT": null, "FCLASS_NL": null, "FCLASS_SE": null, "FCLASS_BD": null, "FCLASS_UA": null, "FCLASS_TLC": null}, "bbox": [-7.618313, 33.601922, -7.618313, 33.601922], "geometry": {"type": "Point", "coordinates": [-7.618313, 33.601922]}}, {"type": "Feature", "properties": {"SCALERANK": 0, "NATSCALE": 600, "LABELRANK": 3, "FEATURECLA": "Admin-0 capital", "NAME": "Cairo", "NAMEPAR": null, "NAMEALT": "Al-Qahirah", "NAMEASCII": "Cairo", "ADM0CAP": 1, "CAPIN": null, "WORLDCITY": 1, "MEGACITY": 1, "SOV0NAME": "Egypt", "SOV_A3": "EGY", "ADM0NAME": "Egypt", "ADM0_A3": "EGY", "ADM1NAME": "Al Qahirah", "ISO_A2": "EG", "NOTE": null, "LATITUDE": 30.051906, "LONGITUDE": 31.248022, "POP_MAX": 11893000, "POP_MIN": 7734614, "POP_OTHER": 13720557, "RANK_MAX": 14, "RANK_MIN": 13, "MEGANAME": "Al-Qahirah", "LS_NAME": "Cairo", "MAX_POP10": 14936123, "MAX_POP20": 15091561, "MAX_POP50": 29872827, "MAX_POP300": 30682197, "MAX_POP310": 30696820, "MAX_NATSCA": 300, "MIN_AREAKM": 1479, "MAX_AREAKM": 4900, "MIN_AREAMI": 571, "MAX_AREAMI": 1892, "MIN_PERKM": 1365, "MAX_PERKM": 5010, "MIN_PERMI": 848, "MAX_PERMI": 3113, "MIN_BBXMIN": 30.641667, "MAX_BBXMIN": 30.991693, "MIN_BBXMAX": 31.672096, "MAX_BBXMAX": 31.733333, "MIN_BBYMIN": 29.3, "MAX_BBYMIN": 29.8, "MIN_BBYMAX": 30.531354, "MAX_BBYMAX": 31.158333, "MEAN_BBXC": 31.273845, "MEAN_BBYC": 30.353647, "TIMEZONE": "Africa/Cairo", "UN_FID": 515, "POP1950": 2494, "POP1955": 3029, "POP1960": 3680, "POP1965": 4738, "POP1970": 5585, "POP1975": 6450, "POP1980": 7349, "POP1985": 8328, "POP1990": 9061, "POP1995": 9707, "POP2000": 10534, "POP2005": 11487, "POP2010": 11893, "POP2015": 12503, "POP2020": 13465, "POP2025": 14451, "POP2050": 15561, "MIN_ZOOM": 1.7, "WIKIDATAID": "Q85", "WOF_ID": 421174399, "CAPALT": 0, "NAME_EN": "Cairo", "NAME_DE": "Kairo", "NAME_ES": "El Cairo", "NAME_FR": "Le Caire", "NAME_PT": "Cairo", "NAME_RU": "Каир", "NAME_ZH": "开罗", "LABEL": null, "NAME_AR": "القاهرة", "NAME_BN": "কায়রো", "NAME_EL": "Κάιρο", "NAME_HI": "काहिरा", "NAME_HU": "Kairó", "NAME_ID": "Kairo", "NAME_IT": "Il Cairo", "NAME_JA": "カイロ", "NAME_KO": "카이로", "NAME_NL": "Caïro", "NAME_PL": "Kair", "NAME_SV": "Kairo", "NAME_TR": "Kahire", "NAME_VI": "Cairo", "NE_ID": 1159151603, "NAME_FA": "قاهره", "NAME_HE": "קהיר", "NAME_UK": "Каїр", "NAME_UR": "قاہرہ", "NAME_ZHT": "開羅", "GEONAMESID": 360630, "FCLASS_ISO": null, "FCLASS_US": null, "FCLASS_FR": null, "FCLASS_RU": null, "FCLASS_ES": null, "FCLASS_CN": null, "FCLASS_TW": null, "FCLASS_IN": null, "FCLASS_NP": null, "FCLASS_PK": null, "FCLASS_DE": null, "FCLASS_GB": null, "FCLASS_BR": null, "FCLASS_IL": null, "FCLASS_PS": null, "FCLASS_SA": null, "FCLASS_EG": null, "FCLASS_MA": null, "FCLASS_PT": null, "FCLASS_AR": null, "FCLASS_JP": null, "FCLASS_KO": null, "FCLASS_VN": null, "FCLASS_TR": null, "FCLASS_ID": null, "FCLASS_PL": null, "FCLASS_GR": null, "FCLASS_IT": null, "FCLASS_NL": null, "FCLASS_SE": null, "FCLASS_BD": null, "FCLASS_UA": null, "FCLASS_TLC": null}, "bbox": [31.248022, 30.051906, 31.248022, 30.051906], "geometry": {"type": "Point", "coordinates": [31.248022, 30.051906]}}]}